{
"type": "FeatureCollection",
"name": "mask2_1998_rot90",
"crs": { "type": "name", "properties": { "name": "urn:ogc:def:crs:EPSG::32630" } },
"features": [
{ "type": "Feature", "properties": { "type": 5 }, "geometry": { "type": "Polygon", "coordinates": [ [ [ 384435.0, 3519345.0 ], [ 384435.0, 3519315.0 ], [ 384405.0, 3519315.0 ], [ 384405.0, 3519285.0 ], [ 384375.0, 3519285.0 ], [ 384375.0, 3519255.0 ], [ 384345.0, 3519255.0 ], [ 384345.0, 3519225.0 ], [ 384315.0, 3519225.0 ], [ 384315.0, 3519195.0 ], [ 384375.0, 3519195.0 ], [ 384375.0, 3519225.0 ], [ 384405.0, 3519225.0 ], [ 384405.0, 3519255.0 ], [ 384465.0, 3519255.0 ], [ 384465.0, 3519285.0 ], [ 384495.0, 3519285.0 ], [ 384495.0, 3519345.0 ], [ 384435.0, 3519345.0 ] ] ] } },
{ "type": "Feature", "properties": { "type": 5 }, "geometry": { "type": "Polygon", "coordinates": [ [ [ 384285.0, 3519195.0 ], [ 384285.0, 3519165.0 ], [ 384315.0, 3519165.0 ], [ 384315.0, 3519195.0 ], [ 384285.0, 3519195.0 ] ] ] } },
{ "type": "Feature", "properties": { "type": 5 }, "geometry": { "type": "Polygon", "coordinates": [ [ [ 384225.0, 3519165.0 ], [ 384225.0, 3519135.0 ], [ 384195.0, 3519135.0 ], [ 384195.0, 3519105.0 ], [ 384165.0, 3519105.0 ], [ 384165.0, 3519075.0 ], [ 384225.0, 3519075.0 ], [ 384225.0, 3519105.0 ], [ 384255.0, 3519105.0 ], [ 384255.0, 3519135.0 ], [ 384285.0, 3519135.0 ], [ 384285.0, 3519165.0 ], [ 384225.0, 3519165.0 ] ] ] } },
{ "type": "Feature", "properties": { "type": 5 }, "geometry": { "type": "Polygon", "coordinates": [ [ [ 384135.0, 3519075.0 ], [ 384135.0, 3519045.0 ], [ 384165.0, 3519045.0 ], [ 384165.0, 3519075.0 ], [ 384135.0, 3519075.0 ] ] ] } },
{ "type": "Feature", "properties": { "type": 5 }, "geometry": { "type": "Polygon", "coordinates": [ [ [ 384105.0, 3519045.0 ], [ 384105.0, 3519015.0 ], [ 384135.0, 3519015.0 ], [ 384135.0, 3519045.0 ], [ 384105.0, 3519045.0 ] ] ] } },
{ "type": "Feature", "properties": { "type": 5 }, "geometry": { "type": "Polygon", "coordinates": [ [ [ 384045.0, 3519015.0 ], [ 384045.0, 3518985.0 ], [ 384015.0, 3518985.0 ], [ 384015.0, 3518925.0 ], [ 384045.0, 3518925.0 ], [ 384045.0, 3518955.0 ], [ 384075.0, 3518955.0 ], [ 384075.0, 3518985.0 ], [ 384105.0, 3518985.0 ], [ 384105.0, 3519015.0 ], [ 384045.0, 3519015.0 ] ] ] } },
{ "type": "Feature", "properties": { "type": 5 }, "geometry": { "type": "Polygon", "coordinates": [ [ [ 383985.0, 3518925.0 ], [ 383985.0, 3518895.0 ], [ 384015.0, 3518895.0 ], [ 384015.0, 3518925.0 ], [ 383985.0, 3518925.0 ] ] ] } },
{ "type": "Feature", "properties": { "type": 5 }, "geometry": { "type": "Polygon", "coordinates": [ [ [ 383955.0, 3518895.0 ], [ 383955.0, 3518865.0 ], [ 383985.0, 3518865.0 ], [ 383985.0, 3518895.0 ], [ 383955.0, 3518895.0 ] ] ] } },
{ "type": "Feature", "properties": { "type": 5 }, "geometry": { "type": "Polygon", "coordinates": [ [ [ 383925.0, 3518865.0 ], [ 383925.0, 3518835.0 ], [ 383895.0, 3518835.0 ], [ 383895.0, 3518775.0 ], [ 383925.0, 3518775.0 ], [ 383925.0, 3518805.0 ], [ 383955.0, 3518805.0 ], [ 383955.0, 3518865.0 ], [ 383925.0, 3518865.0 ] ] ] } },
{ "type": "Feature", "properties": { "type": 2 }, "geometry": { "type": "Polygon", "coordinates": [ [ [ 384315.0, 3518685.0 ], [ 384315.0, 3518625.0 ], [ 384345.0, 3518625.0 ], [ 384345.0, 3518685.0 ], [ 384315.0, 3518685.0 ] ] ] } },
{ "type": "Feature", "properties": { "type": 5 }, "geometry": { "type": "Polygon", "coordinates": [ [ [ 383865.0, 3518775.0 ], [ 383865.0, 3518745.0 ], [ 383835.0, 3518745.0 ], [ 383835.0, 3518655.0 ], [ 383805.0, 3518655.0 ], [ 383805.0, 3518535.0 ], [ 383835.0, 3518535.0 ], [ 383835.0, 3518625.0 ], [ 383865.0, 3518625.0 ], [ 383865.0, 3518715.0 ], [ 383895.0, 3518715.0 ], [ 383895.0, 3518775.0 ], [ 383865.0, 3518775.0 ] ] ] } },
{ "type": "Feature", "properties": { "type": 2 }, "geometry": { "type": "Polygon", "coordinates": [ [ [ 384285.0, 3518625.0 ], [ 384285.0, 3518565.0 ], [ 384255.0, 3518565.0 ], [ 384255.0, 3518475.0 ], [ 384285.0, 3518475.0 ], [ 384285.0, 3518535.0 ], [ 384315.0, 3518535.0 ], [ 384315.0, 3518625.0 ], [ 384285.0, 3518625.0 ] ] ] } },
{ "type": "Feature", "properties": { "type": 2 }, "geometry": { "type": "Polygon", "coordinates": [ [ [ 384225.0, 3518475.0 ], [ 384225.0, 3518385.0 ], [ 384255.0, 3518385.0 ], [ 384255.0, 3518475.0 ], [ 384225.0, 3518475.0 ] ] ] } },
{ "type": "Feature", "properties": { "type": 5 }, "geometry": { "type": "Polygon", "coordinates": [ [ [ 383775.0, 3518535.0 ], [ 383775.0, 3518445.0 ], [ 383745.0, 3518445.0 ], [ 383745.0, 3518355.0 ], [ 383715.0, 3518355.0 ], [ 383715.0, 3518265.0 ], [ 383685.0, 3518265.0 ], [ 383685.0, 3518205.0 ], [ 383655.0, 3518205.0 ], [ 383655.0, 3518115.0 ], [ 383625.0, 3518115.0 ], [ 383625.0, 3518055.0 ], [ 383595.0, 3518055.0 ], [ 383595.0, 3517965.0 ], [ 383565.0, 3517965.0 ], [ 383565.0, 3517875.0 ], [ 383505.0, 3517875.0 ], [ 383505.0, 3517845.0 ], [ 383445.0, 3517845.0 ], [ 383445.0, 3517815.0 ], [ 383415.0, 3517815.0 ], [ 383415.0, 3517785.0 ], [ 383385.0, 3517785.0 ], [ 383385.0, 3517755.0 ], [ 383415.0, 3517755.0 ], [ 383415.0, 3517695.0 ], [ 383445.0, 3517695.0 ], [ 383445.0, 3517665.0 ], [ 383475.0, 3517665.0 ], [ 383475.0, 3517725.0 ], [ 383505.0, 3517725.0 ], [ 383505.0, 3517755.0 ], [ 383535.0, 3517755.0 ], [ 383535.0, 3517785.0 ], [ 383565.0, 3517785.0 ], [ 383565.0, 3517815.0 ], [ 383595.0, 3517815.0 ], [ 383595.0, 3517845.0 ], [ 383625.0, 3517845.0 ], [ 383625.0, 3517875.0 ], [ 383655.0, 3517875.0 ], [ 383655.0, 3517965.0 ], [ 383685.0, 3517965.0 ], [ 383685.0, 3518055.0 ], [ 383715.0, 3518055.0 ], [ 383715.0, 3518175.0 ], [ 383745.0, 3518175.0 ], [ 383745.0, 3518295.0 ], [ 383775.0, 3518295.0 ], [ 383775.0, 3518415.0 ], [ 383805.0, 3518415.0 ], [ 383805.0, 3518535.0 ], [ 383775.0, 3518535.0 ] ] ] } },
{ "type": "Feature", "properties": { "type": 2 }, "geometry": { "type": "Polygon", "coordinates": [ [ [ 382905.0, 3517605.0 ], [ 382905.0, 3517575.0 ], [ 382995.0, 3517575.0 ], [ 382995.0, 3517605.0 ], [ 382905.0, 3517605.0 ] ] ] } },
{ "type": "Feature", "properties": { "type": 2 }, "geometry": { "type": "Polygon", "coordinates": [ [ [ 383685.0, 3517545.0 ], [ 383685.0, 3517455.0 ], [ 383715.0, 3517455.0 ], [ 383715.0, 3517545.0 ], [ 383685.0, 3517545.0 ] ] ] } },
{ "type": "Feature", "properties": { "type": 5 }, "geometry": { "type": "Polygon", "coordinates": [ [ [ 382245.0, 3517515.0 ], [ 382245.0, 3517485.0 ], [ 382275.0, 3517485.0 ], [ 382275.0, 3517455.0 ], [ 382335.0, 3517455.0 ], [ 382335.0, 3517515.0 ], [ 382245.0, 3517515.0 ] ] ] } },
{ "type": "Feature", "properties": { "type": 2 }, "geometry": { "type": "Polygon", "coordinates": [ [ [ 382485.0, 3517455.0 ], [ 382485.0, 3517395.0 ], [ 382515.0, 3517395.0 ], [ 382515.0, 3517455.0 ], [ 382485.0, 3517455.0 ] ] ] } },
{ "type": "Feature", "properties": { "type": 2 }, "geometry": { "type": "Polygon", "coordinates": [ [ [ 383655.0, 3517455.0 ], [ 383655.0, 3517365.0 ], [ 383685.0, 3517365.0 ], [ 383685.0, 3517455.0 ], [ 383655.0, 3517455.0 ] ] ] } },
{ "type": "Feature", "properties": { "type": 2 }, "geometry": { "type": "Polygon", "coordinates": [ [ [ 382455.0, 3517395.0 ], [ 382455.0, 3517335.0 ], [ 382485.0, 3517335.0 ], [ 382485.0, 3517395.0 ], [ 382455.0, 3517395.0 ] ] ] } },
{ "type": "Feature", "properties": { "type": 2 }, "geometry": { "type": "Polygon", "coordinates": [ [ [ 383265.0, 3517305.0 ], [ 383265.0, 3517275.0 ], [ 383355.0, 3517275.0 ], [ 383355.0, 3517305.0 ], [ 383265.0, 3517305.0 ] ] ] } },
{ "type": "Feature", "properties": { "type": 5 }, "geometry": { "type": "Polygon", "coordinates": [ [ [ 382755.0, 3517575.0 ], [ 382755.0, 3517545.0 ], [ 382695.0, 3517545.0 ], [ 382695.0, 3517515.0 ], [ 382665.0, 3517515.0 ], [ 382665.0, 3517485.0 ], [ 382635.0, 3517485.0 ], [ 382635.0, 3517395.0 ], [ 382605.0, 3517395.0 ], [ 382605.0, 3517365.0 ], [ 382545.0, 3517365.0 ], [ 382545.0, 3517335.0 ], [ 382485.0, 3517335.0 ], [ 382485.0, 3517245.0 ], [ 382605.0, 3517245.0 ], [ 382605.0, 3517275.0 ], [ 382635.0, 3517275.0 ], [ 382635.0, 3517365.0 ], [ 382665.0, 3517365.0 ], [ 382665.0, 3517395.0 ], [ 382755.0, 3517395.0 ], [ 382755.0, 3517305.0 ], [ 382815.0, 3517305.0 ], [ 382815.0, 3517275.0 ], [ 382875.0, 3517275.0 ], [ 382875.0, 3517335.0 ], [ 382905.0, 3517335.0 ], [ 382905.0, 3517365.0 ], [ 382995.0, 3517365.0 ], [ 382995.0, 3517335.0 ], [ 383115.0, 3517335.0 ], [ 383115.0, 3517425.0 ], [ 383085.0, 3517425.0 ], [ 383085.0, 3517455.0 ], [ 383055.0, 3517455.0 ], [ 383055.0, 3517485.0 ], [ 383025.0, 3517485.0 ], [ 383025.0, 3517515.0 ], [ 382965.0, 3517515.0 ], [ 382965.0, 3517545.0 ], [ 382935.0, 3517545.0 ], [ 382935.0, 3517575.0 ], [ 382755.0, 3517575.0 ] ] ] } },
{ "type": "Feature", "properties": { "type": 5 }, "geometry": { "type": "Polygon", "coordinates": [ [ [ 383115.0, 3517065.0 ], [ 383115.0, 3517035.0 ], [ 383145.0, 3517035.0 ], [ 383145.0, 3517065.0 ], [ 383115.0, 3517065.0 ] ] ] } },
{ "type": "Feature", "properties": { "type": 5 }, "geometry": { "type": "Polygon", "coordinates": [ [ [ 383085.0, 3517035.0 ], [ 383085.0, 3517005.0 ], [ 383115.0, 3517005.0 ], [ 383115.0, 3517035.0 ], [ 383085.0, 3517035.0 ] ] ] } },
{ "type": "Feature", "properties": { "type": 5 }, "geometry": { "type": "Polygon", "coordinates": [ [ [ 383145.0, 3517185.0 ], [ 383145.0, 3517065.0 ], [ 383175.0, 3517065.0 ], [ 383175.0, 3517095.0 ], [ 383235.0, 3517095.0 ], [ 383235.0, 3517065.0 ], [ 383265.0, 3517065.0 ], [ 383265.0, 3517035.0 ], [ 383295.0, 3517035.0 ], [ 383295.0, 3517005.0 ], [ 383415.0, 3517005.0 ], [ 383415.0, 3516975.0 ], [ 383475.0, 3516975.0 ], [ 383475.0, 3517005.0 ], [ 383445.0, 3517005.0 ], [ 383445.0, 3517065.0 ], [ 383415.0, 3517065.0 ], [ 383415.0, 3517095.0 ], [ 383385.0, 3517095.0 ], [ 383385.0, 3517125.0 ], [ 383355.0, 3517125.0 ], [ 383355.0, 3517185.0 ], [ 383145.0, 3517185.0 ] ] ] } },
{ "type": "Feature", "properties": { "type": 5 }, "geometry": { "type": "Polygon", "coordinates": [ [ [ 383055.0, 3517005.0 ], [ 383055.0, 3516975.0 ], [ 383085.0, 3516975.0 ], [ 383085.0, 3517005.0 ], [ 383055.0, 3517005.0 ] ] ] } },
{ "type": "Feature", "properties": { "type": 5 }, "geometry": { "type": "Polygon", "coordinates": [ [ [ 383025.0, 3516975.0 ], [ 383025.0, 3516945.0 ], [ 383055.0, 3516945.0 ], [ 383055.0, 3516975.0 ], [ 383025.0, 3516975.0 ] ] ] } },
{ "type": "Feature", "properties": { "type": 2 }, "geometry": { "type": "Polygon", "coordinates": [ [ [ 382485.0, 3517005.0 ], [ 382485.0, 3516915.0 ], [ 382515.0, 3516915.0 ], [ 382515.0, 3517005.0 ], [ 382485.0, 3517005.0 ] ] ] } },
{ "type": "Feature", "properties": { "type": 2 }, "geometry": { "type": "Polygon", "coordinates": [ [ [ 382515.0, 3516915.0 ], [ 382515.0, 3516855.0 ], [ 382545.0, 3516855.0 ], [ 382545.0, 3516915.0 ], [ 382515.0, 3516915.0 ] ] ] } },
{ "type": "Feature", "properties": { "type": 5 }, "geometry": { "type": "Polygon", "coordinates": [ [ [ 382755.0, 3516975.0 ], [ 382755.0, 3516945.0 ], [ 382725.0, 3516945.0 ], [ 382725.0, 3516915.0 ], [ 382695.0, 3516915.0 ], [ 382695.0, 3516855.0 ], [ 382665.0, 3516855.0 ], [ 382665.0, 3516825.0 ], [ 382635.0, 3516825.0 ], [ 382635.0, 3516795.0 ], [ 382605.0, 3516795.0 ], [ 382605.0, 3516765.0 ], [ 382575.0, 3516765.0 ], [ 382575.0, 3516735.0 ], [ 382605.0, 3516735.0 ], [ 382605.0, 3516705.0 ], [ 382635.0, 3516705.0 ], [ 382635.0, 3516735.0 ], [ 382665.0, 3516735.0 ], [ 382665.0, 3516795.0 ], [ 382695.0, 3516795.0 ], [ 382695.0, 3516825.0 ], [ 382725.0, 3516825.0 ], [ 382725.0, 3516855.0 ], [ 382755.0, 3516855.0 ], [ 382755.0, 3516885.0 ], [ 382815.0, 3516885.0 ], [ 382815.0, 3516855.0 ], [ 382905.0, 3516855.0 ], [ 382905.0, 3516885.0 ], [ 382935.0, 3516885.0 ], [ 382935.0, 3516915.0 ], [ 382965.0, 3516915.0 ], [ 382965.0, 3516945.0 ], [ 382875.0, 3516945.0 ], [ 382875.0, 3516975.0 ], [ 382755.0, 3516975.0 ] ] ] } },
{ "type": "Feature", "properties": { "type": 4 }, "geometry": { "type": "Polygon", "coordinates": [ [ [ 381375.0, 3519765.0 ], [ 381375.0, 3516645.0 ], [ 381945.0, 3516645.0 ], [ 381945.0, 3516795.0 ], [ 381915.0, 3516795.0 ], [ 381915.0, 3517215.0 ], [ 381945.0, 3517215.0 ], [ 381945.0, 3517275.0 ], [ 381975.0, 3517275.0 ], [ 381975.0, 3517335.0 ], [ 382005.0, 3517335.0 ], [ 382005.0, 3517395.0 ], [ 382035.0, 3517395.0 ], [ 382035.0, 3517455.0 ], [ 382065.0, 3517455.0 ], [ 382065.0, 3517485.0 ], [ 382095.0, 3517485.0 ], [ 382095.0, 3517515.0 ], [ 382125.0, 3517515.0 ], [ 382125.0, 3517545.0 ], [ 382155.0, 3517545.0 ], [ 382155.0, 3517575.0 ], [ 382185.0, 3517575.0 ], [ 382185.0, 3517605.0 ], [ 382215.0, 3517605.0 ], [ 382215.0, 3517635.0 ], [ 382245.0, 3517635.0 ], [ 382245.0, 3517665.0 ], [ 382275.0, 3517665.0 ], [ 382275.0, 3517695.0 ], [ 382305.0, 3517695.0 ], [ 382305.0, 3517755.0 ], [ 382395.0, 3517755.0 ], [ 382395.0, 3517725.0 ], [ 382485.0, 3517725.0 ], [ 382485.0, 3517695.0 ], [ 382515.0, 3517695.0 ], [ 382515.0, 3517665.0 ], [ 382575.0, 3517665.0 ], [ 382575.0, 3517695.0 ], [ 382635.0, 3517695.0 ], [ 382635.0, 3517665.0 ], [ 382695.0, 3517665.0 ], [ 382695.0, 3517635.0 ], [ 382755.0, 3517635.0 ], [ 382755.0, 3517665.0 ], [ 382815.0, 3517665.0 ], [ 382815.0, 3517635.0 ], [ 382965.0, 3517635.0 ], [ 382965.0, 3517605.0 ], [ 383025.0, 3517605.0 ], [ 383025.0, 3517575.0 ], [ 383085.0, 3517575.0 ], [ 383085.0, 3517545.0 ], [ 383205.0, 3517545.0 ], [ 383205.0, 3517575.0 ], [ 383265.0, 3517575.0 ], [ 383265.0, 3517605.0 ], [ 383355.0, 3517605.0 ], [ 383355.0, 3517635.0 ], [ 383415.0, 3517635.0 ], [ 383415.0, 3517665.0 ], [ 383445.0, 3517665.0 ], [ 383445.0, 3517695.0 ], [ 383415.0, 3517695.0 ], [ 383415.0, 3517755.0 ], [ 383385.0, 3517755.0 ], [ 383385.0, 3517785.0 ], [ 383415.0, 3517785.0 ], [ 383415.0, 3517815.0 ], [ 383445.0, 3517815.0 ], [ 383445.0, 3517845.0 ], [ 383505.0, 3517845.0 ], [ 383505.0, 3517875.0 ], [ 383565.0, 3517875.0 ], [ 383565.0, 3517965.0 ], [ 383595.0, 3517965.0 ], [ 383595.0, 3518055.0 ], [ 383625.0, 3518055.0 ], [ 383625.0, 3518115.0 ], [ 383655.0, 3518115.0 ], [ 383655.0, 3518205.0 ], [ 383685.0, 3518205.0 ], [ 383685.0, 3518265.0 ], [ 383715.0, 3518265.0 ], [ 383715.0, 3518355.0 ], [ 383745.0, 3518355.0 ], [ 383745.0, 3518445.0 ], [ 383775.0, 3518445.0 ], [ 383775.0, 3518535.0 ], [ 383805.0, 3518535.0 ], [ 383805.0, 3518655.0 ], [ 383835.0, 3518655.0 ], [ 383835.0, 3518745.0 ], [ 383865.0, 3518745.0 ], [ 383865.0, 3518775.0 ], [ 383895.0, 3518775.0 ], [ 383895.0, 3518835.0 ], [ 383925.0, 3518835.0 ], [ 383925.0, 3518865.0 ], [ 383955.0, 3518865.0 ], [ 383955.0, 3518895.0 ], [ 383985.0, 3518895.0 ], [ 383985.0, 3518925.0 ], [ 384015.0, 3518925.0 ], [ 384015.0, 3518985.0 ], [ 384045.0, 3518985.0 ], [ 384045.0, 3519015.0 ], [ 384105.0, 3519015.0 ], [ 384105.0, 3519045.0 ], [ 384135.0, 3519045.0 ], [ 384135.0, 3519075.0 ], [ 384165.0, 3519075.0 ], [ 384165.0, 3519105.0 ], [ 384195.0, 3519105.0 ], [ 384195.0, 3519135.0 ], [ 384225.0, 3519135.0 ], [ 384225.0, 3519165.0 ], [ 384285.0, 3519165.0 ], [ 384285.0, 3519195.0 ], [ 384315.0, 3519195.0 ], [ 384315.0, 3519225.0 ], [ 384345.0, 3519225.0 ], [ 384345.0, 3519255.0 ], [ 384375.0, 3519255.0 ], [ 384375.0, 3519285.0 ], [ 384405.0, 3519285.0 ], [ 384405.0, 3519315.0 ], [ 384435.0, 3519315.0 ], [ 384435.0, 3519345.0 ], [ 384495.0, 3519345.0 ], [ 384495.0, 3519765.0 ], [ 381375.0, 3519765.0 ] ], [ [ 382605.0, 3517875.0 ], [ 382635.0, 3517875.0 ], [ 382635.0, 3517845.0 ], [ 382605.0, 3517845.0 ], [ 382605.0, 3517875.0 ] ] ] } },
{ "type": "Feature", "properties": { "type": 5 }, "geometry": { "type": "Polygon", "coordinates": [ [ [ 382305.0, 3517755.0 ], [ 382305.0, 3517695.0 ], [ 382275.0, 3517695.0 ], [ 382275.0, 3517665.0 ], [ 382245.0, 3517665.0 ], [ 382245.0, 3517635.0 ], [ 382215.0, 3517635.0 ], [ 382215.0, 3517605.0 ], [ 382185.0, 3517605.0 ], [ 382185.0, 3517575.0 ], [ 382155.0, 3517575.0 ], [ 382155.0, 3517545.0 ], [ 382125.0, 3517545.0 ], [ 382125.0, 3517515.0 ], [ 382095.0, 3517515.0 ], [ 382095.0, 3517485.0 ], [ 382065.0, 3517485.0 ], [ 382065.0, 3517455.0 ], [ 382035.0, 3517455.0 ], [ 382035.0, 3517395.0 ], [ 382005.0, 3517395.0 ], [ 382005.0, 3517335.0 ], [ 381975.0, 3517335.0 ], [ 381975.0, 3517275.0 ], [ 381945.0, 3517275.0 ], [ 381945.0, 3517215.0 ], [ 381915.0, 3517215.0 ], [ 381915.0, 3516795.0 ], [ 381945.0, 3516795.0 ], [ 381945.0, 3516645.0 ], [ 382035.0, 3516645.0 ], [ 382035.0, 3516765.0 ], [ 382005.0, 3516765.0 ], [ 382005.0, 3516855.0 ], [ 381975.0, 3516855.0 ], [ 381975.0, 3517095.0 ], [ 382005.0, 3517095.0 ], [ 382005.0, 3517185.0 ], [ 382035.0, 3517185.0 ], [ 382035.0, 3517275.0 ], [ 382065.0, 3517275.0 ], [ 382065.0, 3517335.0 ], [ 382095.0, 3517335.0 ], [ 382095.0, 3517395.0 ], [ 382125.0, 3517395.0 ], [ 382125.0, 3517455.0 ], [ 382155.0, 3517455.0 ], [ 382155.0, 3517485.0 ], [ 382185.0, 3517485.0 ], [ 382185.0, 3517515.0 ], [ 382215.0, 3517515.0 ], [ 382215.0, 3517545.0 ], [ 382245.0, 3517545.0 ], [ 382245.0, 3517575.0 ], [ 382275.0, 3517575.0 ], [ 382275.0, 3517605.0 ], [ 382335.0, 3517605.0 ], [ 382335.0, 3517575.0 ], [ 382455.0, 3517575.0 ], [ 382455.0, 3517605.0 ], [ 382425.0, 3517605.0 ], [ 382425.0, 3517695.0 ], [ 382485.0, 3517695.0 ], [ 382485.0, 3517725.0 ], [ 382395.0, 3517725.0 ], [ 382395.0, 3517755.0 ], [ 382305.0, 3517755.0 ] ] ] } },
{ "type": "Feature", "properties": { "type": 1 }, "geometry": { "type": "Polygon", "coordinates": [ [ [ 384465.0, 3519285.0 ], [ 384465.0, 3519255.0 ], [ 384405.0, 3519255.0 ], [ 384405.0, 3519225.0 ], [ 384375.0, 3519225.0 ], [ 384375.0, 3519195.0 ], [ 384315.0, 3519195.0 ], [ 384315.0, 3519165.0 ], [ 384285.0, 3519165.0 ], [ 384285.0, 3519135.0 ], [ 384255.0, 3519135.0 ], [ 384255.0, 3519105.0 ], [ 384225.0, 3519105.0 ], [ 384225.0, 3519075.0 ], [ 384165.0, 3519075.0 ], [ 384165.0, 3519045.0 ], [ 384135.0, 3519045.0 ], [ 384135.0, 3519015.0 ], [ 384105.0, 3519015.0 ], [ 384105.0, 3518985.0 ], [ 384075.0, 3518985.0 ], [ 384075.0, 3518955.0 ], [ 384045.0, 3518955.0 ], [ 384045.0, 3518925.0 ], [ 384015.0, 3518925.0 ], [ 384015.0, 3518895.0 ], [ 383985.0, 3518895.0 ], [ 383985.0, 3518865.0 ], [ 383955.0, 3518865.0 ], [ 383955.0, 3518805.0 ], [ 383925.0, 3518805.0 ], [ 383925.0, 3518775.0 ], [ 383895.0, 3518775.0 ], [ 383895.0, 3518715.0 ], [ 383865.0, 3518715.0 ], [ 383865.0, 3518625.0 ], [ 383835.0, 3518625.0 ], [ 383835.0, 3518535.0 ], [ 383805.0, 3518535.0 ], [ 383805.0, 3518415.0 ], [ 383775.0, 3518415.0 ], [ 383775.0, 3518295.0 ], [ 383745.0, 3518295.0 ], [ 383745.0, 3518175.0 ], [ 383715.0, 3518175.0 ], [ 383715.0, 3518055.0 ], [ 383685.0, 3518055.0 ], [ 383685.0, 3517965.0 ], [ 383655.0, 3517965.0 ], [ 383655.0, 3517875.0 ], [ 383625.0, 3517875.0 ], [ 383625.0, 3517845.0 ], [ 383595.0, 3517845.0 ], [ 383595.0, 3517815.0 ], [ 383565.0, 3517815.0 ], [ 383565.0, 3517785.0 ], [ 383535.0, 3517785.0 ], [ 383535.0, 3517755.0 ], [ 383505.0, 3517755.0 ], [ 383505.0, 3517725.0 ], [ 383475.0, 3517725.0 ], [ 383475.0, 3517665.0 ], [ 383415.0, 3517665.0 ], [ 383415.0, 3517635.0 ], [ 383355.0, 3517635.0 ], [ 383355.0, 3517605.0 ], [ 383265.0, 3517605.0 ], [ 383265.0, 3517575.0 ], [ 383205.0, 3517575.0 ], [ 383205.0, 3517545.0 ], [ 383085.0, 3517545.0 ], [ 383085.0, 3517575.0 ], [ 383025.0, 3517575.0 ], [ 383025.0, 3517605.0 ], [ 382995.0, 3517605.0 ], [ 382995.0, 3517575.0 ], [ 382935.0, 3517575.0 ], [ 382935.0, 3517545.0 ], [ 382965.0, 3517545.0 ], [ 382965.0, 3517515.0 ], [ 383025.0, 3517515.0 ], [ 383025.0, 3517485.0 ], [ 383055.0, 3517485.0 ], [ 383055.0, 3517455.0 ], [ 383085.0, 3517455.0 ], [ 383085.0, 3517425.0 ], [ 383115.0, 3517425.0 ], [ 383115.0, 3517335.0 ], [ 382995.0, 3517335.0 ], [ 382995.0, 3517365.0 ], [ 382905.0, 3517365.0 ], [ 382905.0, 3517335.0 ], [ 382875.0, 3517335.0 ], [ 382875.0, 3517275.0 ], [ 382815.0, 3517275.0 ], [ 382815.0, 3517305.0 ], [ 382755.0, 3517305.0 ], [ 382755.0, 3517395.0 ], [ 382665.0, 3517395.0 ], [ 382665.0, 3517365.0 ], [ 382635.0, 3517365.0 ], [ 382635.0, 3517275.0 ], [ 382605.0, 3517275.0 ], [ 382605.0, 3517245.0 ], [ 382485.0, 3517245.0 ], [ 382485.0, 3517335.0 ], [ 382545.0, 3517335.0 ], [ 382545.0, 3517365.0 ], [ 382605.0, 3517365.0 ], [ 382605.0, 3517395.0 ], [ 382635.0, 3517395.0 ], [ 382635.0, 3517485.0 ], [ 382665.0, 3517485.0 ], [ 382665.0, 3517515.0 ], [ 382695.0, 3517515.0 ], [ 382695.0, 3517545.0 ], [ 382755.0, 3517545.0 ], [ 382755.0, 3517575.0 ], [ 382905.0, 3517575.0 ], [ 382905.0, 3517605.0 ], [ 382965.0, 3517605.0 ], [ 382965.0, 3517635.0 ], [ 382815.0, 3517635.0 ], [ 382815.0, 3517665.0 ], [ 382755.0, 3517665.0 ], [ 382755.0, 3517635.0 ], [ 382695.0, 3517635.0 ], [ 382695.0, 3517665.0 ], [ 382635.0, 3517665.0 ], [ 382635.0, 3517695.0 ], [ 382575.0, 3517695.0 ], [ 382575.0, 3517665.0 ], [ 382515.0, 3517665.0 ], [ 382515.0, 3517695.0 ], [ 382425.0, 3517695.0 ], [ 382425.0, 3517605.0 ], [ 382455.0, 3517605.0 ], [ 382455.0, 3517575.0 ], [ 382335.0, 3517575.0 ], [ 382335.0, 3517605.0 ], [ 382275.0, 3517605.0 ], [ 382275.0, 3517575.0 ], [ 382245.0, 3517575.0 ], [ 382245.0, 3517545.0 ], [ 382215.0, 3517545.0 ], [ 382215.0, 3517515.0 ], [ 382185.0, 3517515.0 ], [ 382185.0, 3517485.0 ], [ 382155.0, 3517485.0 ], [ 382155.0, 3517455.0 ], [ 382125.0, 3517455.0 ], [ 382125.0, 3517395.0 ], [ 382095.0, 3517395.0 ], [ 382095.0, 3517335.0 ], [ 382065.0, 3517335.0 ], [ 382065.0, 3517275.0 ], [ 382035.0, 3517275.0 ], [ 382035.0, 3517185.0 ], [ 382005.0, 3517185.0 ], [ 382005.0, 3517095.0 ], [ 381975.0, 3517095.0 ], [ 381975.0, 3516855.0 ], [ 382005.0, 3516855.0 ], [ 382005.0, 3516765.0 ], [ 382035.0, 3516765.0 ], [ 382035.0, 3516675.0 ], [ 382155.0, 3516675.0 ], [ 382155.0, 3516645.0 ], [ 382605.0, 3516645.0 ], [ 382605.0, 3516735.0 ], [ 382575.0, 3516735.0 ], [ 382575.0, 3516765.0 ], [ 382605.0, 3516765.0 ], [ 382605.0, 3516795.0 ], [ 382635.0, 3516795.0 ], [ 382635.0, 3516825.0 ], [ 382665.0, 3516825.0 ], [ 382665.0, 3516855.0 ], [ 382695.0, 3516855.0 ], [ 382695.0, 3516915.0 ], [ 382725.0, 3516915.0 ], [ 382725.0, 3516945.0 ], [ 382755.0, 3516945.0 ], [ 382755.0, 3516975.0 ], [ 382875.0, 3516975.0 ], [ 382875.0, 3516945.0 ], [ 383025.0, 3516945.0 ], [ 383025.0, 3516975.0 ], [ 383055.0, 3516975.0 ], [ 383055.0, 3517005.0 ], [ 383085.0, 3517005.0 ], [ 383085.0, 3517035.0 ], [ 383115.0, 3517035.0 ], [ 383115.0, 3517065.0 ], [ 383145.0, 3517065.0 ], [ 383145.0, 3517185.0 ], [ 383355.0, 3517185.0 ], [ 383355.0, 3517125.0 ], [ 383385.0, 3517125.0 ], [ 383385.0, 3517095.0 ], [ 383415.0, 3517095.0 ], [ 383415.0, 3517065.0 ], [ 383445.0, 3517065.0 ], [ 383445.0, 3517005.0 ], [ 383475.0, 3517005.0 ], [ 383475.0, 3516975.0 ], [ 383505.0, 3516975.0 ], [ 383505.0, 3517005.0 ], [ 383565.0, 3517005.0 ], [ 383565.0, 3517035.0 ], [ 383595.0, 3517035.0 ], [ 383595.0, 3517065.0 ], [ 383655.0, 3517065.0 ], [ 383655.0, 3517095.0 ], [ 383685.0, 3517095.0 ], [ 383685.0, 3517125.0 ], [ 383745.0, 3517125.0 ], [ 383745.0, 3517155.0 ], [ 383805.0, 3517155.0 ], [ 383805.0, 3517185.0 ], [ 383835.0, 3517185.0 ], [ 383835.0, 3517215.0 ], [ 383895.0, 3517215.0 ], [ 383895.0, 3517245.0 ], [ 383925.0, 3517245.0 ], [ 383925.0, 3517275.0 ], [ 383985.0, 3517275.0 ], [ 383985.0, 3517305.0 ], [ 384045.0, 3517305.0 ], [ 384045.0, 3517335.0 ], [ 384105.0, 3517335.0 ], [ 384105.0, 3517425.0 ], [ 384135.0, 3517425.0 ], [ 384135.0, 3517515.0 ], [ 384165.0, 3517515.0 ], [ 384165.0, 3517635.0 ], [ 384135.0, 3517635.0 ], [ 384135.0, 3517845.0 ], [ 384165.0, 3517845.0 ], [ 384165.0, 3518055.0 ], [ 384195.0, 3518055.0 ], [ 384195.0, 3518145.0 ], [ 384225.0, 3518145.0 ], [ 384225.0, 3518235.0 ], [ 384255.0, 3518235.0 ], [ 384255.0, 3518325.0 ], [ 384285.0, 3518325.0 ], [ 384285.0, 3518385.0 ], [ 384315.0, 3518385.0 ], [ 384315.0, 3518505.0 ], [ 384345.0, 3518505.0 ], [ 384345.0, 3518535.0 ], [ 384375.0, 3518535.0 ], [ 384375.0, 3518565.0 ], [ 384405.0, 3518565.0 ], [ 384405.0, 3518595.0 ], [ 384435.0, 3518595.0 ], [ 384435.0, 3518625.0 ], [ 384465.0, 3518625.0 ], [ 384465.0, 3518655.0 ], [ 384495.0, 3518655.0 ], [ 384495.0, 3519285.0 ], [ 384465.0, 3519285.0 ] ], [ [ 384315.0, 3518685.0 ], [ 384345.0, 3518685.0 ], [ 384345.0, 3518625.0 ], [ 384315.0, 3518625.0 ], [ 384315.0, 3518685.0 ] ], [ [ 384285.0, 3518625.0 ], [ 384315.0, 3518625.0 ], [ 384315.0, 3518535.0 ], [ 384285.0, 3518535.0 ], [ 384285.0, 3518475.0 ], [ 384255.0, 3518475.0 ], [ 384255.0, 3518565.0 ], [ 384285.0, 3518565.0 ], [ 384285.0, 3518625.0 ] ], [ [ 384225.0, 3518475.0 ], [ 384255.0, 3518475.0 ], [ 384255.0, 3518385.0 ], [ 384225.0, 3518385.0 ], [ 384225.0, 3518475.0 ] ], [ [ 383685.0, 3517545.0 ], [ 383715.0, 3517545.0 ], [ 383715.0, 3517455.0 ], [ 383685.0, 3517455.0 ], [ 383685.0, 3517545.0 ] ], [ [ 382245.0, 3517515.0 ], [ 382335.0, 3517515.0 ], [ 382335.0, 3517455.0 ], [ 382275.0, 3517455.0 ], [ 382275.0, 3517485.0 ], [ 382245.0, 3517485.0 ], [ 382245.0, 3517515.0 ] ], [ [ 382485.0, 3517455.0 ], [ 382515.0, 3517455.0 ], [ 382515.0, 3517395.0 ], [ 382485.0, 3517395.0 ], [ 382485.0, 3517455.0 ] ], [ [ 383655.0, 3517455.0 ], [ 383685.0, 3517455.0 ], [ 383685.0, 3517425.0 ], [ 383715.0, 3517425.0 ], [ 383715.0, 3517395.0 ], [ 383685.0, 3517395.0 ], [ 383685.0, 3517365.0 ], [ 383655.0, 3517365.0 ], [ 383655.0, 3517455.0 ] ], [ [ 382455.0, 3517395.0 ], [ 382485.0, 3517395.0 ], [ 382485.0, 3517335.0 ], [ 382455.0, 3517335.0 ], [ 382455.0, 3517395.0 ] ], [ [ 383265.0, 3517305.0 ], [ 383355.0, 3517305.0 ], [ 383355.0, 3517275.0 ], [ 383265.0, 3517275.0 ], [ 383265.0, 3517305.0 ] ], [ [ 382485.0, 3517005.0 ], [ 382515.0, 3517005.0 ], [ 382515.0, 3516915.0 ], [ 382485.0, 3516915.0 ], [ 382485.0, 3517005.0 ] ], [ [ 382515.0, 3516915.0 ], [ 382545.0, 3516915.0 ], [ 382545.0, 3516855.0 ], [ 382515.0, 3516855.0 ], [ 382515.0, 3516915.0 ] ] ] } },
{ "type": "Feature", "properties": { "type": 4 }, "geometry": { "type": "Polygon", "coordinates": [ [ [ 384465.0, 3518655.0 ], [ 384465.0, 3518625.0 ], [ 384435.0, 3518625.0 ], [ 384435.0, 3518595.0 ], [ 384405.0, 3518595.0 ], [ 384405.0, 3518565.0 ], [ 384375.0, 3518565.0 ], [ 384375.0, 3518535.0 ], [ 384345.0, 3518535.0 ], [ 384345.0, 3518505.0 ], [ 384315.0, 3518505.0 ], [ 384315.0, 3518385.0 ], [ 384285.0, 3518385.0 ], [ 384285.0, 3518325.0 ], [ 384255.0, 3518325.0 ], [ 384255.0, 3518235.0 ], [ 384225.0, 3518235.0 ], [ 384225.0, 3518145.0 ], [ 384195.0, 3518145.0 ], [ 384195.0, 3518055.0 ], [ 384165.0, 3518055.0 ], [ 384165.0, 3517845.0 ], [ 384135.0, 3517845.0 ], [ 384135.0, 3517635.0 ], [ 384165.0, 3517635.0 ], [ 384165.0, 3517515.0 ], [ 384135.0, 3517515.0 ], [ 384135.0, 3517425.0 ], [ 384105.0, 3517425.0 ], [ 384105.0, 3517335.0 ], [ 384045.0, 3517335.0 ], [ 384045.0, 3517305.0 ], [ 383985.0, 3517305.0 ], [ 383985.0, 3517275.0 ], [ 383925.0, 3517275.0 ], [ 383925.0, 3517245.0 ], [ 383895.0, 3517245.0 ], [ 383895.0, 3517215.0 ], [ 383835.0, 3517215.0 ], [ 383835.0, 3517185.0 ], [ 383805.0, 3517185.0 ], [ 383805.0, 3517155.0 ], [ 383745.0, 3517155.0 ], [ 383745.0, 3517125.0 ], [ 383685.0, 3517125.0 ], [ 383685.0, 3517095.0 ], [ 383655.0, 3517095.0 ], [ 383655.0, 3517065.0 ], [ 383595.0, 3517065.0 ], [ 383595.0, 3517035.0 ], [ 383565.0, 3517035.0 ], [ 383565.0, 3517005.0 ], [ 383505.0, 3517005.0 ], [ 383505.0, 3516975.0 ], [ 383415.0, 3516975.0 ], [ 383415.0, 3517005.0 ], [ 383295.0, 3517005.0 ], [ 383295.0, 3517035.0 ], [ 383265.0, 3517035.0 ], [ 383265.0, 3517065.0 ], [ 383235.0, 3517065.0 ], [ 383235.0, 3517095.0 ], [ 383175.0, 3517095.0 ], [ 383175.0, 3517065.0 ], [ 383145.0, 3517065.0 ], [ 383145.0, 3517035.0 ], [ 383115.0, 3517035.0 ], [ 383115.0, 3517005.0 ], [ 383085.0, 3517005.0 ], [ 383085.0, 3516975.0 ], [ 383055.0, 3516975.0 ], [ 383055.0, 3516945.0 ], [ 382965.0, 3516945.0 ], [ 382965.0, 3516915.0 ], [ 382935.0, 3516915.0 ], [ 382935.0, 3516885.0 ], [ 382905.0, 3516885.0 ], [ 382905.0, 3516855.0 ], [ 382815.0, 3516855.0 ], [ 382815.0, 3516885.0 ], [ 382755.0, 3516885.0 ], [ 382755.0, 3516855.0 ], [ 382725.0, 3516855.0 ], [ 382725.0, 3516825.0 ], [ 382695.0, 3516825.0 ], [ 382695.0, 3516795.0 ], [ 382665.0, 3516795.0 ], [ 382665.0, 3516735.0 ], [ 382635.0, 3516735.0 ], [ 382635.0, 3516705.0 ], [ 382605.0, 3516705.0 ], [ 382605.0, 3516645.0 ], [ 384495.0, 3516645.0 ], [ 384495.0, 3518655.0 ], [ 384465.0, 3518655.0 ] ] ] } }
]
}
