{
"type": "FeatureCollection",
"name": "mask3_1998_rot90",
"crs": { "type": "name", "properties": { "name": "urn:ogc:def:crs:EPSG::32630" } },
"features": [
{ "type": "Feature", "properties": { "type": 5 }, "geometry": { "type": "Polygon", "coordinates": [ [ [ 385395.0, 3499035.0 ], [ 385395.0, 3499005.0 ], [ 385425.0, 3499005.0 ], [ 385425.0, 3498975.0 ], [ 385455.0, 3498975.0 ], [ 385455.0, 3498915.0 ], [ 385485.0, 3498915.0 ], [ 385485.0, 3498855.0 ], [ 385515.0, 3498855.0 ], [ 385515.0, 3498825.0 ], [ 385575.0, 3498825.0 ], [ 385575.0, 3498855.0 ], [ 385665.0, 3498855.0 ], [ 385665.0, 3498885.0 ], [ 385695.0, 3498885.0 ], [ 385695.0, 3499005.0 ], [ 385665.0, 3499005.0 ], [ 385665.0, 3499035.0 ], [ 385395.0, 3499035.0 ] ] ] } },
{ "type": "Feature", "properties": { "type": 5 }, "geometry": { "type": "Polygon", "coordinates": [ [ [ 382935.0, 3498885.0 ], [ 382935.0, 3498825.0 ], [ 382905.0, 3498825.0 ], [ 382905.0, 3498765.0 ], [ 382875.0, 3498765.0 ], [ 382875.0, 3498705.0 ], [ 382845.0, 3498705.0 ], [ 382845.0, 3498645.0 ], [ 382815.0, 3498645.0 ], [ 382815.0, 3498615.0 ], [ 382845.0, 3498615.0 ], [ 382845.0, 3498585.0 ], [ 382875.0, 3498585.0 ], [ 382875.0, 3498525.0 ], [ 382905.0, 3498525.0 ], [ 382905.0, 3498495.0 ], [ 382935.0, 3498495.0 ], [ 382935.0, 3498465.0 ], [ 382965.0, 3498465.0 ], [ 382965.0, 3498435.0 ], [ 383025.0, 3498435.0 ], [ 383025.0, 3498405.0 ], [ 383145.0, 3498405.0 ], [ 383145.0, 3498375.0 ], [ 383295.0, 3498375.0 ], [ 383295.0, 3498345.0 ], [ 383415.0, 3498345.0 ], [ 383415.0, 3498315.0 ], [ 383445.0, 3498315.0 ], [ 383445.0, 3498285.0 ], [ 383475.0, 3498285.0 ], [ 383475.0, 3498255.0 ], [ 383505.0, 3498255.0 ], [ 383505.0, 3498405.0 ], [ 383475.0, 3498405.0 ], [ 383475.0, 3498615.0 ], [ 383505.0, 3498615.0 ], [ 383505.0, 3498645.0 ], [ 383535.0, 3498645.0 ], [ 383535.0, 3498675.0 ], [ 383565.0, 3498675.0 ], [ 383565.0, 3498735.0 ], [ 383595.0, 3498735.0 ], [ 383595.0, 3498765.0 ], [ 383535.0, 3498765.0 ], [ 383535.0, 3498795.0 ], [ 383355.0, 3498795.0 ], [ 383355.0, 3498825.0 ], [ 383205.0, 3498825.0 ], [ 383205.0, 3498855.0 ], [ 383025.0, 3498855.0 ], [ 383025.0, 3498885.0 ], [ 382935.0, 3498885.0 ] ] ] } },
{ "type": "Feature", "properties": { "type": 4 }, "geometry": { "type": "Polygon", "coordinates": [ [ [ 382725.0, 3499035.0 ], [ 382725.0, 3498615.0 ], [ 382815.0, 3498615.0 ], [ 382815.0, 3498645.0 ], [ 382845.0, 3498645.0 ], [ 382845.0, 3498705.0 ], [ 382875.0, 3498705.0 ], [ 382875.0, 3498765.0 ], [ 382905.0, 3498765.0 ], [ 382905.0, 3498825.0 ], [ 382935.0, 3498825.0 ], [ 382935.0, 3498885.0 ], [ 383025.0, 3498885.0 ], [ 383025.0, 3498855.0 ], [ 383205.0, 3498855.0 ], [ 383205.0, 3498825.0 ], [ 383355.0, 3498825.0 ], [ 383355.0, 3498795.0 ], [ 383535.0, 3498795.0 ], [ 383535.0, 3498765.0 ], [ 383595.0, 3498765.0 ], [ 383595.0, 3498735.0 ], [ 383565.0, 3498735.0 ], [ 383565.0, 3498675.0 ], [ 383535.0, 3498675.0 ], [ 383535.0, 3498645.0 ], [ 383505.0, 3498645.0 ], [ 383505.0, 3498615.0 ], [ 383475.0, 3498615.0 ], [ 383475.0, 3498405.0 ], [ 383505.0, 3498405.0 ], [ 383505.0, 3498225.0 ], [ 383625.0, 3498225.0 ], [ 383625.0, 3498525.0 ], [ 383655.0, 3498525.0 ], [ 383655.0, 3498765.0 ], [ 383985.0, 3498765.0 ], [ 383985.0, 3498285.0 ], [ 383955.0, 3498285.0 ], [ 383955.0, 3498195.0 ], [ 383985.0, 3498195.0 ], [ 383985.0, 3498225.0 ], [ 384435.0, 3498225.0 ], [ 384435.0, 3498255.0 ], [ 384405.0, 3498255.0 ], [ 384405.0, 3498315.0 ], [ 384375.0, 3498315.0 ], [ 384375.0, 3498405.0 ], [ 384345.0, 3498405.0 ], [ 384345.0, 3498465.0 ], [ 384315.0, 3498465.0 ], [ 384315.0, 3498555.0 ], [ 384285.0, 3498555.0 ], [ 384285.0, 3498615.0 ], [ 384255.0, 3498615.0 ], [ 384255.0, 3498705.0 ], [ 384225.0, 3498705.0 ], [ 384225.0, 3498735.0 ], [ 384015.0, 3498735.0 ], [ 384015.0, 3498765.0 ], [ 384465.0, 3498765.0 ], [ 384465.0, 3498795.0 ], [ 384645.0, 3498795.0 ], [ 384645.0, 3498825.0 ], [ 384795.0, 3498825.0 ], [ 384795.0, 3498855.0 ], [ 384945.0, 3498855.0 ], [ 384945.0, 3498885.0 ], [ 385155.0, 3498885.0 ], [ 385155.0, 3498825.0 ], [ 385185.0, 3498825.0 ], [ 385185.0, 3498795.0 ], [ 385215.0, 3498795.0 ], [ 385215.0, 3498765.0 ], [ 385245.0, 3498765.0 ], [ 385245.0, 3498705.0 ], [ 385275.0, 3498705.0 ], [ 385275.0, 3498675.0 ], [ 385305.0, 3498675.0 ], [ 385305.0, 3498615.0 ], [ 385335.0, 3498615.0 ], [ 385335.0, 3498585.0 ], [ 385365.0, 3498585.0 ], [ 385365.0, 3498525.0 ], [ 385395.0, 3498525.0 ], [ 385395.0, 3498555.0 ], [ 385485.0, 3498555.0 ], [ 385485.0, 3498585.0 ], [ 385545.0, 3498585.0 ], [ 385545.0, 3498615.0 ], [ 385635.0, 3498615.0 ], [ 385635.0, 3498645.0 ], [ 385695.0, 3498645.0 ], [ 385695.0, 3498675.0 ], [ 385755.0, 3498675.0 ], [ 385755.0, 3498885.0 ], [ 385845.0, 3498885.0 ], [ 385845.0, 3499035.0 ], [ 385665.0, 3499035.0 ], [ 385665.0, 3499005.0 ], [ 385695.0, 3499005.0 ], [ 385695.0, 3498885.0 ], [ 385665.0, 3498885.0 ], [ 385665.0, 3498855.0 ], [ 385575.0, 3498855.0 ], [ 385575.0, 3498825.0 ], [ 385515.0, 3498825.0 ], [ 385515.0, 3498855.0 ], [ 385485.0, 3498855.0 ], [ 385485.0, 3498915.0 ], [ 385455.0, 3498915.0 ], [ 385455.0, 3498975.0 ], [ 385425.0, 3498975.0 ], [ 385425.0, 3499005.0 ], [ 385395.0, 3499005.0 ], [ 385395.0, 3499035.0 ], [ 382725.0, 3499035.0 ] ] ] } },
{ "type": "Feature", "properties": { "type": 5 }, "geometry": { "type": "Polygon", "coordinates": [ [ [ 383655.0, 3498765.0 ], [ 383655.0, 3498525.0 ], [ 383625.0, 3498525.0 ], [ 383625.0, 3498105.0 ], [ 383685.0, 3498105.0 ], [ 383685.0, 3498135.0 ], [ 383955.0, 3498135.0 ], [ 383955.0, 3498285.0 ], [ 383985.0, 3498285.0 ], [ 383985.0, 3498765.0 ], [ 383655.0, 3498765.0 ] ] ] } },
{ "type": "Feature", "properties": { "type": 5 }, "geometry": { "type": "Polygon", "coordinates": [ [ [ 384945.0, 3498885.0 ], [ 384945.0, 3498855.0 ], [ 384795.0, 3498855.0 ], [ 384795.0, 3498825.0 ], [ 384645.0, 3498825.0 ], [ 384645.0, 3498795.0 ], [ 384465.0, 3498795.0 ], [ 384465.0, 3498765.0 ], [ 384315.0, 3498765.0 ], [ 384315.0, 3498735.0 ], [ 384225.0, 3498735.0 ], [ 384225.0, 3498705.0 ], [ 384255.0, 3498705.0 ], [ 384255.0, 3498615.0 ], [ 384285.0, 3498615.0 ], [ 384285.0, 3498555.0 ], [ 384315.0, 3498555.0 ], [ 384315.0, 3498465.0 ], [ 384345.0, 3498465.0 ], [ 384345.0, 3498405.0 ], [ 384375.0, 3498405.0 ], [ 384375.0, 3498315.0 ], [ 384405.0, 3498315.0 ], [ 384405.0, 3498255.0 ], [ 384435.0, 3498255.0 ], [ 384435.0, 3498225.0 ], [ 384105.0, 3498225.0 ], [ 384105.0, 3498195.0 ], [ 384075.0, 3498195.0 ], [ 384075.0, 3498075.0 ], [ 384135.0, 3498075.0 ], [ 384135.0, 3498045.0 ], [ 384285.0, 3498045.0 ], [ 384285.0, 3498075.0 ], [ 384345.0, 3498075.0 ], [ 384345.0, 3498105.0 ], [ 384405.0, 3498105.0 ], [ 384405.0, 3498135.0 ], [ 384495.0, 3498135.0 ], [ 384495.0, 3498165.0 ], [ 384705.0, 3498165.0 ], [ 384705.0, 3498195.0 ], [ 384915.0, 3498195.0 ], [ 384915.0, 3498135.0 ], [ 384945.0, 3498135.0 ], [ 384945.0, 3498075.0 ], [ 385005.0, 3498075.0 ], [ 385005.0, 3498135.0 ], [ 385035.0, 3498135.0 ], [ 385035.0, 3498165.0 ], [ 385155.0, 3498165.0 ], [ 385155.0, 3498255.0 ], [ 385185.0, 3498255.0 ], [ 385185.0, 3498375.0 ], [ 385245.0, 3498375.0 ], [ 385245.0, 3498405.0 ], [ 385305.0, 3498405.0 ], [ 385305.0, 3498435.0 ], [ 385365.0, 3498435.0 ], [ 385365.0, 3498465.0 ], [ 385425.0, 3498465.0 ], [ 385425.0, 3498495.0 ], [ 385515.0, 3498495.0 ], [ 385515.0, 3498525.0 ], [ 385605.0, 3498525.0 ], [ 385605.0, 3498555.0 ], [ 385695.0, 3498555.0 ], [ 385695.0, 3498585.0 ], [ 385785.0, 3498585.0 ], [ 385785.0, 3498645.0 ], [ 385755.0, 3498645.0 ], [ 385755.0, 3498675.0 ], [ 385695.0, 3498675.0 ], [ 385695.0, 3498645.0 ], [ 385635.0, 3498645.0 ], [ 385635.0, 3498615.0 ], [ 385545.0, 3498615.0 ], [ 385545.0, 3498585.0 ], [ 385485.0, 3498585.0 ], [ 385485.0, 3498555.0 ], [ 385395.0, 3498555.0 ], [ 385395.0, 3498525.0 ], [ 385365.0, 3498525.0 ], [ 385365.0, 3498585.0 ], [ 385335.0, 3498585.0 ], [ 385335.0, 3498615.0 ], [ 385305.0, 3498615.0 ], [ 385305.0, 3498675.0 ], [ 385275.0, 3498675.0 ], [ 385275.0, 3498705.0 ], [ 385245.0, 3498705.0 ], [ 385245.0, 3498765.0 ], [ 385215.0, 3498765.0 ], [ 385215.0, 3498795.0 ], [ 385185.0, 3498795.0 ], [ 385185.0, 3498825.0 ], [ 385155.0, 3498825.0 ], [ 385155.0, 3498885.0 ], [ 384945.0, 3498885.0 ] ] ] } },
{ "type": "Feature", "properties": { "type": 2 }, "geometry": { "type": "Polygon", "coordinates": [ [ [ 385785.0, 3498045.0 ], [ 385785.0, 3498015.0 ], [ 385725.0, 3498015.0 ], [ 385725.0, 3497985.0 ], [ 385665.0, 3497985.0 ], [ 385665.0, 3497955.0 ], [ 385605.0, 3497955.0 ], [ 385605.0, 3497925.0 ], [ 385575.0, 3497925.0 ], [ 385575.0, 3497865.0 ], [ 385665.0, 3497865.0 ], [ 385665.0, 3497895.0 ], [ 385755.0, 3497895.0 ], [ 385755.0, 3497925.0 ], [ 385815.0, 3497925.0 ], [ 385815.0, 3497955.0 ], [ 385845.0, 3497955.0 ], [ 385845.0, 3498045.0 ], [ 385785.0, 3498045.0 ] ] ] } },
{ "type": "Feature", "properties": { "type": 1 }, "geometry": { "type": "Polygon", "coordinates": [ [ [ 385755.0, 3498885.0 ], [ 385755.0, 3498705.0 ], [ 385785.0, 3498705.0 ], [ 385785.0, 3498585.0 ], [ 385695.0, 3498585.0 ], [ 385695.0, 3498555.0 ], [ 385605.0, 3498555.0 ], [ 385605.0, 3498525.0 ], [ 385515.0, 3498525.0 ], [ 385515.0, 3498495.0 ], [ 385425.0, 3498495.0 ], [ 385425.0, 3498465.0 ], [ 385365.0, 3498465.0 ], [ 385365.0, 3498435.0 ], [ 385305.0, 3498435.0 ], [ 385305.0, 3498405.0 ], [ 385245.0, 3498405.0 ], [ 385245.0, 3498375.0 ], [ 385185.0, 3498375.0 ], [ 385185.0, 3498255.0 ], [ 385155.0, 3498255.0 ], [ 385155.0, 3498165.0 ], [ 385035.0, 3498165.0 ], [ 385035.0, 3498135.0 ], [ 385005.0, 3498135.0 ], [ 385005.0, 3498075.0 ], [ 384945.0, 3498075.0 ], [ 384945.0, 3498135.0 ], [ 384915.0, 3498135.0 ], [ 384915.0, 3498195.0 ], [ 384705.0, 3498195.0 ], [ 384705.0, 3498165.0 ], [ 384495.0, 3498165.0 ], [ 384495.0, 3498135.0 ], [ 384405.0, 3498135.0 ], [ 384405.0, 3498105.0 ], [ 384345.0, 3498105.0 ], [ 384345.0, 3498075.0 ], [ 384285.0, 3498075.0 ], [ 384285.0, 3498045.0 ], [ 384135.0, 3498045.0 ], [ 384135.0, 3498075.0 ], [ 384075.0, 3498075.0 ], [ 384075.0, 3498195.0 ], [ 383955.0, 3498195.0 ], [ 383955.0, 3498135.0 ], [ 383685.0, 3498135.0 ], [ 383685.0, 3498105.0 ], [ 383625.0, 3498105.0 ], [ 383625.0, 3498225.0 ], [ 383505.0, 3498225.0 ], [ 383505.0, 3498255.0 ], [ 383475.0, 3498255.0 ], [ 383475.0, 3498285.0 ], [ 383445.0, 3498285.0 ], [ 383445.0, 3498315.0 ], [ 383415.0, 3498315.0 ], [ 383415.0, 3498345.0 ], [ 383295.0, 3498345.0 ], [ 383295.0, 3498375.0 ], [ 383145.0, 3498375.0 ], [ 383145.0, 3498405.0 ], [ 383025.0, 3498405.0 ], [ 383025.0, 3498435.0 ], [ 382965.0, 3498435.0 ], [ 382965.0, 3498465.0 ], [ 382935.0, 3498465.0 ], [ 382935.0, 3498495.0 ], [ 382905.0, 3498495.0 ], [ 382905.0, 3498525.0 ], [ 382875.0, 3498525.0 ], [ 382875.0, 3498585.0 ], [ 382845.0, 3498585.0 ], [ 382845.0, 3498615.0 ], [ 382725.0, 3498615.0 ], [ 382725.0, 3497715.0 ], [ 382755.0, 3497715.0 ], [ 382755.0, 3497685.0 ], [ 382785.0, 3497685.0 ], [ 382785.0, 3497655.0 ], [ 382815.0, 3497655.0 ], [ 382815.0, 3497625.0 ], [ 382845.0, 3497625.0 ], [ 382845.0, 3497685.0 ], [ 382875.0, 3497685.0 ], [ 382875.0, 3497715.0 ], [ 382905.0, 3497715.0 ], [ 382905.0, 3497745.0 ], [ 382965.0, 3497745.0 ], [ 382965.0, 3497685.0 ], [ 383025.0, 3497685.0 ], [ 383025.0, 3497655.0 ], [ 383115.0, 3497655.0 ], [ 383115.0, 3497625.0 ], [ 383145.0, 3497625.0 ], [ 383145.0, 3497535.0 ], [ 383475.0, 3497535.0 ], [ 383475.0, 3497565.0 ], [ 383325.0, 3497565.0 ], [ 383325.0, 3497595.0 ], [ 383295.0, 3497595.0 ], [ 383295.0, 3497625.0 ], [ 383265.0, 3497625.0 ], [ 383265.0, 3497655.0 ], [ 383235.0, 3497655.0 ], [ 383235.0, 3497745.0 ], [ 383355.0, 3497745.0 ], [ 383355.0, 3497685.0 ], [ 383505.0, 3497685.0 ], [ 383505.0, 3497655.0 ], [ 383535.0, 3497655.0 ], [ 383535.0, 3497625.0 ], [ 383565.0, 3497625.0 ], [ 383565.0, 3497565.0 ], [ 383805.0, 3497565.0 ], [ 383805.0, 3497595.0 ], [ 384135.0, 3497595.0 ], [ 384135.0, 3497625.0 ], [ 384375.0, 3497625.0 ], [ 384375.0, 3497595.0 ], [ 384435.0, 3497595.0 ], [ 384435.0, 3497565.0 ], [ 384495.0, 3497565.0 ], [ 384495.0, 3497535.0 ], [ 384735.0, 3497535.0 ], [ 384735.0, 3497565.0 ], [ 384795.0, 3497565.0 ], [ 384795.0, 3497595.0 ], [ 384825.0, 3497595.0 ], [ 384825.0, 3497625.0 ], [ 384885.0, 3497625.0 ], [ 384885.0, 3497655.0 ], [ 384945.0, 3497655.0 ], [ 384945.0, 3497685.0 ], [ 384975.0, 3497685.0 ], [ 384975.0, 3497715.0 ], [ 385035.0, 3497715.0 ], [ 385035.0, 3497745.0 ], [ 385125.0, 3497745.0 ], [ 385125.0, 3497775.0 ], [ 385245.0, 3497775.0 ], [ 385245.0, 3497805.0 ], [ 385395.0, 3497805.0 ], [ 385395.0, 3497835.0 ], [ 385455.0, 3497835.0 ], [ 385455.0, 3497865.0 ], [ 385515.0, 3497865.0 ], [ 385515.0, 3497895.0 ], [ 385545.0, 3497895.0 ], [ 385545.0, 3497925.0 ], [ 385605.0, 3497925.0 ], [ 385605.0, 3497955.0 ], [ 385665.0, 3497955.0 ], [ 385665.0, 3497985.0 ], [ 385725.0, 3497985.0 ], [ 385725.0, 3498015.0 ], [ 385785.0, 3498015.0 ], [ 385785.0, 3498045.0 ], [ 385845.0, 3498045.0 ], [ 385845.0, 3498885.0 ], [ 385755.0, 3498885.0 ] ] ] } },
{ "type": "Feature", "properties": { "type": 2 }, "geometry": { "type": "Polygon", "coordinates": [ [ [ 384135.0, 3497625.0 ], [ 384135.0, 3497595.0 ], [ 383805.0, 3497595.0 ], [ 383805.0, 3497565.0 ], [ 383655.0, 3497565.0 ], [ 383655.0, 3497445.0 ], [ 383745.0, 3497445.0 ], [ 383745.0, 3497475.0 ], [ 383835.0, 3497475.0 ], [ 383835.0, 3497505.0 ], [ 383955.0, 3497505.0 ], [ 383955.0, 3497535.0 ], [ 384345.0, 3497535.0 ], [ 384345.0, 3497565.0 ], [ 384375.0, 3497565.0 ], [ 384375.0, 3497535.0 ], [ 384435.0, 3497535.0 ], [ 384435.0, 3497505.0 ], [ 384525.0, 3497505.0 ], [ 384525.0, 3497535.0 ], [ 384495.0, 3497535.0 ], [ 384495.0, 3497565.0 ], [ 384435.0, 3497565.0 ], [ 384435.0, 3497595.0 ], [ 384375.0, 3497595.0 ], [ 384375.0, 3497625.0 ], [ 384135.0, 3497625.0 ] ] ] } },
{ "type": "Feature", "properties": { "type": 4 }, "geometry": { "type": "Polygon", "coordinates": [ [ [ 382905.0, 3497745.0 ], [ 382905.0, 3497715.0 ], [ 382875.0, 3497715.0 ], [ 382875.0, 3497685.0 ], [ 382845.0, 3497685.0 ], [ 382845.0, 3497625.0 ], [ 382815.0, 3497625.0 ], [ 382815.0, 3497655.0 ], [ 382785.0, 3497655.0 ], [ 382785.0, 3497685.0 ], [ 382755.0, 3497685.0 ], [ 382755.0, 3497715.0 ], [ 382725.0, 3497715.0 ], [ 382725.0, 3497445.0 ], [ 382905.0, 3497445.0 ], [ 382905.0, 3497415.0 ], [ 383085.0, 3497415.0 ], [ 383085.0, 3497385.0 ], [ 383265.0, 3497385.0 ], [ 383265.0, 3497415.0 ], [ 383445.0, 3497415.0 ], [ 383445.0, 3497445.0 ], [ 383655.0, 3497445.0 ], [ 383655.0, 3497565.0 ], [ 383565.0, 3497565.0 ], [ 383565.0, 3497625.0 ], [ 383535.0, 3497625.0 ], [ 383535.0, 3497655.0 ], [ 383505.0, 3497655.0 ], [ 383505.0, 3497685.0 ], [ 383355.0, 3497685.0 ], [ 383355.0, 3497745.0 ], [ 383235.0, 3497745.0 ], [ 383235.0, 3497655.0 ], [ 383265.0, 3497655.0 ], [ 383265.0, 3497625.0 ], [ 383295.0, 3497625.0 ], [ 383295.0, 3497595.0 ], [ 383325.0, 3497595.0 ], [ 383325.0, 3497565.0 ], [ 383475.0, 3497565.0 ], [ 383475.0, 3497535.0 ], [ 383145.0, 3497535.0 ], [ 383145.0, 3497625.0 ], [ 383115.0, 3497625.0 ], [ 383115.0, 3497655.0 ], [ 383025.0, 3497655.0 ], [ 383025.0, 3497685.0 ], [ 382965.0, 3497685.0 ], [ 382965.0, 3497745.0 ], [ 382905.0, 3497745.0 ] ], [ [ 383085.0, 3497535.0 ], [ 383115.0, 3497535.0 ], [ 383115.0, 3497505.0 ], [ 383085.0, 3497505.0 ], [ 383085.0, 3497535.0 ] ] ] } },
{ "type": "Feature", "properties": { "type": 4 }, "geometry": { "type": "Polygon", "coordinates": [ [ [ 385545.0, 3497925.0 ], [ 385545.0, 3497895.0 ], [ 385515.0, 3497895.0 ], [ 385515.0, 3497865.0 ], [ 385455.0, 3497865.0 ], [ 385455.0, 3497835.0 ], [ 385395.0, 3497835.0 ], [ 385395.0, 3497805.0 ], [ 385245.0, 3497805.0 ], [ 385245.0, 3497775.0 ], [ 385125.0, 3497775.0 ], [ 385125.0, 3497745.0 ], [ 385035.0, 3497745.0 ], [ 385035.0, 3497715.0 ], [ 384975.0, 3497715.0 ], [ 384975.0, 3497685.0 ], [ 384945.0, 3497685.0 ], [ 384945.0, 3497655.0 ], [ 384885.0, 3497655.0 ], [ 384885.0, 3497625.0 ], [ 384825.0, 3497625.0 ], [ 384825.0, 3497595.0 ], [ 384795.0, 3497595.0 ], [ 384795.0, 3497565.0 ], [ 384735.0, 3497565.0 ], [ 384735.0, 3497535.0 ], [ 384525.0, 3497535.0 ], [ 384525.0, 3497505.0 ], [ 384495.0, 3497505.0 ], [ 384495.0, 3497475.0 ], [ 384285.0, 3497475.0 ], [ 384285.0, 3497445.0 ], [ 384045.0, 3497445.0 ], [ 384045.0, 3497415.0 ], [ 384015.0, 3497415.0 ], [ 384015.0, 3497355.0 ], [ 384075.0, 3497355.0 ], [ 384075.0, 3497325.0 ], [ 384195.0, 3497325.0 ], [ 384195.0, 3497295.0 ], [ 384255.0, 3497295.0 ], [ 384255.0, 3497265.0 ], [ 384315.0, 3497265.0 ], [ 384315.0, 3497235.0 ], [ 384345.0, 3497235.0 ], [ 384345.0, 3497205.0 ], [ 384375.0, 3497205.0 ], [ 384375.0, 3497175.0 ], [ 384345.0, 3497175.0 ], [ 384345.0, 3497145.0 ], [ 384285.0, 3497145.0 ], [ 384285.0, 3497115.0 ], [ 384255.0, 3497115.0 ], [ 384255.0, 3497055.0 ], [ 384285.0, 3497055.0 ], [ 384285.0, 3496845.0 ], [ 384315.0, 3496845.0 ], [ 384315.0, 3496875.0 ], [ 384345.0, 3496875.0 ], [ 384345.0, 3496905.0 ], [ 384375.0, 3496905.0 ], [ 384375.0, 3496965.0 ], [ 384405.0, 3496965.0 ], [ 384405.0, 3496995.0 ], [ 384435.0, 3496995.0 ], [ 384435.0, 3497025.0 ], [ 384465.0, 3497025.0 ], [ 384465.0, 3497055.0 ], [ 384495.0, 3497055.0 ], [ 384495.0, 3497085.0 ], [ 384525.0, 3497085.0 ], [ 384525.0, 3497355.0 ], [ 384555.0, 3497355.0 ], [ 384555.0, 3497385.0 ], [ 384615.0, 3497385.0 ], [ 384615.0, 3497415.0 ], [ 384675.0, 3497415.0 ], [ 384675.0, 3497445.0 ], [ 384765.0, 3497445.0 ], [ 384765.0, 3497475.0 ], [ 384825.0, 3497475.0 ], [ 384825.0, 3497505.0 ], [ 384885.0, 3497505.0 ], [ 384885.0, 3497535.0 ], [ 384945.0, 3497535.0 ], [ 384945.0, 3497565.0 ], [ 385005.0, 3497565.0 ], [ 385005.0, 3497595.0 ], [ 385065.0, 3497595.0 ], [ 385065.0, 3497625.0 ], [ 385155.0, 3497625.0 ], [ 385155.0, 3497655.0 ], [ 385215.0, 3497655.0 ], [ 385215.0, 3497685.0 ], [ 385275.0, 3497685.0 ], [ 385275.0, 3497715.0 ], [ 385335.0, 3497715.0 ], [ 385335.0, 3497745.0 ], [ 385395.0, 3497745.0 ], [ 385395.0, 3497775.0 ], [ 385455.0, 3497775.0 ], [ 385455.0, 3497805.0 ], [ 385515.0, 3497805.0 ], [ 385515.0, 3497835.0 ], [ 385605.0, 3497835.0 ], [ 385605.0, 3497865.0 ], [ 385575.0, 3497865.0 ], [ 385575.0, 3497925.0 ], [ 385545.0, 3497925.0 ] ] ] } },
{ "type": "Feature", "properties": { "type": 5 }, "geometry": { "type": "Polygon", "coordinates": [ [ [ 382725.0, 3497445.0 ], [ 382725.0, 3496995.0 ], [ 382845.0, 3496995.0 ], [ 382845.0, 3496965.0 ], [ 382935.0, 3496965.0 ], [ 382935.0, 3496935.0 ], [ 382965.0, 3496935.0 ], [ 382965.0, 3496905.0 ], [ 382995.0, 3496905.0 ], [ 382995.0, 3496875.0 ], [ 383025.0, 3496875.0 ], [ 383025.0, 3496845.0 ], [ 383055.0, 3496845.0 ], [ 383055.0, 3496815.0 ], [ 383085.0, 3496815.0 ], [ 383085.0, 3496785.0 ], [ 383145.0, 3496785.0 ], [ 383145.0, 3496755.0 ], [ 383205.0, 3496755.0 ], [ 383205.0, 3496725.0 ], [ 383265.0, 3496725.0 ], [ 383265.0, 3496695.0 ], [ 383655.0, 3496695.0 ], [ 383655.0, 3496665.0 ], [ 383685.0, 3496665.0 ], [ 383685.0, 3496635.0 ], [ 383715.0, 3496635.0 ], [ 383715.0, 3496605.0 ], [ 383775.0, 3496605.0 ], [ 383775.0, 3496575.0 ], [ 383805.0, 3496575.0 ], [ 383805.0, 3496605.0 ], [ 383835.0, 3496605.0 ], [ 383835.0, 3496695.0 ], [ 383805.0, 3496695.0 ], [ 383805.0, 3496725.0 ], [ 383775.0, 3496725.0 ], [ 383775.0, 3496755.0 ], [ 383715.0, 3496755.0 ], [ 383715.0, 3496785.0 ], [ 383565.0, 3496785.0 ], [ 383565.0, 3496815.0 ], [ 383415.0, 3496815.0 ], [ 383415.0, 3496845.0 ], [ 383385.0, 3496845.0 ], [ 383385.0, 3496905.0 ], [ 383355.0, 3496905.0 ], [ 383355.0, 3496935.0 ], [ 383325.0, 3496935.0 ], [ 383325.0, 3496965.0 ], [ 383265.0, 3496965.0 ], [ 383265.0, 3496995.0 ], [ 383235.0, 3496995.0 ], [ 383235.0, 3497055.0 ], [ 383205.0, 3497055.0 ], [ 383205.0, 3497085.0 ], [ 382965.0, 3497085.0 ], [ 382965.0, 3497235.0 ], [ 382935.0, 3497235.0 ], [ 382935.0, 3497355.0 ], [ 382875.0, 3497355.0 ], [ 382875.0, 3497385.0 ], [ 382815.0, 3497385.0 ], [ 382815.0, 3497415.0 ], [ 382755.0, 3497415.0 ], [ 382755.0, 3497445.0 ], [ 382725.0, 3497445.0 ] ] ] } },
{ "type": "Feature", "properties": { "type": 1 }, "geometry": { "type": "Polygon", "coordinates": [ [ [ 384345.0, 3497565.0 ], [ 384345.0, 3497535.0 ], [ 383955.0, 3497535.0 ], [ 383955.0, 3497505.0 ], [ 383835.0, 3497505.0 ], [ 383835.0, 3497475.0 ], [ 383745.0, 3497475.0 ], [ 383745.0, 3497445.0 ], [ 383445.0, 3497445.0 ], [ 383445.0, 3497415.0 ], [ 383265.0, 3497415.0 ], [ 383265.0, 3497385.0 ], [ 383085.0, 3497385.0 ], [ 383085.0, 3497415.0 ], [ 382905.0, 3497415.0 ], [ 382905.0, 3497445.0 ], [ 382755.0, 3497445.0 ], [ 382755.0, 3497415.0 ], [ 382815.0, 3497415.0 ], [ 382815.0, 3497385.0 ], [ 382875.0, 3497385.0 ], [ 382875.0, 3497355.0 ], [ 382935.0, 3497355.0 ], [ 382935.0, 3497235.0 ], [ 382965.0, 3497235.0 ], [ 382965.0, 3497085.0 ], [ 383205.0, 3497085.0 ], [ 383205.0, 3497055.0 ], [ 383235.0, 3497055.0 ], [ 383235.0, 3496995.0 ], [ 383265.0, 3496995.0 ], [ 383265.0, 3496965.0 ], [ 383325.0, 3496965.0 ], [ 383325.0, 3496935.0 ], [ 383355.0, 3496935.0 ], [ 383355.0, 3496905.0 ], [ 383385.0, 3496905.0 ], [ 383385.0, 3496845.0 ], [ 383415.0, 3496845.0 ], [ 383415.0, 3496815.0 ], [ 383565.0, 3496815.0 ], [ 383565.0, 3496785.0 ], [ 383715.0, 3496785.0 ], [ 383715.0, 3496755.0 ], [ 383775.0, 3496755.0 ], [ 383775.0, 3496725.0 ], [ 383805.0, 3496725.0 ], [ 383805.0, 3496695.0 ], [ 383835.0, 3496695.0 ], [ 383835.0, 3496575.0 ], [ 383865.0, 3496575.0 ], [ 383865.0, 3496545.0 ], [ 383895.0, 3496545.0 ], [ 383895.0, 3496515.0 ], [ 383955.0, 3496515.0 ], [ 383955.0, 3496485.0 ], [ 383985.0, 3496485.0 ], [ 383985.0, 3496455.0 ], [ 384195.0, 3496455.0 ], [ 384195.0, 3496485.0 ], [ 384225.0, 3496485.0 ], [ 384225.0, 3496665.0 ], [ 384195.0, 3496665.0 ], [ 384195.0, 3496725.0 ], [ 384225.0, 3496725.0 ], [ 384225.0, 3496785.0 ], [ 384255.0, 3496785.0 ], [ 384255.0, 3496815.0 ], [ 384285.0, 3496815.0 ], [ 384285.0, 3497055.0 ], [ 384255.0, 3497055.0 ], [ 384255.0, 3497115.0 ], [ 384285.0, 3497115.0 ], [ 384285.0, 3497145.0 ], [ 384345.0, 3497145.0 ], [ 384345.0, 3497175.0 ], [ 384375.0, 3497175.0 ], [ 384375.0, 3497205.0 ], [ 384345.0, 3497205.0 ], [ 384345.0, 3497235.0 ], [ 384315.0, 3497235.0 ], [ 384315.0, 3497265.0 ], [ 384255.0, 3497265.0 ], [ 384255.0, 3497295.0 ], [ 384195.0, 3497295.0 ], [ 384195.0, 3497325.0 ], [ 384075.0, 3497325.0 ], [ 384075.0, 3497355.0 ], [ 384015.0, 3497355.0 ], [ 384015.0, 3497415.0 ], [ 384045.0, 3497415.0 ], [ 384045.0, 3497445.0 ], [ 384285.0, 3497445.0 ], [ 384285.0, 3497475.0 ], [ 384495.0, 3497475.0 ], [ 384495.0, 3497505.0 ], [ 384435.0, 3497505.0 ], [ 384435.0, 3497535.0 ], [ 384375.0, 3497535.0 ], [ 384375.0, 3497565.0 ], [ 384345.0, 3497565.0 ] ] ] } },
{ "type": "Feature", "properties": { "type": 4 }, "geometry": { "type": "Polygon", "coordinates": [ [ [ 382725.0, 3496995.0 ], [ 382725.0, 3495915.0 ], [ 383985.0, 3495915.0 ], [ 383985.0, 3496155.0 ], [ 384015.0, 3496155.0 ], [ 384015.0, 3496455.0 ], [ 383985.0, 3496455.0 ], [ 383985.0, 3496485.0 ], [ 383925.0, 3496485.0 ], [ 383925.0, 3496515.0 ], [ 383865.0, 3496515.0 ], [ 383865.0, 3496545.0 ], [ 383805.0, 3496545.0 ], [ 383805.0, 3496575.0 ], [ 383775.0, 3496575.0 ], [ 383775.0, 3496605.0 ], [ 383715.0, 3496605.0 ], [ 383715.0, 3496635.0 ], [ 383685.0, 3496635.0 ], [ 383685.0, 3496665.0 ], [ 383655.0, 3496665.0 ], [ 383655.0, 3496695.0 ], [ 383265.0, 3496695.0 ], [ 383265.0, 3496725.0 ], [ 383205.0, 3496725.0 ], [ 383205.0, 3496755.0 ], [ 383145.0, 3496755.0 ], [ 383145.0, 3496785.0 ], [ 383085.0, 3496785.0 ], [ 383085.0, 3496815.0 ], [ 383055.0, 3496815.0 ], [ 383055.0, 3496845.0 ], [ 383025.0, 3496845.0 ], [ 383025.0, 3496875.0 ], [ 382995.0, 3496875.0 ], [ 382995.0, 3496905.0 ], [ 382965.0, 3496905.0 ], [ 382965.0, 3496935.0 ], [ 382935.0, 3496935.0 ], [ 382935.0, 3496965.0 ], [ 382845.0, 3496965.0 ], [ 382845.0, 3496995.0 ], [ 382725.0, 3496995.0 ] ] ] } },
{ "type": "Feature", "properties": { "type": 3 }, "geometry": { "type": "Polygon", "coordinates": [ [ [ 385815.0, 3497955.0 ], [ 385815.0, 3497925.0 ], [ 385755.0, 3497925.0 ], [ 385755.0, 3497895.0 ], [ 385665.0, 3497895.0 ], [ 385665.0, 3497865.0 ], [ 385605.0, 3497865.0 ], [ 385605.0, 3497835.0 ], [ 385515.0, 3497835.0 ], [ 385515.0, 3497805.0 ], [ 385455.0, 3497805.0 ], [ 385455.0, 3497775.0 ], [ 385395.0, 3497775.0 ], [ 385395.0, 3497745.0 ], [ 385335.0, 3497745.0 ], [ 385335.0, 3497715.0 ], [ 385275.0, 3497715.0 ], [ 385275.0, 3497685.0 ], [ 385215.0, 3497685.0 ], [ 385215.0, 3497655.0 ], [ 385155.0, 3497655.0 ], [ 385155.0, 3497625.0 ], [ 385065.0, 3497625.0 ], [ 385065.0, 3497595.0 ], [ 385005.0, 3497595.0 ], [ 385005.0, 3497565.0 ], [ 384945.0, 3497565.0 ], [ 384945.0, 3497535.0 ], [ 384885.0, 3497535.0 ], [ 384885.0, 3497505.0 ], [ 384825.0, 3497505.0 ], [ 384825.0, 3497475.0 ], [ 384765.0, 3497475.0 ], [ 384765.0, 3497445.0 ], [ 384675.0, 3497445.0 ], [ 384675.0, 3497415.0 ], [ 384615.0, 3497415.0 ], [ 384615.0, 3497385.0 ], [ 384555.0, 3497385.0 ], [ 384555.0, 3497355.0 ], [ 384525.0, 3497355.0 ], [ 384525.0, 3497085.0 ], [ 384495.0, 3497085.0 ], [ 384495.0, 3497055.0 ], [ 384465.0, 3497055.0 ], [ 384465.0, 3497025.0 ], [ 384435.0, 3497025.0 ], [ 384435.0, 3496995.0 ], [ 384405.0, 3496995.0 ], [ 384405.0, 3496965.0 ], [ 384375.0, 3496965.0 ], [ 384375.0, 3496905.0 ], [ 384345.0, 3496905.0 ], [ 384345.0, 3496875.0 ], [ 384315.0, 3496875.0 ], [ 384315.0, 3496845.0 ], [ 384285.0, 3496845.0 ], [ 384285.0, 3496815.0 ], [ 384255.0, 3496815.0 ], [ 384255.0, 3496785.0 ], [ 384225.0, 3496785.0 ], [ 384225.0, 3496725.0 ], [ 384195.0, 3496725.0 ], [ 384195.0, 3496665.0 ], [ 384225.0, 3496665.0 ], [ 384225.0, 3496485.0 ], [ 384195.0, 3496485.0 ], [ 384195.0, 3496455.0 ], [ 384015.0, 3496455.0 ], [ 384015.0, 3496125.0 ], [ 383985.0, 3496125.0 ], [ 383985.0, 3495915.0 ], [ 385845.0, 3495915.0 ], [ 385845.0, 3497955.0 ], [ 385815.0, 3497955.0 ] ] ] } }
]
}
