{
"type": "FeatureCollection",
"name": "mask4_2022_rot270",
"crs": { "type": "name", "properties": { "name": "urn:ogc:def:crs:EPSG::32630" } },
"features": [
{ "type": "Feature", "properties": { "type": 4 }, "geometry": { "type": "Polygon", "coordinates": [ [ [ 310785.0, 3509325.0 ], [ 310785.0, 3508935.0 ], [ 311145.0, 3508935.0 ], [ 311145.0, 3508905.0 ], [ 311265.0, 3508905.0 ], [ 311265.0, 3508875.0 ], [ 311385.0, 3508875.0 ], [ 311385.0, 3508845.0 ], [ 311805.0, 3508845.0 ], [ 311805.0, 3508815.0 ], [ 311925.0, 3508815.0 ], [ 311925.0, 3508785.0 ], [ 311985.0, 3508785.0 ], [ 311985.0, 3508755.0 ], [ 312015.0, 3508755.0 ], [ 312015.0, 3508725.0 ], [ 312075.0, 3508725.0 ], [ 312075.0, 3508695.0 ], [ 312105.0, 3508695.0 ], [ 312105.0, 3508665.0 ], [ 312165.0, 3508665.0 ], [ 312165.0, 3508635.0 ], [ 312195.0, 3508635.0 ], [ 312195.0, 3508605.0 ], [ 312255.0, 3508605.0 ], [ 312255.0, 3508575.0 ], [ 312285.0, 3508575.0 ], [ 312285.0, 3508545.0 ], [ 312315.0, 3508545.0 ], [ 312315.0, 3508485.0 ], [ 312375.0, 3508485.0 ], [ 312375.0, 3508455.0 ], [ 312435.0, 3508455.0 ], [ 312435.0, 3508425.0 ], [ 312465.0, 3508425.0 ], [ 312465.0, 3508395.0 ], [ 312495.0, 3508395.0 ], [ 312495.0, 3508335.0 ], [ 312525.0, 3508335.0 ], [ 312525.0, 3508305.0 ], [ 312585.0, 3508305.0 ], [ 312585.0, 3508335.0 ], [ 312645.0, 3508335.0 ], [ 312645.0, 3508365.0 ], [ 312705.0, 3508365.0 ], [ 312705.0, 3508395.0 ], [ 312735.0, 3508395.0 ], [ 312735.0, 3508335.0 ], [ 312765.0, 3508335.0 ], [ 312765.0, 3508215.0 ], [ 312795.0, 3508215.0 ], [ 312795.0, 3508185.0 ], [ 312825.0, 3508185.0 ], [ 312825.0, 3508155.0 ], [ 312855.0, 3508155.0 ], [ 312855.0, 3508125.0 ], [ 312885.0, 3508125.0 ], [ 312885.0, 3508095.0 ], [ 312915.0, 3508095.0 ], [ 312915.0, 3508065.0 ], [ 312945.0, 3508065.0 ], [ 312945.0, 3508035.0 ], [ 312975.0, 3508035.0 ], [ 312975.0, 3507885.0 ], [ 312915.0, 3507885.0 ], [ 312915.0, 3507855.0 ], [ 312885.0, 3507855.0 ], [ 312885.0, 3507735.0 ], [ 312915.0, 3507735.0 ], [ 312915.0, 3507675.0 ], [ 312945.0, 3507675.0 ], [ 312945.0, 3507705.0 ], [ 313005.0, 3507705.0 ], [ 313005.0, 3507735.0 ], [ 313065.0, 3507735.0 ], [ 313065.0, 3507765.0 ], [ 313095.0, 3507765.0 ], [ 313095.0, 3507795.0 ], [ 313155.0, 3507795.0 ], [ 313155.0, 3507825.0 ], [ 313215.0, 3507825.0 ], [ 313215.0, 3507855.0 ], [ 313245.0, 3507855.0 ], [ 313245.0, 3507885.0 ], [ 313275.0, 3507885.0 ], [ 313275.0, 3507915.0 ], [ 313305.0, 3507915.0 ], [ 313305.0, 3507945.0 ], [ 313335.0, 3507945.0 ], [ 313335.0, 3507975.0 ], [ 313365.0, 3507975.0 ], [ 313365.0, 3508035.0 ], [ 313395.0, 3508035.0 ], [ 313395.0, 3508065.0 ], [ 313425.0, 3508065.0 ], [ 313425.0, 3508095.0 ], [ 313545.0, 3508095.0 ], [ 313545.0, 3508125.0 ], [ 313665.0, 3508125.0 ], [ 313665.0, 3508095.0 ], [ 313725.0, 3508095.0 ], [ 313725.0, 3508065.0 ], [ 313815.0, 3508065.0 ], [ 313815.0, 3508035.0 ], [ 313875.0, 3508035.0 ], [ 313875.0, 3508005.0 ], [ 313905.0, 3508005.0 ], [ 313905.0, 3509325.0 ], [ 310785.0, 3509325.0 ] ] ] } },
{ "type": "Feature", "properties": { "type": 1 }, "geometry": { "type": "Polygon", "coordinates": [ [ [ 313365.0, 3506745.0 ], [ 313365.0, 3506715.0 ], [ 313395.0, 3506715.0 ], [ 313395.0, 3506745.0 ], [ 313365.0, 3506745.0 ] ] ] } },
{ "type": "Feature", "properties": { "type": 5 }, "geometry": { "type": "Polygon", "coordinates": [ [ [ 312285.0, 3506595.0 ], [ 312285.0, 3506535.0 ], [ 312255.0, 3506535.0 ], [ 312255.0, 3506505.0 ], [ 312225.0, 3506505.0 ], [ 312225.0, 3506475.0 ], [ 312165.0, 3506475.0 ], [ 312165.0, 3506385.0 ], [ 312225.0, 3506385.0 ], [ 312225.0, 3506415.0 ], [ 312315.0, 3506415.0 ], [ 312315.0, 3506595.0 ], [ 312285.0, 3506595.0 ] ] ] } },
{ "type": "Feature", "properties": { "type": 5 }, "geometry": { "type": "Polygon", "coordinates": [ [ [ 312135.0, 3506385.0 ], [ 312135.0, 3506355.0 ], [ 312165.0, 3506355.0 ], [ 312165.0, 3506385.0 ], [ 312135.0, 3506385.0 ] ] ] } },
{ "type": "Feature", "properties": { "type": 5 }, "geometry": { "type": "Polygon", "coordinates": [ [ [ 312105.0, 3506355.0 ], [ 312105.0, 3506325.0 ], [ 312135.0, 3506325.0 ], [ 312135.0, 3506355.0 ], [ 312105.0, 3506355.0 ] ] ] } },
{ "type": "Feature", "properties": { "type": 5 }, "geometry": { "type": "Polygon", "coordinates": [ [ [ 310785.0, 3507105.0 ], [ 310785.0, 3506205.0 ], [ 312045.0, 3506205.0 ], [ 312045.0, 3506235.0 ], [ 312075.0, 3506235.0 ], [ 312075.0, 3506265.0 ], [ 312105.0, 3506265.0 ], [ 312105.0, 3506325.0 ], [ 312045.0, 3506325.0 ], [ 312045.0, 3506295.0 ], [ 312015.0, 3506295.0 ], [ 312015.0, 3506265.0 ], [ 311955.0, 3506265.0 ], [ 311955.0, 3506235.0 ], [ 311835.0, 3506235.0 ], [ 311835.0, 3506295.0 ], [ 311805.0, 3506295.0 ], [ 311805.0, 3506355.0 ], [ 311775.0, 3506355.0 ], [ 311775.0, 3506415.0 ], [ 311805.0, 3506415.0 ], [ 311805.0, 3506505.0 ], [ 311835.0, 3506505.0 ], [ 311835.0, 3506595.0 ], [ 311805.0, 3506595.0 ], [ 311805.0, 3506655.0 ], [ 311775.0, 3506655.0 ], [ 311775.0, 3506685.0 ], [ 311745.0, 3506685.0 ], [ 311745.0, 3506745.0 ], [ 311775.0, 3506745.0 ], [ 311775.0, 3506805.0 ], [ 311805.0, 3506805.0 ], [ 311805.0, 3506835.0 ], [ 311835.0, 3506835.0 ], [ 311835.0, 3506865.0 ], [ 311895.0, 3506865.0 ], [ 311895.0, 3506895.0 ], [ 311925.0, 3506895.0 ], [ 311925.0, 3506925.0 ], [ 311955.0, 3506925.0 ], [ 311955.0, 3506955.0 ], [ 311685.0, 3506955.0 ], [ 311685.0, 3507015.0 ], [ 311715.0, 3507015.0 ], [ 311715.0, 3507045.0 ], [ 311685.0, 3507045.0 ], [ 311685.0, 3507075.0 ], [ 311625.0, 3507075.0 ], [ 311625.0, 3507015.0 ], [ 311595.0, 3507015.0 ], [ 311595.0, 3506985.0 ], [ 311565.0, 3506985.0 ], [ 311565.0, 3506955.0 ], [ 311535.0, 3506955.0 ], [ 311535.0, 3506835.0 ], [ 311505.0, 3506835.0 ], [ 311505.0, 3506805.0 ], [ 311475.0, 3506805.0 ], [ 311475.0, 3506985.0 ], [ 311415.0, 3506985.0 ], [ 311415.0, 3506955.0 ], [ 311385.0, 3506955.0 ], [ 311385.0, 3506685.0 ], [ 311355.0, 3506685.0 ], [ 311355.0, 3506655.0 ], [ 311115.0, 3506655.0 ], [ 311115.0, 3506715.0 ], [ 311145.0, 3506715.0 ], [ 311145.0, 3506745.0 ], [ 311205.0, 3506745.0 ], [ 311205.0, 3506775.0 ], [ 311145.0, 3506775.0 ], [ 311145.0, 3506805.0 ], [ 310965.0, 3506805.0 ], [ 310965.0, 3506835.0 ], [ 310875.0, 3506835.0 ], [ 310875.0, 3506895.0 ], [ 310845.0, 3506895.0 ], [ 310845.0, 3506955.0 ], [ 310875.0, 3506955.0 ], [ 310875.0, 3506985.0 ], [ 310905.0, 3506985.0 ], [ 310905.0, 3507045.0 ], [ 310845.0, 3507045.0 ], [ 310845.0, 3507075.0 ], [ 310815.0, 3507075.0 ], [ 310815.0, 3507105.0 ], [ 310785.0, 3507105.0 ] ] ] } },
{ "type": "Feature", "properties": { "type": 5 }, "geometry": { "type": "Polygon", "coordinates": [ [ [ 310785.0, 3508935.0 ], [ 310785.0, 3508215.0 ], [ 310815.0, 3508215.0 ], [ 310815.0, 3508245.0 ], [ 310845.0, 3508245.0 ], [ 310845.0, 3508275.0 ], [ 310875.0, 3508275.0 ], [ 310875.0, 3508305.0 ], [ 310905.0, 3508305.0 ], [ 310905.0, 3508335.0 ], [ 310935.0, 3508335.0 ], [ 310935.0, 3508365.0 ], [ 310995.0, 3508365.0 ], [ 310995.0, 3508425.0 ], [ 311025.0, 3508425.0 ], [ 311025.0, 3508455.0 ], [ 311055.0, 3508455.0 ], [ 311055.0, 3508485.0 ], [ 311085.0, 3508485.0 ], [ 311085.0, 3508515.0 ], [ 311145.0, 3508515.0 ], [ 311145.0, 3508545.0 ], [ 311205.0, 3508545.0 ], [ 311205.0, 3508575.0 ], [ 311265.0, 3508575.0 ], [ 311265.0, 3508545.0 ], [ 311325.0, 3508545.0 ], [ 311325.0, 3508515.0 ], [ 311355.0, 3508515.0 ], [ 311355.0, 3508455.0 ], [ 311385.0, 3508455.0 ], [ 311385.0, 3508425.0 ], [ 311415.0, 3508425.0 ], [ 311415.0, 3508395.0 ], [ 311475.0, 3508395.0 ], [ 311475.0, 3508365.0 ], [ 311535.0, 3508365.0 ], [ 311535.0, 3508335.0 ], [ 311595.0, 3508335.0 ], [ 311595.0, 3508305.0 ], [ 311655.0, 3508305.0 ], [ 311655.0, 3508275.0 ], [ 311715.0, 3508275.0 ], [ 311715.0, 3508245.0 ], [ 311955.0, 3508245.0 ], [ 311955.0, 3508215.0 ], [ 312015.0, 3508215.0 ], [ 312015.0, 3508185.0 ], [ 312045.0, 3508185.0 ], [ 312045.0, 3508155.0 ], [ 312075.0, 3508155.0 ], [ 312075.0, 3508125.0 ], [ 312105.0, 3508125.0 ], [ 312105.0, 3508095.0 ], [ 312135.0, 3508095.0 ], [ 312135.0, 3508065.0 ], [ 312165.0, 3508065.0 ], [ 312165.0, 3508035.0 ], [ 312195.0, 3508035.0 ], [ 312195.0, 3508005.0 ], [ 312225.0, 3508005.0 ], [ 312225.0, 3507975.0 ], [ 312255.0, 3507975.0 ], [ 312255.0, 3507945.0 ], [ 312285.0, 3507945.0 ], [ 312285.0, 3507915.0 ], [ 312315.0, 3507915.0 ], [ 312315.0, 3507885.0 ], [ 312345.0, 3507885.0 ], [ 312345.0, 3507825.0 ], [ 312315.0, 3507825.0 ], [ 312315.0, 3507735.0 ], [ 312555.0, 3507735.0 ], [ 312555.0, 3507705.0 ], [ 312645.0, 3507705.0 ], [ 312645.0, 3507675.0 ], [ 312705.0, 3507675.0 ], [ 312705.0, 3507645.0 ], [ 312735.0, 3507645.0 ], [ 312735.0, 3507615.0 ], [ 312765.0, 3507615.0 ], [ 312765.0, 3507525.0 ], [ 312735.0, 3507525.0 ], [ 312735.0, 3507465.0 ], [ 312705.0, 3507465.0 ], [ 312705.0, 3507435.0 ], [ 313065.0, 3507435.0 ], [ 313065.0, 3507405.0 ], [ 313185.0, 3507405.0 ], [ 313185.0, 3507375.0 ], [ 313275.0, 3507375.0 ], [ 313275.0, 3507345.0 ], [ 313365.0, 3507345.0 ], [ 313365.0, 3507075.0 ], [ 313335.0, 3507075.0 ], [ 313335.0, 3507015.0 ], [ 313365.0, 3507015.0 ], [ 313365.0, 3506955.0 ], [ 313335.0, 3506955.0 ], [ 313335.0, 3506895.0 ], [ 313305.0, 3506895.0 ], [ 313305.0, 3506865.0 ], [ 313275.0, 3506865.0 ], [ 313275.0, 3506835.0 ], [ 313245.0, 3506835.0 ], [ 313245.0, 3506805.0 ], [ 313185.0, 3506805.0 ], [ 313185.0, 3506775.0 ], [ 313155.0, 3506775.0 ], [ 313155.0, 3506745.0 ], [ 313125.0, 3506745.0 ], [ 313125.0, 3506715.0 ], [ 313185.0, 3506715.0 ], [ 313185.0, 3506745.0 ], [ 313215.0, 3506745.0 ], [ 313215.0, 3506775.0 ], [ 313305.0, 3506775.0 ], [ 313305.0, 3506685.0 ], [ 313275.0, 3506685.0 ], [ 313275.0, 3506625.0 ], [ 313245.0, 3506625.0 ], [ 313245.0, 3506595.0 ], [ 313215.0, 3506595.0 ], [ 313215.0, 3506565.0 ], [ 313275.0, 3506565.0 ], [ 313275.0, 3506595.0 ], [ 313305.0, 3506595.0 ], [ 313305.0, 3506625.0 ], [ 313335.0, 3506625.0 ], [ 313335.0, 3506655.0 ], [ 313365.0, 3506655.0 ], [ 313365.0, 3506535.0 ], [ 313335.0, 3506535.0 ], [ 313335.0, 3506505.0 ], [ 313305.0, 3506505.0 ], [ 313305.0, 3506445.0 ], [ 313275.0, 3506445.0 ], [ 313275.0, 3506385.0 ], [ 313245.0, 3506385.0 ], [ 313245.0, 3506325.0 ], [ 313215.0, 3506325.0 ], [ 313215.0, 3506265.0 ], [ 313185.0, 3506265.0 ], [ 313185.0, 3506205.0 ], [ 313245.0, 3506205.0 ], [ 313245.0, 3506265.0 ], [ 313275.0, 3506265.0 ], [ 313275.0, 3506295.0 ], [ 313305.0, 3506295.0 ], [ 313305.0, 3506325.0 ], [ 313335.0, 3506325.0 ], [ 313335.0, 3506355.0 ], [ 313365.0, 3506355.0 ], [ 313365.0, 3506385.0 ], [ 313425.0, 3506385.0 ], [ 313425.0, 3506415.0 ], [ 313485.0, 3506415.0 ], [ 313485.0, 3506445.0 ], [ 313455.0, 3506445.0 ], [ 313455.0, 3506475.0 ], [ 313395.0, 3506475.0 ], [ 313395.0, 3506505.0 ], [ 313425.0, 3506505.0 ], [ 313425.0, 3506655.0 ], [ 313395.0, 3506655.0 ], [ 313395.0, 3506715.0 ], [ 313485.0, 3506715.0 ], [ 313485.0, 3506655.0 ], [ 313515.0, 3506655.0 ], [ 313515.0, 3506625.0 ], [ 313545.0, 3506625.0 ], [ 313545.0, 3506655.0 ], [ 313605.0, 3506655.0 ], [ 313605.0, 3506685.0 ], [ 313635.0, 3506685.0 ], [ 313635.0, 3506745.0 ], [ 313695.0, 3506745.0 ], [ 313695.0, 3506775.0 ], [ 313725.0, 3506775.0 ], [ 313725.0, 3506805.0 ], [ 313755.0, 3506805.0 ], [ 313755.0, 3506835.0 ], [ 313845.0, 3506835.0 ], [ 313845.0, 3506865.0 ], [ 313875.0, 3506865.0 ], [ 313875.0, 3506925.0 ], [ 313845.0, 3506925.0 ], [ 313845.0, 3506955.0 ], [ 313785.0, 3506955.0 ], [ 313785.0, 3506925.0 ], [ 313695.0, 3506925.0 ], [ 313695.0, 3506895.0 ], [ 313635.0, 3506895.0 ], [ 313635.0, 3506985.0 ], [ 313665.0, 3506985.0 ], [ 313665.0, 3507045.0 ], [ 313605.0, 3507045.0 ], [ 313605.0, 3507075.0 ], [ 313575.0, 3507075.0 ], [ 313575.0, 3507045.0 ], [ 313545.0, 3507045.0 ], [ 313545.0, 3507015.0 ], [ 313485.0, 3507015.0 ], [ 313485.0, 3506985.0 ], [ 313425.0, 3506985.0 ], [ 313425.0, 3507315.0 ], [ 313455.0, 3507315.0 ], [ 313455.0, 3507375.0 ], [ 313665.0, 3507375.0 ], [ 313665.0, 3507405.0 ], [ 313785.0, 3507405.0 ], [ 313785.0, 3507435.0 ], [ 313905.0, 3507435.0 ], [ 313905.0, 3508005.0 ], [ 313875.0, 3508005.0 ], [ 313875.0, 3508035.0 ], [ 313815.0, 3508035.0 ], [ 313815.0, 3508065.0 ], [ 313725.0, 3508065.0 ], [ 313725.0, 3508095.0 ], [ 313665.0, 3508095.0 ], [ 313665.0, 3508125.0 ], [ 313545.0, 3508125.0 ], [ 313545.0, 3508095.0 ], [ 313425.0, 3508095.0 ], [ 313425.0, 3508065.0 ], [ 313395.0, 3508065.0 ], [ 313395.0, 3508035.0 ], [ 313365.0, 3508035.0 ], [ 313365.0, 3507975.0 ], [ 313335.0, 3507975.0 ], [ 313335.0, 3507945.0 ], [ 313305.0, 3507945.0 ], [ 313305.0, 3507915.0 ], [ 313275.0, 3507915.0 ], [ 313275.0, 3507885.0 ], [ 313245.0, 3507885.0 ], [ 313245.0, 3507855.0 ], [ 313215.0, 3507855.0 ], [ 313215.0, 3507825.0 ], [ 313155.0, 3507825.0 ], [ 313155.0, 3507795.0 ], [ 313095.0, 3507795.0 ], [ 313095.0, 3507765.0 ], [ 313065.0, 3507765.0 ], [ 313065.0, 3507735.0 ], [ 313005.0, 3507735.0 ], [ 313005.0, 3507705.0 ], [ 312945.0, 3507705.0 ], [ 312945.0, 3507675.0 ], [ 312915.0, 3507675.0 ], [ 312915.0, 3507735.0 ], [ 312885.0, 3507735.0 ], [ 312885.0, 3507855.0 ], [ 312915.0, 3507855.0 ], [ 312915.0, 3507885.0 ], [ 312975.0, 3507885.0 ], [ 312975.0, 3508035.0 ], [ 312945.0, 3508035.0 ], [ 312945.0, 3508065.0 ], [ 312915.0, 3508065.0 ], [ 312915.0, 3508095.0 ], [ 312885.0, 3508095.0 ], [ 312885.0, 3508125.0 ], [ 312855.0, 3508125.0 ], [ 312855.0, 3508155.0 ], [ 312825.0, 3508155.0 ], [ 312825.0, 3508185.0 ], [ 312795.0, 3508185.0 ], [ 312795.0, 3508215.0 ], [ 312765.0, 3508215.0 ], [ 312765.0, 3508335.0 ], [ 312735.0, 3508335.0 ], [ 312735.0, 3508395.0 ], [ 312705.0, 3508395.0 ], [ 312705.0, 3508365.0 ], [ 312645.0, 3508365.0 ], [ 312645.0, 3508335.0 ], [ 312585.0, 3508335.0 ], [ 312585.0, 3508305.0 ], [ 312525.0, 3508305.0 ], [ 312525.0, 3508335.0 ], [ 312495.0, 3508335.0 ], [ 312495.0, 3508395.0 ], [ 312465.0, 3508395.0 ], [ 312465.0, 3508425.0 ], [ 312435.0, 3508425.0 ], [ 312435.0, 3508455.0 ], [ 312375.0, 3508455.0 ], [ 312375.0, 3508485.0 ], [ 312315.0, 3508485.0 ], [ 312315.0, 3508545.0 ], [ 312285.0, 3508545.0 ], [ 312285.0, 3508575.0 ], [ 312255.0, 3508575.0 ], [ 312255.0, 3508605.0 ], [ 312195.0, 3508605.0 ], [ 312195.0, 3508635.0 ], [ 312165.0, 3508635.0 ], [ 312165.0, 3508665.0 ], [ 312105.0, 3508665.0 ], [ 312105.0, 3508695.0 ], [ 312075.0, 3508695.0 ], [ 312075.0, 3508725.0 ], [ 312015.0, 3508725.0 ], [ 312015.0, 3508755.0 ], [ 311985.0, 3508755.0 ], [ 311985.0, 3508785.0 ], [ 311925.0, 3508785.0 ], [ 311925.0, 3508815.0 ], [ 311745.0, 3508815.0 ], [ 311745.0, 3508845.0 ], [ 311385.0, 3508845.0 ], [ 311385.0, 3508875.0 ], [ 311265.0, 3508875.0 ], [ 311265.0, 3508905.0 ], [ 311145.0, 3508905.0 ], [ 311145.0, 3508935.0 ], [ 310785.0, 3508935.0 ] ], [ [ 313365.0, 3506745.0 ], [ 313395.0, 3506745.0 ], [ 313395.0, 3506715.0 ], [ 313365.0, 3506715.0 ], [ 313365.0, 3506745.0 ] ] ] } },
{ "type": "Feature", "properties": { "type": 1 }, "geometry": { "type": "Polygon", "coordinates": [ [ [ 313815.0, 3507435.0 ], [ 313815.0, 3507405.0 ], [ 313665.0, 3507405.0 ], [ 313665.0, 3507375.0 ], [ 313455.0, 3507375.0 ], [ 313455.0, 3507315.0 ], [ 313425.0, 3507315.0 ], [ 313425.0, 3506985.0 ], [ 313485.0, 3506985.0 ], [ 313485.0, 3507015.0 ], [ 313545.0, 3507015.0 ], [ 313545.0, 3507045.0 ], [ 313575.0, 3507045.0 ], [ 313575.0, 3507075.0 ], [ 313605.0, 3507075.0 ], [ 313605.0, 3507045.0 ], [ 313665.0, 3507045.0 ], [ 313665.0, 3506985.0 ], [ 313635.0, 3506985.0 ], [ 313635.0, 3506895.0 ], [ 313695.0, 3506895.0 ], [ 313695.0, 3506925.0 ], [ 313785.0, 3506925.0 ], [ 313785.0, 3506955.0 ], [ 313845.0, 3506955.0 ], [ 313845.0, 3506925.0 ], [ 313875.0, 3506925.0 ], [ 313875.0, 3506865.0 ], [ 313845.0, 3506865.0 ], [ 313845.0, 3506835.0 ], [ 313755.0, 3506835.0 ], [ 313755.0, 3506805.0 ], [ 313725.0, 3506805.0 ], [ 313725.0, 3506775.0 ], [ 313695.0, 3506775.0 ], [ 313695.0, 3506745.0 ], [ 313665.0, 3506745.0 ], [ 313665.0, 3506715.0 ], [ 313635.0, 3506715.0 ], [ 313635.0, 3506685.0 ], [ 313605.0, 3506685.0 ], [ 313605.0, 3506655.0 ], [ 313545.0, 3506655.0 ], [ 313545.0, 3506625.0 ], [ 313515.0, 3506625.0 ], [ 313515.0, 3506655.0 ], [ 313485.0, 3506655.0 ], [ 313485.0, 3506715.0 ], [ 313395.0, 3506715.0 ], [ 313395.0, 3506655.0 ], [ 313425.0, 3506655.0 ], [ 313425.0, 3506505.0 ], [ 313395.0, 3506505.0 ], [ 313395.0, 3506475.0 ], [ 313455.0, 3506475.0 ], [ 313455.0, 3506445.0 ], [ 313485.0, 3506445.0 ], [ 313485.0, 3506415.0 ], [ 313425.0, 3506415.0 ], [ 313425.0, 3506385.0 ], [ 313365.0, 3506385.0 ], [ 313365.0, 3506355.0 ], [ 313335.0, 3506355.0 ], [ 313335.0, 3506325.0 ], [ 313305.0, 3506325.0 ], [ 313305.0, 3506295.0 ], [ 313275.0, 3506295.0 ], [ 313275.0, 3506265.0 ], [ 313245.0, 3506265.0 ], [ 313245.0, 3506205.0 ], [ 313905.0, 3506205.0 ], [ 313905.0, 3507435.0 ], [ 313815.0, 3507435.0 ] ] ] } },
{ "type": "Feature", "properties": { "type": 1 }, "geometry": { "type": "Polygon", "coordinates": [ [ [ 311205.0, 3508575.0 ], [ 311205.0, 3508545.0 ], [ 311145.0, 3508545.0 ], [ 311145.0, 3508515.0 ], [ 311085.0, 3508515.0 ], [ 311085.0, 3508485.0 ], [ 311055.0, 3508485.0 ], [ 311055.0, 3508455.0 ], [ 311025.0, 3508455.0 ], [ 311025.0, 3508425.0 ], [ 310995.0, 3508425.0 ], [ 310995.0, 3508365.0 ], [ 310935.0, 3508365.0 ], [ 310935.0, 3508335.0 ], [ 310905.0, 3508335.0 ], [ 310905.0, 3508305.0 ], [ 310875.0, 3508305.0 ], [ 310875.0, 3508275.0 ], [ 310845.0, 3508275.0 ], [ 310845.0, 3508245.0 ], [ 310815.0, 3508245.0 ], [ 310815.0, 3508215.0 ], [ 310785.0, 3508215.0 ], [ 310785.0, 3507105.0 ], [ 310815.0, 3507105.0 ], [ 310815.0, 3507075.0 ], [ 310845.0, 3507075.0 ], [ 310845.0, 3507045.0 ], [ 310905.0, 3507045.0 ], [ 310905.0, 3506985.0 ], [ 310875.0, 3506985.0 ], [ 310875.0, 3506865.0 ], [ 310905.0, 3506865.0 ], [ 310905.0, 3506835.0 ], [ 310965.0, 3506835.0 ], [ 310965.0, 3506805.0 ], [ 311145.0, 3506805.0 ], [ 311145.0, 3506775.0 ], [ 311205.0, 3506775.0 ], [ 311205.0, 3506745.0 ], [ 311145.0, 3506745.0 ], [ 311145.0, 3506715.0 ], [ 311115.0, 3506715.0 ], [ 311115.0, 3506655.0 ], [ 311355.0, 3506655.0 ], [ 311355.0, 3506685.0 ], [ 311385.0, 3506685.0 ], [ 311385.0, 3506955.0 ], [ 311415.0, 3506955.0 ], [ 311415.0, 3506985.0 ], [ 311475.0, 3506985.0 ], [ 311475.0, 3506805.0 ], [ 311505.0, 3506805.0 ], [ 311505.0, 3506895.0 ], [ 311535.0, 3506895.0 ], [ 311535.0, 3506955.0 ], [ 311565.0, 3506955.0 ], [ 311565.0, 3506985.0 ], [ 311595.0, 3506985.0 ], [ 311595.0, 3507045.0 ], [ 311625.0, 3507045.0 ], [ 311625.0, 3507075.0 ], [ 311685.0, 3507075.0 ], [ 311685.0, 3507045.0 ], [ 311715.0, 3507045.0 ], [ 311715.0, 3507015.0 ], [ 311685.0, 3507015.0 ], [ 311685.0, 3506955.0 ], [ 311955.0, 3506955.0 ], [ 311955.0, 3506925.0 ], [ 311925.0, 3506925.0 ], [ 311925.0, 3506895.0 ], [ 311895.0, 3506895.0 ], [ 311895.0, 3506865.0 ], [ 311835.0, 3506865.0 ], [ 311835.0, 3506835.0 ], [ 311805.0, 3506835.0 ], [ 311805.0, 3506805.0 ], [ 311775.0, 3506805.0 ], [ 311775.0, 3506745.0 ], [ 311745.0, 3506745.0 ], [ 311745.0, 3506685.0 ], [ 311775.0, 3506685.0 ], [ 311775.0, 3506655.0 ], [ 311805.0, 3506655.0 ], [ 311805.0, 3506595.0 ], [ 311835.0, 3506595.0 ], [ 311835.0, 3506505.0 ], [ 311805.0, 3506505.0 ], [ 311805.0, 3506295.0 ], [ 311835.0, 3506295.0 ], [ 311835.0, 3506235.0 ], [ 311955.0, 3506235.0 ], [ 311955.0, 3506265.0 ], [ 312015.0, 3506265.0 ], [ 312015.0, 3506295.0 ], [ 312045.0, 3506295.0 ], [ 312045.0, 3506325.0 ], [ 312105.0, 3506325.0 ], [ 312105.0, 3506265.0 ], [ 312075.0, 3506265.0 ], [ 312075.0, 3506235.0 ], [ 312045.0, 3506235.0 ], [ 312045.0, 3506205.0 ], [ 313185.0, 3506205.0 ], [ 313185.0, 3506265.0 ], [ 313215.0, 3506265.0 ], [ 313215.0, 3506325.0 ], [ 313245.0, 3506325.0 ], [ 313245.0, 3506385.0 ], [ 313275.0, 3506385.0 ], [ 313275.0, 3506445.0 ], [ 313305.0, 3506445.0 ], [ 313305.0, 3506505.0 ], [ 313335.0, 3506505.0 ], [ 313335.0, 3506535.0 ], [ 313365.0, 3506535.0 ], [ 313365.0, 3506655.0 ], [ 313335.0, 3506655.0 ], [ 313335.0, 3506625.0 ], [ 313305.0, 3506625.0 ], [ 313305.0, 3506595.0 ], [ 313275.0, 3506595.0 ], [ 313275.0, 3506565.0 ], [ 313215.0, 3506565.0 ], [ 313215.0, 3506595.0 ], [ 313245.0, 3506595.0 ], [ 313245.0, 3506625.0 ], [ 313275.0, 3506625.0 ], [ 313275.0, 3506685.0 ], [ 313305.0, 3506685.0 ], [ 313305.0, 3506775.0 ], [ 313215.0, 3506775.0 ], [ 313215.0, 3506745.0 ], [ 313185.0, 3506745.0 ], [ 313185.0, 3506715.0 ], [ 313125.0, 3506715.0 ], [ 313125.0, 3506745.0 ], [ 313155.0, 3506745.0 ], [ 313155.0, 3506775.0 ], [ 313185.0, 3506775.0 ], [ 313185.0, 3506805.0 ], [ 313245.0, 3506805.0 ], [ 313245.0, 3506835.0 ], [ 313275.0, 3506835.0 ], [ 313275.0, 3506865.0 ], [ 313305.0, 3506865.0 ], [ 313305.0, 3506895.0 ], [ 313335.0, 3506895.0 ], [ 313335.0, 3506955.0 ], [ 313365.0, 3506955.0 ], [ 313365.0, 3507015.0 ], [ 313335.0, 3507015.0 ], [ 313335.0, 3507075.0 ], [ 313365.0, 3507075.0 ], [ 313365.0, 3507345.0 ], [ 313275.0, 3507345.0 ], [ 313275.0, 3507375.0 ], [ 313185.0, 3507375.0 ], [ 313185.0, 3507405.0 ], [ 313065.0, 3507405.0 ], [ 313065.0, 3507435.0 ], [ 312705.0, 3507435.0 ], [ 312705.0, 3507465.0 ], [ 312735.0, 3507465.0 ], [ 312735.0, 3507525.0 ], [ 312765.0, 3507525.0 ], [ 312765.0, 3507615.0 ], [ 312735.0, 3507615.0 ], [ 312735.0, 3507645.0 ], [ 312705.0, 3507645.0 ], [ 312705.0, 3507675.0 ], [ 312645.0, 3507675.0 ], [ 312645.0, 3507705.0 ], [ 312555.0, 3507705.0 ], [ 312555.0, 3507735.0 ], [ 312315.0, 3507735.0 ], [ 312315.0, 3507825.0 ], [ 312345.0, 3507825.0 ], [ 312345.0, 3507885.0 ], [ 312315.0, 3507885.0 ], [ 312315.0, 3507915.0 ], [ 312285.0, 3507915.0 ], [ 312285.0, 3507945.0 ], [ 312255.0, 3507945.0 ], [ 312255.0, 3507975.0 ], [ 312225.0, 3507975.0 ], [ 312225.0, 3508005.0 ], [ 312195.0, 3508005.0 ], [ 312195.0, 3508035.0 ], [ 312165.0, 3508035.0 ], [ 312165.0, 3508065.0 ], [ 312135.0, 3508065.0 ], [ 312135.0, 3508095.0 ], [ 312105.0, 3508095.0 ], [ 312105.0, 3508125.0 ], [ 312075.0, 3508125.0 ], [ 312075.0, 3508155.0 ], [ 312045.0, 3508155.0 ], [ 312045.0, 3508185.0 ], [ 312015.0, 3508185.0 ], [ 312015.0, 3508215.0 ], [ 311955.0, 3508215.0 ], [ 311955.0, 3508245.0 ], [ 311715.0, 3508245.0 ], [ 311715.0, 3508275.0 ], [ 311655.0, 3508275.0 ], [ 311655.0, 3508305.0 ], [ 311595.0, 3508305.0 ], [ 311595.0, 3508335.0 ], [ 311535.0, 3508335.0 ], [ 311535.0, 3508365.0 ], [ 311475.0, 3508365.0 ], [ 311475.0, 3508395.0 ], [ 311415.0, 3508395.0 ], [ 311415.0, 3508425.0 ], [ 311385.0, 3508425.0 ], [ 311385.0, 3508455.0 ], [ 311355.0, 3508455.0 ], [ 311355.0, 3508515.0 ], [ 311325.0, 3508515.0 ], [ 311325.0, 3508545.0 ], [ 311265.0, 3508545.0 ], [ 311265.0, 3508575.0 ], [ 311205.0, 3508575.0 ] ], [ [ 312285.0, 3506595.0 ], [ 312315.0, 3506595.0 ], [ 312315.0, 3506415.0 ], [ 312225.0, 3506415.0 ], [ 312225.0, 3506385.0 ], [ 312165.0, 3506385.0 ], [ 312165.0, 3506475.0 ], [ 312225.0, 3506475.0 ], [ 312225.0, 3506505.0 ], [ 312255.0, 3506505.0 ], [ 312255.0, 3506535.0 ], [ 312285.0, 3506535.0 ], [ 312285.0, 3506595.0 ] ], [ [ 312135.0, 3506385.0 ], [ 312165.0, 3506385.0 ], [ 312165.0, 3506355.0 ], [ 312135.0, 3506355.0 ], [ 312135.0, 3506385.0 ] ], [ [ 312105.0, 3506355.0 ], [ 312135.0, 3506355.0 ], [ 312135.0, 3506325.0 ], [ 312105.0, 3506325.0 ], [ 312105.0, 3506355.0 ] ] ] } }
]
}
