{
"type": "FeatureCollection",
"name": "mask4_1995_rot90",
"crs": { "type": "name", "properties": { "name": "urn:ogc:def:crs:EPSG::32630" } },
"features": [
{ "type": "Feature", "properties": { "type": 4 }, "geometry": { "type": "Polygon", "coordinates": [ [ [ 362235.0, 3543765.0 ], [ 362235.0, 3543225.0 ], [ 362265.0, 3543225.0 ], [ 362265.0, 3543315.0 ], [ 362295.0, 3543315.0 ], [ 362295.0, 3543735.0 ], [ 362265.0, 3543735.0 ], [ 362265.0, 3543765.0 ], [ 362235.0, 3543765.0 ] ] ] } },
{ "type": "Feature", "properties": { "type": 4 }, "geometry": { "type": "Polygon", "coordinates": [ [ [ 362235.0, 3542865.0 ], [ 362235.0, 3542745.0 ], [ 362265.0, 3542745.0 ], [ 362265.0, 3542865.0 ], [ 362235.0, 3542865.0 ] ] ] } },
{ "type": "Feature", "properties": { "type": 4 }, "geometry": { "type": "Polygon", "coordinates": [ [ [ 362235.0, 3542655.0 ], [ 362235.0, 3542505.0 ], [ 362265.0, 3542505.0 ], [ 362265.0, 3542535.0 ], [ 362355.0, 3542535.0 ], [ 362355.0, 3542565.0 ], [ 362325.0, 3542565.0 ], [ 362325.0, 3542595.0 ], [ 362295.0, 3542595.0 ], [ 362295.0, 3542625.0 ], [ 362265.0, 3542625.0 ], [ 362265.0, 3542655.0 ], [ 362235.0, 3542655.0 ] ] ] } },
{ "type": "Feature", "properties": { "type": 4 }, "geometry": { "type": "Polygon", "coordinates": [ [ [ 362235.0, 3542445.0 ], [ 362235.0, 3542235.0 ], [ 362415.0, 3542235.0 ], [ 362415.0, 3542325.0 ], [ 362355.0, 3542325.0 ], [ 362355.0, 3542415.0 ], [ 362265.0, 3542415.0 ], [ 362265.0, 3542445.0 ], [ 362235.0, 3542445.0 ] ] ] } },
{ "type": "Feature", "properties": { "type": 4 }, "geometry": { "type": "Polygon", "coordinates": [ [ [ 362235.0, 3542145.0 ], [ 362235.0, 3541665.0 ], [ 362295.0, 3541665.0 ], [ 362295.0, 3541695.0 ], [ 362385.0, 3541695.0 ], [ 362385.0, 3541815.0 ], [ 362445.0, 3541815.0 ], [ 362445.0, 3541875.0 ], [ 362385.0, 3541875.0 ], [ 362385.0, 3542085.0 ], [ 362445.0, 3542085.0 ], [ 362445.0, 3542115.0 ], [ 362265.0, 3542115.0 ], [ 362265.0, 3542145.0 ], [ 362235.0, 3542145.0 ] ] ] } },
{ "type": "Feature", "properties": { "type": 4 }, "geometry": { "type": "Polygon", "coordinates": [ [ [ 364125.0, 3544125.0 ], [ 364125.0, 3544005.0 ], [ 364155.0, 3544005.0 ], [ 364155.0, 3543855.0 ], [ 364095.0, 3543855.0 ], [ 364095.0, 3543825.0 ], [ 364065.0, 3543825.0 ], [ 364065.0, 3543765.0 ], [ 364095.0, 3543765.0 ], [ 364095.0, 3543795.0 ], [ 364125.0, 3543795.0 ], [ 364125.0, 3543555.0 ], [ 364095.0, 3543555.0 ], [ 364095.0, 3543435.0 ], [ 364065.0, 3543435.0 ], [ 364065.0, 3543375.0 ], [ 364035.0, 3543375.0 ], [ 364035.0, 3543285.0 ], [ 364005.0, 3543285.0 ], [ 364005.0, 3543165.0 ], [ 364065.0, 3543165.0 ], [ 364065.0, 3543105.0 ], [ 364095.0, 3543105.0 ], [ 364095.0, 3543045.0 ], [ 364125.0, 3543045.0 ], [ 364125.0, 3542985.0 ], [ 364155.0, 3542985.0 ], [ 364155.0, 3542895.0 ], [ 364185.0, 3542895.0 ], [ 364185.0, 3542805.0 ], [ 364215.0, 3542805.0 ], [ 364215.0, 3542745.0 ], [ 364245.0, 3542745.0 ], [ 364245.0, 3542715.0 ], [ 364395.0, 3542715.0 ], [ 364395.0, 3542745.0 ], [ 364425.0, 3542745.0 ], [ 364425.0, 3542805.0 ], [ 364515.0, 3542805.0 ], [ 364515.0, 3542625.0 ], [ 364545.0, 3542625.0 ], [ 364545.0, 3542475.0 ], [ 364575.0, 3542475.0 ], [ 364575.0, 3542385.0 ], [ 364605.0, 3542385.0 ], [ 364605.0, 3542325.0 ], [ 364635.0, 3542325.0 ], [ 364635.0, 3542295.0 ], [ 364665.0, 3542295.0 ], [ 364665.0, 3542235.0 ], [ 364695.0, 3542235.0 ], [ 364695.0, 3542205.0 ], [ 364725.0, 3542205.0 ], [ 364725.0, 3542145.0 ], [ 364755.0, 3542145.0 ], [ 364755.0, 3542115.0 ], [ 364785.0, 3542115.0 ], [ 364785.0, 3542055.0 ], [ 364815.0, 3542055.0 ], [ 364815.0, 3541995.0 ], [ 364845.0, 3541995.0 ], [ 364845.0, 3541965.0 ], [ 364875.0, 3541965.0 ], [ 364875.0, 3541905.0 ], [ 364905.0, 3541905.0 ], [ 364905.0, 3541875.0 ], [ 364935.0, 3541875.0 ], [ 364935.0, 3541815.0 ], [ 364965.0, 3541815.0 ], [ 364965.0, 3541755.0 ], [ 364995.0, 3541755.0 ], [ 364995.0, 3541725.0 ], [ 365025.0, 3541725.0 ], [ 365025.0, 3541665.0 ], [ 365055.0, 3541665.0 ], [ 365055.0, 3541605.0 ], [ 365085.0, 3541605.0 ], [ 365085.0, 3541575.0 ], [ 365115.0, 3541575.0 ], [ 365115.0, 3541515.0 ], [ 365145.0, 3541515.0 ], [ 365145.0, 3541455.0 ], [ 365175.0, 3541455.0 ], [ 365175.0, 3541425.0 ], [ 365205.0, 3541425.0 ], [ 365205.0, 3541365.0 ], [ 365235.0, 3541365.0 ], [ 365235.0, 3541305.0 ], [ 365265.0, 3541305.0 ], [ 365265.0, 3541275.0 ], [ 365295.0, 3541275.0 ], [ 365295.0, 3541215.0 ], [ 365325.0, 3541215.0 ], [ 365325.0, 3541155.0 ], [ 365355.0, 3541155.0 ], [ 365355.0, 3544125.0 ], [ 364125.0, 3544125.0 ] ] ] } },
{ "type": "Feature", "properties": { "type": 4 }, "geometry": { "type": "Polygon", "coordinates": [ [ [ 362235.0, 3541485.0 ], [ 362235.0, 3541005.0 ], [ 362715.0, 3541005.0 ], [ 362715.0, 3541035.0 ], [ 362685.0, 3541035.0 ], [ 362685.0, 3541065.0 ], [ 362655.0, 3541065.0 ], [ 362655.0, 3541095.0 ], [ 362625.0, 3541095.0 ], [ 362625.0, 3541125.0 ], [ 362595.0, 3541125.0 ], [ 362595.0, 3541155.0 ], [ 362625.0, 3541155.0 ], [ 362625.0, 3541185.0 ], [ 362655.0, 3541185.0 ], [ 362655.0, 3541215.0 ], [ 362715.0, 3541215.0 ], [ 362715.0, 3541275.0 ], [ 362655.0, 3541275.0 ], [ 362655.0, 3541305.0 ], [ 362625.0, 3541305.0 ], [ 362625.0, 3541335.0 ], [ 362565.0, 3541335.0 ], [ 362565.0, 3541365.0 ], [ 362505.0, 3541365.0 ], [ 362505.0, 3541335.0 ], [ 362475.0, 3541335.0 ], [ 362475.0, 3541275.0 ], [ 362445.0, 3541275.0 ], [ 362445.0, 3541245.0 ], [ 362415.0, 3541245.0 ], [ 362415.0, 3541185.0 ], [ 362385.0, 3541185.0 ], [ 362385.0, 3541215.0 ], [ 362355.0, 3541215.0 ], [ 362355.0, 3541275.0 ], [ 362325.0, 3541275.0 ], [ 362325.0, 3541305.0 ], [ 362355.0, 3541305.0 ], [ 362355.0, 3541335.0 ], [ 362415.0, 3541335.0 ], [ 362415.0, 3541395.0 ], [ 362445.0, 3541395.0 ], [ 362445.0, 3541455.0 ], [ 362355.0, 3541455.0 ], [ 362355.0, 3541485.0 ], [ 362235.0, 3541485.0 ] ] ] } },
{ "type": "Feature", "properties": { "type": 4 }, "geometry": { "type": "Polygon", "coordinates": [ [ [ 363675.0, 3541155.0 ], [ 363675.0, 3541125.0 ], [ 363645.0, 3541125.0 ], [ 363645.0, 3541095.0 ], [ 363585.0, 3541095.0 ], [ 363585.0, 3541065.0 ], [ 363525.0, 3541065.0 ], [ 363525.0, 3541035.0 ], [ 363465.0, 3541035.0 ], [ 363465.0, 3541005.0 ], [ 363675.0, 3541005.0 ], [ 363675.0, 3541035.0 ], [ 363705.0, 3541035.0 ], [ 363705.0, 3541125.0 ], [ 363735.0, 3541125.0 ], [ 363735.0, 3541155.0 ], [ 363675.0, 3541155.0 ] ] ] } },
{ "type": "Feature", "properties": { "type": 2 }, "geometry": { "type": "Polygon", "coordinates": [ [ [ 362235.0, 3544125.0 ], [ 362235.0, 3543765.0 ], [ 362265.0, 3543765.0 ], [ 362265.0, 3543735.0 ], [ 362295.0, 3543735.0 ], [ 362295.0, 3543315.0 ], [ 362265.0, 3543315.0 ], [ 362265.0, 3543225.0 ], [ 362235.0, 3543225.0 ], [ 362235.0, 3542865.0 ], [ 362265.0, 3542865.0 ], [ 362265.0, 3542745.0 ], [ 362235.0, 3542745.0 ], [ 362235.0, 3542655.0 ], [ 362265.0, 3542655.0 ], [ 362265.0, 3542625.0 ], [ 362295.0, 3542625.0 ], [ 362295.0, 3542595.0 ], [ 362325.0, 3542595.0 ], [ 362325.0, 3542565.0 ], [ 362355.0, 3542565.0 ], [ 362355.0, 3542535.0 ], [ 362265.0, 3542535.0 ], [ 362265.0, 3542505.0 ], [ 362235.0, 3542505.0 ], [ 362235.0, 3542445.0 ], [ 362265.0, 3542445.0 ], [ 362265.0, 3542415.0 ], [ 362355.0, 3542415.0 ], [ 362355.0, 3542325.0 ], [ 362415.0, 3542325.0 ], [ 362415.0, 3542235.0 ], [ 362235.0, 3542235.0 ], [ 362235.0, 3542145.0 ], [ 362265.0, 3542145.0 ], [ 362265.0, 3542115.0 ], [ 362445.0, 3542115.0 ], [ 362445.0, 3542085.0 ], [ 362385.0, 3542085.0 ], [ 362385.0, 3541875.0 ], [ 362445.0, 3541875.0 ], [ 362445.0, 3541815.0 ], [ 362385.0, 3541815.0 ], [ 362385.0, 3541695.0 ], [ 362295.0, 3541695.0 ], [ 362295.0, 3541665.0 ], [ 362235.0, 3541665.0 ], [ 362235.0, 3541485.0 ], [ 362355.0, 3541485.0 ], [ 362355.0, 3541455.0 ], [ 362445.0, 3541455.0 ], [ 362445.0, 3541395.0 ], [ 362415.0, 3541395.0 ], [ 362415.0, 3541335.0 ], [ 362355.0, 3541335.0 ], [ 362355.0, 3541305.0 ], [ 362325.0, 3541305.0 ], [ 362325.0, 3541275.0 ], [ 362355.0, 3541275.0 ], [ 362355.0, 3541215.0 ], [ 362385.0, 3541215.0 ], [ 362385.0, 3541185.0 ], [ 362415.0, 3541185.0 ], [ 362415.0, 3541245.0 ], [ 362445.0, 3541245.0 ], [ 362445.0, 3541275.0 ], [ 362475.0, 3541275.0 ], [ 362475.0, 3541335.0 ], [ 362505.0, 3541335.0 ], [ 362505.0, 3541365.0 ], [ 362565.0, 3541365.0 ], [ 362565.0, 3541335.0 ], [ 362625.0, 3541335.0 ], [ 362625.0, 3541305.0 ], [ 362655.0, 3541305.0 ], [ 362655.0, 3541275.0 ], [ 362715.0, 3541275.0 ], [ 362715.0, 3541215.0 ], [ 362655.0, 3541215.0 ], [ 362655.0, 3541185.0 ], [ 362625.0, 3541185.0 ], [ 362625.0, 3541155.0 ], [ 362595.0, 3541155.0 ], [ 362595.0, 3541125.0 ], [ 362625.0, 3541125.0 ], [ 362625.0, 3541095.0 ], [ 362655.0, 3541095.0 ], [ 362655.0, 3541065.0 ], [ 362685.0, 3541065.0 ], [ 362685.0, 3541035.0 ], [ 362715.0, 3541035.0 ], [ 362715.0, 3541005.0 ], [ 363465.0, 3541005.0 ], [ 363465.0, 3541035.0 ], [ 363525.0, 3541035.0 ], [ 363525.0, 3541065.0 ], [ 363585.0, 3541065.0 ], [ 363585.0, 3541095.0 ], [ 363645.0, 3541095.0 ], [ 363645.0, 3541125.0 ], [ 363675.0, 3541125.0 ], [ 363675.0, 3541155.0 ], [ 363735.0, 3541155.0 ], [ 363735.0, 3541125.0 ], [ 363705.0, 3541125.0 ], [ 363705.0, 3541035.0 ], [ 363675.0, 3541035.0 ], [ 363675.0, 3541005.0 ], [ 365355.0, 3541005.0 ], [ 365355.0, 3541155.0 ], [ 365325.0, 3541155.0 ], [ 365325.0, 3541215.0 ], [ 365295.0, 3541215.0 ], [ 365295.0, 3541275.0 ], [ 365265.0, 3541275.0 ], [ 365265.0, 3541305.0 ], [ 365235.0, 3541305.0 ], [ 365235.0, 3541365.0 ], [ 365205.0, 3541365.0 ], [ 365205.0, 3541425.0 ], [ 365175.0, 3541425.0 ], [ 365175.0, 3541455.0 ], [ 365145.0, 3541455.0 ], [ 365145.0, 3541515.0 ], [ 365115.0, 3541515.0 ], [ 365115.0, 3541575.0 ], [ 365085.0, 3541575.0 ], [ 365085.0, 3541605.0 ], [ 365055.0, 3541605.0 ], [ 365055.0, 3541665.0 ], [ 365025.0, 3541665.0 ], [ 365025.0, 3541725.0 ], [ 364995.0, 3541725.0 ], [ 364995.0, 3541755.0 ], [ 364965.0, 3541755.0 ], [ 364965.0, 3541815.0 ], [ 364935.0, 3541815.0 ], [ 364935.0, 3541875.0 ], [ 364905.0, 3541875.0 ], [ 364905.0, 3541905.0 ], [ 364875.0, 3541905.0 ], [ 364875.0, 3541965.0 ], [ 364845.0, 3541965.0 ], [ 364845.0, 3541995.0 ], [ 364815.0, 3541995.0 ], [ 364815.0, 3542055.0 ], [ 364785.0, 3542055.0 ], [ 364785.0, 3542115.0 ], [ 364755.0, 3542115.0 ], [ 364755.0, 3542145.0 ], [ 364725.0, 3542145.0 ], [ 364725.0, 3542205.0 ], [ 364695.0, 3542205.0 ], [ 364695.0, 3542235.0 ], [ 364665.0, 3542235.0 ], [ 364665.0, 3542295.0 ], [ 364635.0, 3542295.0 ], [ 364635.0, 3542325.0 ], [ 364605.0, 3542325.0 ], [ 364605.0, 3542385.0 ], [ 364575.0, 3542385.0 ], [ 364575.0, 3542475.0 ], [ 364545.0, 3542475.0 ], [ 364545.0, 3542625.0 ], [ 364515.0, 3542625.0 ], [ 364515.0, 3542805.0 ], [ 364425.0, 3542805.0 ], [ 364425.0, 3542745.0 ], [ 364395.0, 3542745.0 ], [ 364395.0, 3542715.0 ], [ 364245.0, 3542715.0 ], [ 364245.0, 3542745.0 ], [ 364215.0, 3542745.0 ], [ 364215.0, 3542805.0 ], [ 364185.0, 3542805.0 ], [ 364185.0, 3542895.0 ], [ 364155.0, 3542895.0 ], [ 364155.0, 3542985.0 ], [ 364125.0, 3542985.0 ], [ 364125.0, 3543045.0 ], [ 364095.0, 3543045.0 ], [ 364095.0, 3543105.0 ], [ 364065.0, 3543105.0 ], [ 364065.0, 3543165.0 ], [ 364005.0, 3543165.0 ], [ 364005.0, 3543285.0 ], [ 364035.0, 3543285.0 ], [ 364035.0, 3543375.0 ], [ 364065.0, 3543375.0 ], [ 364065.0, 3543435.0 ], [ 364095.0, 3543435.0 ], [ 364095.0, 3543555.0 ], [ 364125.0, 3543555.0 ], [ 364125.0, 3543795.0 ], [ 364095.0, 3543795.0 ], [ 364095.0, 3543765.0 ], [ 364065.0, 3543765.0 ], [ 364065.0, 3543825.0 ], [ 364095.0, 3543825.0 ], [ 364095.0, 3543855.0 ], [ 364155.0, 3543855.0 ], [ 364155.0, 3544005.0 ], [ 364125.0, 3544005.0 ], [ 364125.0, 3544125.0 ], [ 362235.0, 3544125.0 ] ] ] } }
]
}
