{
"type": "FeatureCollection",
"name": "mask4_2018_rot90",
"crs": { "type": "name", "properties": { "name": "urn:ogc:def:crs:EPSG::32630" } },
"features": [
{ "type": "Feature", "properties": { "type": 5 }, "geometry": { "type": "Polygon", "coordinates": [ [ [ 312675.0, 3509325.0 ], [ 312675.0, 3509295.0 ], [ 312645.0, 3509295.0 ], [ 312645.0, 3509265.0 ], [ 312615.0, 3509265.0 ], [ 312615.0, 3509235.0 ], [ 312585.0, 3509235.0 ], [ 312585.0, 3509205.0 ], [ 312555.0, 3509205.0 ], [ 312555.0, 3509175.0 ], [ 312525.0, 3509175.0 ], [ 312525.0, 3509145.0 ], [ 312255.0, 3509145.0 ], [ 312255.0, 3509085.0 ], [ 312225.0, 3509085.0 ], [ 312225.0, 3509025.0 ], [ 312195.0, 3509025.0 ], [ 312195.0, 3508935.0 ], [ 312285.0, 3508935.0 ], [ 312285.0, 3508905.0 ], [ 312315.0, 3508905.0 ], [ 312315.0, 3508875.0 ], [ 312405.0, 3508875.0 ], [ 312405.0, 3508905.0 ], [ 312435.0, 3508905.0 ], [ 312435.0, 3509025.0 ], [ 312465.0, 3509025.0 ], [ 312465.0, 3509055.0 ], [ 312495.0, 3509055.0 ], [ 312495.0, 3509085.0 ], [ 312525.0, 3509085.0 ], [ 312525.0, 3509115.0 ], [ 312555.0, 3509115.0 ], [ 312555.0, 3509145.0 ], [ 312645.0, 3509145.0 ], [ 312645.0, 3509205.0 ], [ 312675.0, 3509205.0 ], [ 312675.0, 3509235.0 ], [ 312735.0, 3509235.0 ], [ 312735.0, 3509265.0 ], [ 312795.0, 3509265.0 ], [ 312795.0, 3509115.0 ], [ 312765.0, 3509115.0 ], [ 312765.0, 3509025.0 ], [ 312735.0, 3509025.0 ], [ 312735.0, 3508995.0 ], [ 312645.0, 3508995.0 ], [ 312645.0, 3508965.0 ], [ 312585.0, 3508965.0 ], [ 312585.0, 3508905.0 ], [ 312555.0, 3508905.0 ], [ 312555.0, 3508875.0 ], [ 312525.0, 3508875.0 ], [ 312525.0, 3508815.0 ], [ 312495.0, 3508815.0 ], [ 312495.0, 3508755.0 ], [ 312465.0, 3508755.0 ], [ 312465.0, 3508725.0 ], [ 312495.0, 3508725.0 ], [ 312495.0, 3508695.0 ], [ 312555.0, 3508695.0 ], [ 312555.0, 3508665.0 ], [ 312645.0, 3508665.0 ], [ 312645.0, 3508635.0 ], [ 312675.0, 3508635.0 ], [ 312675.0, 3508605.0 ], [ 312705.0, 3508605.0 ], [ 312705.0, 3508575.0 ], [ 312735.0, 3508575.0 ], [ 312735.0, 3508545.0 ], [ 312795.0, 3508545.0 ], [ 312795.0, 3508515.0 ], [ 313125.0, 3508515.0 ], [ 313125.0, 3508545.0 ], [ 313185.0, 3508545.0 ], [ 313185.0, 3508575.0 ], [ 313245.0, 3508575.0 ], [ 313245.0, 3508635.0 ], [ 313275.0, 3508635.0 ], [ 313275.0, 3508695.0 ], [ 313305.0, 3508695.0 ], [ 313305.0, 3508755.0 ], [ 313335.0, 3508755.0 ], [ 313335.0, 3508815.0 ], [ 313365.0, 3508815.0 ], [ 313365.0, 3508845.0 ], [ 313395.0, 3508845.0 ], [ 313395.0, 3508905.0 ], [ 313545.0, 3508905.0 ], [ 313545.0, 3508875.0 ], [ 313575.0, 3508875.0 ], [ 313575.0, 3508785.0 ], [ 313545.0, 3508785.0 ], [ 313545.0, 3508755.0 ], [ 313725.0, 3508755.0 ], [ 313725.0, 3508725.0 ], [ 313815.0, 3508725.0 ], [ 313815.0, 3508665.0 ], [ 313845.0, 3508665.0 ], [ 313845.0, 3508635.0 ], [ 313875.0, 3508635.0 ], [ 313875.0, 3508605.0 ], [ 313905.0, 3508605.0 ], [ 313905.0, 3509325.0 ], [ 312675.0, 3509325.0 ] ] ] } },
{ "type": "Feature", "properties": { "type": 1 }, "geometry": { "type": "Polygon", "coordinates": [ [ [ 310785.0, 3508635.0 ], [ 310785.0, 3508125.0 ], [ 310965.0, 3508125.0 ], [ 310965.0, 3508155.0 ], [ 311145.0, 3508155.0 ], [ 311145.0, 3508185.0 ], [ 311265.0, 3508185.0 ], [ 311265.0, 3508545.0 ], [ 311235.0, 3508545.0 ], [ 311235.0, 3508515.0 ], [ 311205.0, 3508515.0 ], [ 311205.0, 3508485.0 ], [ 310965.0, 3508485.0 ], [ 310965.0, 3508515.0 ], [ 310935.0, 3508515.0 ], [ 310935.0, 3508545.0 ], [ 310905.0, 3508545.0 ], [ 310905.0, 3508575.0 ], [ 310875.0, 3508575.0 ], [ 310875.0, 3508605.0 ], [ 310845.0, 3508605.0 ], [ 310845.0, 3508635.0 ], [ 310785.0, 3508635.0 ] ] ] } },
{ "type": "Feature", "properties": { "type": 1 }, "geometry": { "type": "Polygon", "coordinates": [ [ [ 310785.0, 3509325.0 ], [ 310785.0, 3508755.0 ], [ 310935.0, 3508755.0 ], [ 310935.0, 3508785.0 ], [ 310965.0, 3508785.0 ], [ 310965.0, 3508845.0 ], [ 310995.0, 3508845.0 ], [ 310995.0, 3508875.0 ], [ 311055.0, 3508875.0 ], [ 311055.0, 3508905.0 ], [ 311085.0, 3508905.0 ], [ 311085.0, 3508935.0 ], [ 311115.0, 3508935.0 ], [ 311115.0, 3508965.0 ], [ 311145.0, 3508965.0 ], [ 311145.0, 3509025.0 ], [ 311175.0, 3509025.0 ], [ 311175.0, 3509055.0 ], [ 311205.0, 3509055.0 ], [ 311205.0, 3509115.0 ], [ 311235.0, 3509115.0 ], [ 311235.0, 3509145.0 ], [ 311265.0, 3509145.0 ], [ 311265.0, 3509205.0 ], [ 311295.0, 3509205.0 ], [ 311295.0, 3509235.0 ], [ 311325.0, 3509235.0 ], [ 311325.0, 3509265.0 ], [ 311355.0, 3509265.0 ], [ 311355.0, 3509235.0 ], [ 311415.0, 3509235.0 ], [ 311415.0, 3509265.0 ], [ 311445.0, 3509265.0 ], [ 311445.0, 3509175.0 ], [ 311415.0, 3509175.0 ], [ 311415.0, 3508965.0 ], [ 311385.0, 3508965.0 ], [ 311385.0, 3508725.0 ], [ 311355.0, 3508725.0 ], [ 311355.0, 3508515.0 ], [ 311325.0, 3508515.0 ], [ 311325.0, 3508275.0 ], [ 311295.0, 3508275.0 ], [ 311295.0, 3508245.0 ], [ 311355.0, 3508245.0 ], [ 311355.0, 3508215.0 ], [ 311475.0, 3508215.0 ], [ 311475.0, 3508185.0 ], [ 311505.0, 3508185.0 ], [ 311505.0, 3508155.0 ], [ 311565.0, 3508155.0 ], [ 311565.0, 3508125.0 ], [ 311685.0, 3508125.0 ], [ 311685.0, 3508095.0 ], [ 311955.0, 3508095.0 ], [ 311955.0, 3508005.0 ], [ 311925.0, 3508005.0 ], [ 311925.0, 3507915.0 ], [ 311955.0, 3507915.0 ], [ 311955.0, 3507885.0 ], [ 312015.0, 3507885.0 ], [ 312015.0, 3507855.0 ], [ 312105.0, 3507855.0 ], [ 312105.0, 3507825.0 ], [ 312225.0, 3507825.0 ], [ 312225.0, 3507795.0 ], [ 312315.0, 3507795.0 ], [ 312315.0, 3507765.0 ], [ 312345.0, 3507765.0 ], [ 312345.0, 3507705.0 ], [ 312375.0, 3507705.0 ], [ 312375.0, 3507615.0 ], [ 312405.0, 3507615.0 ], [ 312405.0, 3507585.0 ], [ 312495.0, 3507585.0 ], [ 312495.0, 3507555.0 ], [ 312525.0, 3507555.0 ], [ 312525.0, 3507525.0 ], [ 312555.0, 3507525.0 ], [ 312555.0, 3507465.0 ], [ 312585.0, 3507465.0 ], [ 312585.0, 3507435.0 ], [ 312615.0, 3507435.0 ], [ 312615.0, 3507405.0 ], [ 312645.0, 3507405.0 ], [ 312645.0, 3507375.0 ], [ 312705.0, 3507375.0 ], [ 312705.0, 3507345.0 ], [ 312795.0, 3507345.0 ], [ 312795.0, 3507315.0 ], [ 312885.0, 3507315.0 ], [ 312885.0, 3507285.0 ], [ 313035.0, 3507285.0 ], [ 313035.0, 3507255.0 ], [ 313065.0, 3507255.0 ], [ 313065.0, 3507225.0 ], [ 313125.0, 3507225.0 ], [ 313125.0, 3507195.0 ], [ 313155.0, 3507195.0 ], [ 313155.0, 3507165.0 ], [ 313215.0, 3507165.0 ], [ 313215.0, 3507135.0 ], [ 313275.0, 3507135.0 ], [ 313275.0, 3507105.0 ], [ 313305.0, 3507105.0 ], [ 313305.0, 3507075.0 ], [ 313365.0, 3507075.0 ], [ 313365.0, 3507045.0 ], [ 313395.0, 3507045.0 ], [ 313395.0, 3507015.0 ], [ 313515.0, 3507015.0 ], [ 313515.0, 3506985.0 ], [ 313695.0, 3506985.0 ], [ 313695.0, 3507075.0 ], [ 313635.0, 3507075.0 ], [ 313635.0, 3507105.0 ], [ 313665.0, 3507105.0 ], [ 313665.0, 3507165.0 ], [ 313695.0, 3507165.0 ], [ 313695.0, 3507195.0 ], [ 313725.0, 3507195.0 ], [ 313725.0, 3507225.0 ], [ 313815.0, 3507225.0 ], [ 313815.0, 3507255.0 ], [ 313905.0, 3507255.0 ], [ 313905.0, 3508605.0 ], [ 313875.0, 3508605.0 ], [ 313875.0, 3508635.0 ], [ 313845.0, 3508635.0 ], [ 313845.0, 3508665.0 ], [ 313815.0, 3508665.0 ], [ 313815.0, 3508725.0 ], [ 313725.0, 3508725.0 ], [ 313725.0, 3508755.0 ], [ 313545.0, 3508755.0 ], [ 313545.0, 3508785.0 ], [ 313575.0, 3508785.0 ], [ 313575.0, 3508875.0 ], [ 313545.0, 3508875.0 ], [ 313545.0, 3508905.0 ], [ 313395.0, 3508905.0 ], [ 313395.0, 3508845.0 ], [ 313365.0, 3508845.0 ], [ 313365.0, 3508815.0 ], [ 313335.0, 3508815.0 ], [ 313335.0, 3508755.0 ], [ 313305.0, 3508755.0 ], [ 313305.0, 3508695.0 ], [ 313275.0, 3508695.0 ], [ 313275.0, 3508635.0 ], [ 313245.0, 3508635.0 ], [ 313245.0, 3508575.0 ], [ 313185.0, 3508575.0 ], [ 313185.0, 3508545.0 ], [ 313125.0, 3508545.0 ], [ 313125.0, 3508515.0 ], [ 312795.0, 3508515.0 ], [ 312795.0, 3508545.0 ], [ 312735.0, 3508545.0 ], [ 312735.0, 3508575.0 ], [ 312705.0, 3508575.0 ], [ 312705.0, 3508605.0 ], [ 312675.0, 3508605.0 ], [ 312675.0, 3508635.0 ], [ 312645.0, 3508635.0 ], [ 312645.0, 3508665.0 ], [ 312555.0, 3508665.0 ], [ 312555.0, 3508695.0 ], [ 312495.0, 3508695.0 ], [ 312495.0, 3508725.0 ], [ 312465.0, 3508725.0 ], [ 312465.0, 3508755.0 ], [ 312495.0, 3508755.0 ], [ 312495.0, 3508815.0 ], [ 312525.0, 3508815.0 ], [ 312525.0, 3508875.0 ], [ 312555.0, 3508875.0 ], [ 312555.0, 3508905.0 ], [ 312585.0, 3508905.0 ], [ 312585.0, 3508965.0 ], [ 312645.0, 3508965.0 ], [ 312645.0, 3508995.0 ], [ 312735.0, 3508995.0 ], [ 312735.0, 3509025.0 ], [ 312765.0, 3509025.0 ], [ 312765.0, 3509115.0 ], [ 312795.0, 3509115.0 ], [ 312795.0, 3509265.0 ], [ 312735.0, 3509265.0 ], [ 312735.0, 3509235.0 ], [ 312675.0, 3509235.0 ], [ 312675.0, 3509205.0 ], [ 312645.0, 3509205.0 ], [ 312645.0, 3509145.0 ], [ 312555.0, 3509145.0 ], [ 312555.0, 3509115.0 ], [ 312525.0, 3509115.0 ], [ 312525.0, 3509085.0 ], [ 312495.0, 3509085.0 ], [ 312495.0, 3509055.0 ], [ 312465.0, 3509055.0 ], [ 312465.0, 3509025.0 ], [ 312435.0, 3509025.0 ], [ 312435.0, 3508905.0 ], [ 312405.0, 3508905.0 ], [ 312405.0, 3508875.0 ], [ 312315.0, 3508875.0 ], [ 312315.0, 3508905.0 ], [ 312285.0, 3508905.0 ], [ 312285.0, 3508935.0 ], [ 312195.0, 3508935.0 ], [ 312195.0, 3509025.0 ], [ 312225.0, 3509025.0 ], [ 312225.0, 3509085.0 ], [ 312255.0, 3509085.0 ], [ 312255.0, 3509145.0 ], [ 312525.0, 3509145.0 ], [ 312525.0, 3509175.0 ], [ 312555.0, 3509175.0 ], [ 312555.0, 3509205.0 ], [ 312585.0, 3509205.0 ], [ 312585.0, 3509235.0 ], [ 312615.0, 3509235.0 ], [ 312615.0, 3509265.0 ], [ 312645.0, 3509265.0 ], [ 312645.0, 3509295.0 ], [ 312675.0, 3509295.0 ], [ 312675.0, 3509325.0 ], [ 310785.0, 3509325.0 ] ] ] } },
{ "type": "Feature", "properties": { "type": 1 }, "geometry": { "type": "Polygon", "coordinates": [ [ [ 313845.0, 3507165.0 ], [ 313845.0, 3506925.0 ], [ 313905.0, 3506925.0 ], [ 313905.0, 3507165.0 ], [ 313845.0, 3507165.0 ] ] ] } },
{ "type": "Feature", "properties": { "type": 5 }, "geometry": { "type": "Polygon", "coordinates": [ [ [ 311415.0, 3509265.0 ], [ 311415.0, 3509235.0 ], [ 311325.0, 3509235.0 ], [ 311325.0, 3509205.0 ], [ 311295.0, 3509205.0 ], [ 311295.0, 3509175.0 ], [ 311265.0, 3509175.0 ], [ 311265.0, 3509145.0 ], [ 311235.0, 3509145.0 ], [ 311235.0, 3509115.0 ], [ 311205.0, 3509115.0 ], [ 311205.0, 3509055.0 ], [ 311175.0, 3509055.0 ], [ 311175.0, 3509025.0 ], [ 311145.0, 3509025.0 ], [ 311145.0, 3508965.0 ], [ 311115.0, 3508965.0 ], [ 311115.0, 3508935.0 ], [ 311085.0, 3508935.0 ], [ 311085.0, 3508905.0 ], [ 311055.0, 3508905.0 ], [ 311055.0, 3508875.0 ], [ 310995.0, 3508875.0 ], [ 310995.0, 3508845.0 ], [ 310965.0, 3508845.0 ], [ 310965.0, 3508785.0 ], [ 310935.0, 3508785.0 ], [ 310935.0, 3508755.0 ], [ 310785.0, 3508755.0 ], [ 310785.0, 3508635.0 ], [ 310845.0, 3508635.0 ], [ 310845.0, 3508605.0 ], [ 310875.0, 3508605.0 ], [ 310875.0, 3508575.0 ], [ 310905.0, 3508575.0 ], [ 310905.0, 3508545.0 ], [ 310935.0, 3508545.0 ], [ 310935.0, 3508515.0 ], [ 310965.0, 3508515.0 ], [ 310965.0, 3508485.0 ], [ 311205.0, 3508485.0 ], [ 311205.0, 3508515.0 ], [ 311235.0, 3508515.0 ], [ 311235.0, 3508545.0 ], [ 311265.0, 3508545.0 ], [ 311265.0, 3508185.0 ], [ 311145.0, 3508185.0 ], [ 311145.0, 3508155.0 ], [ 310965.0, 3508155.0 ], [ 310965.0, 3508125.0 ], [ 310785.0, 3508125.0 ], [ 310785.0, 3507525.0 ], [ 310845.0, 3507525.0 ], [ 310845.0, 3507465.0 ], [ 310875.0, 3507465.0 ], [ 310875.0, 3507435.0 ], [ 310905.0, 3507435.0 ], [ 310905.0, 3507465.0 ], [ 310935.0, 3507465.0 ], [ 310935.0, 3507495.0 ], [ 310965.0, 3507495.0 ], [ 310965.0, 3507525.0 ], [ 310995.0, 3507525.0 ], [ 310995.0, 3507465.0 ], [ 311115.0, 3507465.0 ], [ 311115.0, 3507495.0 ], [ 311205.0, 3507495.0 ], [ 311205.0, 3507465.0 ], [ 311265.0, 3507465.0 ], [ 311265.0, 3507495.0 ], [ 311295.0, 3507495.0 ], [ 311295.0, 3507525.0 ], [ 311325.0, 3507525.0 ], [ 311325.0, 3507555.0 ], [ 311355.0, 3507555.0 ], [ 311355.0, 3507615.0 ], [ 311385.0, 3507615.0 ], [ 311385.0, 3507705.0 ], [ 311415.0, 3507705.0 ], [ 311415.0, 3507765.0 ], [ 311445.0, 3507765.0 ], [ 311445.0, 3507825.0 ], [ 311475.0, 3507825.0 ], [ 311475.0, 3507855.0 ], [ 311565.0, 3507855.0 ], [ 311565.0, 3507825.0 ], [ 311595.0, 3507825.0 ], [ 311595.0, 3507795.0 ], [ 311625.0, 3507795.0 ], [ 311625.0, 3507765.0 ], [ 311715.0, 3507765.0 ], [ 311715.0, 3507735.0 ], [ 311745.0, 3507735.0 ], [ 311745.0, 3507705.0 ], [ 311775.0, 3507705.0 ], [ 311775.0, 3507675.0 ], [ 311805.0, 3507675.0 ], [ 311805.0, 3507405.0 ], [ 311775.0, 3507405.0 ], [ 311775.0, 3507345.0 ], [ 311805.0, 3507345.0 ], [ 311805.0, 3507315.0 ], [ 311835.0, 3507315.0 ], [ 311835.0, 3507285.0 ], [ 311895.0, 3507285.0 ], [ 311895.0, 3507255.0 ], [ 311955.0, 3507255.0 ], [ 311955.0, 3507225.0 ], [ 312075.0, 3507225.0 ], [ 312075.0, 3507255.0 ], [ 312195.0, 3507255.0 ], [ 312195.0, 3507225.0 ], [ 312225.0, 3507225.0 ], [ 312225.0, 3507195.0 ], [ 312255.0, 3507195.0 ], [ 312255.0, 3507165.0 ], [ 312285.0, 3507165.0 ], [ 312285.0, 3507105.0 ], [ 312315.0, 3507105.0 ], [ 312315.0, 3507075.0 ], [ 312345.0, 3507075.0 ], [ 312345.0, 3507045.0 ], [ 312405.0, 3507045.0 ], [ 312405.0, 3507015.0 ], [ 312435.0, 3507015.0 ], [ 312435.0, 3506985.0 ], [ 312495.0, 3506985.0 ], [ 312495.0, 3506955.0 ], [ 312525.0, 3506955.0 ], [ 312525.0, 3506925.0 ], [ 312615.0, 3506925.0 ], [ 312615.0, 3506985.0 ], [ 312675.0, 3506985.0 ], [ 312675.0, 3506865.0 ], [ 312855.0, 3506865.0 ], [ 312855.0, 3506835.0 ], [ 312885.0, 3506835.0 ], [ 312885.0, 3506775.0 ], [ 312915.0, 3506775.0 ], [ 312915.0, 3506745.0 ], [ 312975.0, 3506745.0 ], [ 312975.0, 3506715.0 ], [ 313335.0, 3506715.0 ], [ 313335.0, 3506685.0 ], [ 313485.0, 3506685.0 ], [ 313485.0, 3506655.0 ], [ 313575.0, 3506655.0 ], [ 313575.0, 3506625.0 ], [ 313755.0, 3506625.0 ], [ 313755.0, 3506595.0 ], [ 313905.0, 3506595.0 ], [ 313905.0, 3506925.0 ], [ 313845.0, 3506925.0 ], [ 313845.0, 3507165.0 ], [ 313905.0, 3507165.0 ], [ 313905.0, 3507255.0 ], [ 313815.0, 3507255.0 ], [ 313815.0, 3507225.0 ], [ 313725.0, 3507225.0 ], [ 313725.0, 3507195.0 ], [ 313695.0, 3507195.0 ], [ 313695.0, 3507165.0 ], [ 313665.0, 3507165.0 ], [ 313665.0, 3507105.0 ], [ 313635.0, 3507105.0 ], [ 313635.0, 3507075.0 ], [ 313695.0, 3507075.0 ], [ 313695.0, 3506985.0 ], [ 313665.0, 3506985.0 ], [ 313665.0, 3506955.0 ], [ 313545.0, 3506955.0 ], [ 313545.0, 3506985.0 ], [ 313485.0, 3506985.0 ], [ 313485.0, 3507015.0 ], [ 313395.0, 3507015.0 ], [ 313395.0, 3507045.0 ], [ 313365.0, 3507045.0 ], [ 313365.0, 3507075.0 ], [ 313305.0, 3507075.0 ], [ 313305.0, 3507105.0 ], [ 313275.0, 3507105.0 ], [ 313275.0, 3507135.0 ], [ 313185.0, 3507135.0 ], [ 313185.0, 3507165.0 ], [ 313155.0, 3507165.0 ], [ 313155.0, 3507195.0 ], [ 313125.0, 3507195.0 ], [ 313125.0, 3507225.0 ], [ 313065.0, 3507225.0 ], [ 313065.0, 3507255.0 ], [ 313035.0, 3507255.0 ], [ 313035.0, 3507285.0 ], [ 312885.0, 3507285.0 ], [ 312885.0, 3507315.0 ], [ 312765.0, 3507315.0 ], [ 312765.0, 3507345.0 ], [ 312705.0, 3507345.0 ], [ 312705.0, 3507375.0 ], [ 312645.0, 3507375.0 ], [ 312645.0, 3507405.0 ], [ 312615.0, 3507405.0 ], [ 312615.0, 3507435.0 ], [ 312585.0, 3507435.0 ], [ 312585.0, 3507465.0 ], [ 312555.0, 3507465.0 ], [ 312555.0, 3507525.0 ], [ 312525.0, 3507525.0 ], [ 312525.0, 3507555.0 ], [ 312495.0, 3507555.0 ], [ 312495.0, 3507585.0 ], [ 312405.0, 3507585.0 ], [ 312405.0, 3507615.0 ], [ 312375.0, 3507615.0 ], [ 312375.0, 3507705.0 ], [ 312345.0, 3507705.0 ], [ 312345.0, 3507765.0 ], [ 312315.0, 3507765.0 ], [ 312315.0, 3507795.0 ], [ 312225.0, 3507795.0 ], [ 312225.0, 3507825.0 ], [ 312105.0, 3507825.0 ], [ 312105.0, 3507855.0 ], [ 312015.0, 3507855.0 ], [ 312015.0, 3507885.0 ], [ 311955.0, 3507885.0 ], [ 311955.0, 3507915.0 ], [ 311925.0, 3507915.0 ], [ 311925.0, 3508005.0 ], [ 311955.0, 3508005.0 ], [ 311955.0, 3508095.0 ], [ 311685.0, 3508095.0 ], [ 311685.0, 3508125.0 ], [ 311535.0, 3508125.0 ], [ 311535.0, 3508155.0 ], [ 311505.0, 3508155.0 ], [ 311505.0, 3508185.0 ], [ 311475.0, 3508185.0 ], [ 311475.0, 3508215.0 ], [ 311355.0, 3508215.0 ], [ 311355.0, 3508245.0 ], [ 311295.0, 3508245.0 ], [ 311295.0, 3508275.0 ], [ 311325.0, 3508275.0 ], [ 311325.0, 3508515.0 ], [ 311355.0, 3508515.0 ], [ 311355.0, 3508725.0 ], [ 311385.0, 3508725.0 ], [ 311385.0, 3508965.0 ], [ 311415.0, 3508965.0 ], [ 311415.0, 3509175.0 ], [ 311445.0, 3509175.0 ], [ 311445.0, 3509265.0 ], [ 311415.0, 3509265.0 ] ] ] } },
{ "type": "Feature", "properties": { "type": 4 }, "geometry": { "type": "Polygon", "coordinates": [ [ [ 311475.0, 3507855.0 ], [ 311475.0, 3507825.0 ], [ 311445.0, 3507825.0 ], [ 311445.0, 3507765.0 ], [ 311415.0, 3507765.0 ], [ 311415.0, 3507705.0 ], [ 311385.0, 3507705.0 ], [ 311385.0, 3507615.0 ], [ 311355.0, 3507615.0 ], [ 311355.0, 3507555.0 ], [ 311325.0, 3507555.0 ], [ 311325.0, 3507525.0 ], [ 311295.0, 3507525.0 ], [ 311295.0, 3507495.0 ], [ 311265.0, 3507495.0 ], [ 311265.0, 3507465.0 ], [ 311205.0, 3507465.0 ], [ 311205.0, 3507495.0 ], [ 311115.0, 3507495.0 ], [ 311115.0, 3507465.0 ], [ 310995.0, 3507465.0 ], [ 310995.0, 3507525.0 ], [ 310965.0, 3507525.0 ], [ 310965.0, 3507495.0 ], [ 310935.0, 3507495.0 ], [ 310935.0, 3507465.0 ], [ 310905.0, 3507465.0 ], [ 310905.0, 3507435.0 ], [ 310875.0, 3507435.0 ], [ 310875.0, 3507465.0 ], [ 310845.0, 3507465.0 ], [ 310845.0, 3507525.0 ], [ 310785.0, 3507525.0 ], [ 310785.0, 3506205.0 ], [ 313905.0, 3506205.0 ], [ 313905.0, 3506595.0 ], [ 313755.0, 3506595.0 ], [ 313755.0, 3506625.0 ], [ 313575.0, 3506625.0 ], [ 313575.0, 3506655.0 ], [ 313485.0, 3506655.0 ], [ 313485.0, 3506685.0 ], [ 313335.0, 3506685.0 ], [ 313335.0, 3506715.0 ], [ 313215.0, 3506715.0 ], [ 313215.0, 3506685.0 ], [ 313155.0, 3506685.0 ], [ 313155.0, 3506715.0 ], [ 312975.0, 3506715.0 ], [ 312975.0, 3506745.0 ], [ 312915.0, 3506745.0 ], [ 312915.0, 3506775.0 ], [ 312885.0, 3506775.0 ], [ 312885.0, 3506835.0 ], [ 312855.0, 3506835.0 ], [ 312855.0, 3506865.0 ], [ 312675.0, 3506865.0 ], [ 312675.0, 3506985.0 ], [ 312615.0, 3506985.0 ], [ 312615.0, 3506925.0 ], [ 312525.0, 3506925.0 ], [ 312525.0, 3506955.0 ], [ 312495.0, 3506955.0 ], [ 312495.0, 3506985.0 ], [ 312435.0, 3506985.0 ], [ 312435.0, 3507015.0 ], [ 312405.0, 3507015.0 ], [ 312405.0, 3507045.0 ], [ 312345.0, 3507045.0 ], [ 312345.0, 3507075.0 ], [ 312315.0, 3507075.0 ], [ 312315.0, 3507105.0 ], [ 312285.0, 3507105.0 ], [ 312285.0, 3507165.0 ], [ 312255.0, 3507165.0 ], [ 312255.0, 3507195.0 ], [ 312225.0, 3507195.0 ], [ 312225.0, 3507225.0 ], [ 312195.0, 3507225.0 ], [ 312195.0, 3507255.0 ], [ 312075.0, 3507255.0 ], [ 312075.0, 3507225.0 ], [ 311955.0, 3507225.0 ], [ 311955.0, 3507255.0 ], [ 311895.0, 3507255.0 ], [ 311895.0, 3507285.0 ], [ 311835.0, 3507285.0 ], [ 311835.0, 3507315.0 ], [ 311805.0, 3507315.0 ], [ 311805.0, 3507345.0 ], [ 311775.0, 3507345.0 ], [ 311775.0, 3507405.0 ], [ 311805.0, 3507405.0 ], [ 311805.0, 3507675.0 ], [ 311775.0, 3507675.0 ], [ 311775.0, 3507705.0 ], [ 311745.0, 3507705.0 ], [ 311745.0, 3507735.0 ], [ 311715.0, 3507735.0 ], [ 311715.0, 3507765.0 ], [ 311625.0, 3507765.0 ], [ 311625.0, 3507795.0 ], [ 311595.0, 3507795.0 ], [ 311595.0, 3507825.0 ], [ 311565.0, 3507825.0 ], [ 311565.0, 3507855.0 ], [ 311475.0, 3507855.0 ] ] ] } }
]
}
