{
"type": "FeatureCollection",
"name": "mask4_1995_rot270",
"crs": { "type": "name", "properties": { "name": "urn:ogc:def:crs:EPSG::32630" } },
"features": [
{ "type": "Feature", "properties": { "type": 4 }, "geometry": { "type": "Polygon", "coordinates": [ [ [ 363915.0, 3544125.0 ], [ 363915.0, 3544095.0 ], [ 363885.0, 3544095.0 ], [ 363885.0, 3544005.0 ], [ 363855.0, 3544005.0 ], [ 363855.0, 3543975.0 ], [ 363915.0, 3543975.0 ], [ 363915.0, 3544005.0 ], [ 363945.0, 3544005.0 ], [ 363945.0, 3544035.0 ], [ 364005.0, 3544035.0 ], [ 364005.0, 3544065.0 ], [ 364065.0, 3544065.0 ], [ 364065.0, 3544095.0 ], [ 364125.0, 3544095.0 ], [ 364125.0, 3544125.0 ], [ 363915.0, 3544125.0 ] ] ] } },
{ "type": "Feature", "properties": { "type": 4 }, "geometry": { "type": "Polygon", "coordinates": [ [ [ 364875.0, 3544125.0 ], [ 364875.0, 3544095.0 ], [ 364905.0, 3544095.0 ], [ 364905.0, 3544065.0 ], [ 364935.0, 3544065.0 ], [ 364935.0, 3544035.0 ], [ 364965.0, 3544035.0 ], [ 364965.0, 3544005.0 ], [ 364995.0, 3544005.0 ], [ 364995.0, 3543975.0 ], [ 364965.0, 3543975.0 ], [ 364965.0, 3543945.0 ], [ 364935.0, 3543945.0 ], [ 364935.0, 3543915.0 ], [ 364875.0, 3543915.0 ], [ 364875.0, 3543855.0 ], [ 364935.0, 3543855.0 ], [ 364935.0, 3543825.0 ], [ 364965.0, 3543825.0 ], [ 364965.0, 3543795.0 ], [ 365025.0, 3543795.0 ], [ 365025.0, 3543765.0 ], [ 365085.0, 3543765.0 ], [ 365085.0, 3543795.0 ], [ 365115.0, 3543795.0 ], [ 365115.0, 3543855.0 ], [ 365145.0, 3543855.0 ], [ 365145.0, 3543885.0 ], [ 365175.0, 3543885.0 ], [ 365175.0, 3543945.0 ], [ 365205.0, 3543945.0 ], [ 365205.0, 3543915.0 ], [ 365235.0, 3543915.0 ], [ 365235.0, 3543855.0 ], [ 365265.0, 3543855.0 ], [ 365265.0, 3543825.0 ], [ 365235.0, 3543825.0 ], [ 365235.0, 3543795.0 ], [ 365175.0, 3543795.0 ], [ 365175.0, 3543735.0 ], [ 365145.0, 3543735.0 ], [ 365145.0, 3543675.0 ], [ 365235.0, 3543675.0 ], [ 365235.0, 3543645.0 ], [ 365355.0, 3543645.0 ], [ 365355.0, 3544125.0 ], [ 364875.0, 3544125.0 ] ] ] } },
{ "type": "Feature", "properties": { "type": 4 }, "geometry": { "type": "Polygon", "coordinates": [ [ [ 365295.0, 3543465.0 ], [ 365295.0, 3543435.0 ], [ 365205.0, 3543435.0 ], [ 365205.0, 3543315.0 ], [ 365145.0, 3543315.0 ], [ 365145.0, 3543255.0 ], [ 365205.0, 3543255.0 ], [ 365205.0, 3543045.0 ], [ 365145.0, 3543045.0 ], [ 365145.0, 3543015.0 ], [ 365325.0, 3543015.0 ], [ 365325.0, 3542985.0 ], [ 365355.0, 3542985.0 ], [ 365355.0, 3543465.0 ], [ 365295.0, 3543465.0 ] ] ] } },
{ "type": "Feature", "properties": { "type": 4 }, "geometry": { "type": "Polygon", "coordinates": [ [ [ 365175.0, 3542895.0 ], [ 365175.0, 3542805.0 ], [ 365235.0, 3542805.0 ], [ 365235.0, 3542715.0 ], [ 365325.0, 3542715.0 ], [ 365325.0, 3542685.0 ], [ 365355.0, 3542685.0 ], [ 365355.0, 3542895.0 ], [ 365175.0, 3542895.0 ] ] ] } },
{ "type": "Feature", "properties": { "type": 4 }, "geometry": { "type": "Polygon", "coordinates": [ [ [ 365325.0, 3542625.0 ], [ 365325.0, 3542595.0 ], [ 365235.0, 3542595.0 ], [ 365235.0, 3542565.0 ], [ 365265.0, 3542565.0 ], [ 365265.0, 3542535.0 ], [ 365295.0, 3542535.0 ], [ 365295.0, 3542505.0 ], [ 365325.0, 3542505.0 ], [ 365325.0, 3542475.0 ], [ 365355.0, 3542475.0 ], [ 365355.0, 3542625.0 ], [ 365325.0, 3542625.0 ] ] ] } },
{ "type": "Feature", "properties": { "type": 4 }, "geometry": { "type": "Polygon", "coordinates": [ [ [ 365325.0, 3542385.0 ], [ 365325.0, 3542265.0 ], [ 365355.0, 3542265.0 ], [ 365355.0, 3542385.0 ], [ 365325.0, 3542385.0 ] ] ] } },
{ "type": "Feature", "properties": { "type": 4 }, "geometry": { "type": "Polygon", "coordinates": [ [ [ 365325.0, 3541905.0 ], [ 365325.0, 3541815.0 ], [ 365295.0, 3541815.0 ], [ 365295.0, 3541395.0 ], [ 365325.0, 3541395.0 ], [ 365325.0, 3541365.0 ], [ 365355.0, 3541365.0 ], [ 365355.0, 3541905.0 ], [ 365325.0, 3541905.0 ] ] ] } },
{ "type": "Feature", "properties": { "type": 4 }, "geometry": { "type": "Polygon", "coordinates": [ [ [ 362235.0, 3543975.0 ], [ 362235.0, 3541005.0 ], [ 363465.0, 3541005.0 ], [ 363465.0, 3541125.0 ], [ 363435.0, 3541125.0 ], [ 363435.0, 3541275.0 ], [ 363495.0, 3541275.0 ], [ 363495.0, 3541305.0 ], [ 363525.0, 3541305.0 ], [ 363525.0, 3541365.0 ], [ 363495.0, 3541365.0 ], [ 363495.0, 3541335.0 ], [ 363465.0, 3541335.0 ], [ 363465.0, 3541575.0 ], [ 363495.0, 3541575.0 ], [ 363495.0, 3541695.0 ], [ 363525.0, 3541695.0 ], [ 363525.0, 3541755.0 ], [ 363555.0, 3541755.0 ], [ 363555.0, 3541845.0 ], [ 363585.0, 3541845.0 ], [ 363585.0, 3541965.0 ], [ 363525.0, 3541965.0 ], [ 363525.0, 3542025.0 ], [ 363495.0, 3542025.0 ], [ 363495.0, 3542085.0 ], [ 363465.0, 3542085.0 ], [ 363465.0, 3542145.0 ], [ 363435.0, 3542145.0 ], [ 363435.0, 3542235.0 ], [ 363405.0, 3542235.0 ], [ 363405.0, 3542325.0 ], [ 363375.0, 3542325.0 ], [ 363375.0, 3542385.0 ], [ 363345.0, 3542385.0 ], [ 363345.0, 3542415.0 ], [ 363195.0, 3542415.0 ], [ 363195.0, 3542385.0 ], [ 363165.0, 3542385.0 ], [ 363165.0, 3542325.0 ], [ 363075.0, 3542325.0 ], [ 363075.0, 3542505.0 ], [ 363045.0, 3542505.0 ], [ 363045.0, 3542655.0 ], [ 363015.0, 3542655.0 ], [ 363015.0, 3542745.0 ], [ 362985.0, 3542745.0 ], [ 362985.0, 3542805.0 ], [ 362955.0, 3542805.0 ], [ 362955.0, 3542835.0 ], [ 362925.0, 3542835.0 ], [ 362925.0, 3542895.0 ], [ 362895.0, 3542895.0 ], [ 362895.0, 3542925.0 ], [ 362865.0, 3542925.0 ], [ 362865.0, 3542985.0 ], [ 362835.0, 3542985.0 ], [ 362835.0, 3543015.0 ], [ 362805.0, 3543015.0 ], [ 362805.0, 3543075.0 ], [ 362775.0, 3543075.0 ], [ 362775.0, 3543135.0 ], [ 362745.0, 3543135.0 ], [ 362745.0, 3543165.0 ], [ 362715.0, 3543165.0 ], [ 362715.0, 3543225.0 ], [ 362685.0, 3543225.0 ], [ 362685.0, 3543255.0 ], [ 362655.0, 3543255.0 ], [ 362655.0, 3543315.0 ], [ 362625.0, 3543315.0 ], [ 362625.0, 3543375.0 ], [ 362595.0, 3543375.0 ], [ 362595.0, 3543405.0 ], [ 362565.0, 3543405.0 ], [ 362565.0, 3543465.0 ], [ 362535.0, 3543465.0 ], [ 362535.0, 3543525.0 ], [ 362505.0, 3543525.0 ], [ 362505.0, 3543555.0 ], [ 362475.0, 3543555.0 ], [ 362475.0, 3543615.0 ], [ 362445.0, 3543615.0 ], [ 362445.0, 3543675.0 ], [ 362415.0, 3543675.0 ], [ 362415.0, 3543705.0 ], [ 362385.0, 3543705.0 ], [ 362385.0, 3543765.0 ], [ 362355.0, 3543765.0 ], [ 362355.0, 3543825.0 ], [ 362325.0, 3543825.0 ], [ 362325.0, 3543855.0 ], [ 362295.0, 3543855.0 ], [ 362295.0, 3543915.0 ], [ 362265.0, 3543915.0 ], [ 362265.0, 3543975.0 ], [ 362235.0, 3543975.0 ] ] ] } },
{ "type": "Feature", "properties": { "type": 2 }, "geometry": { "type": "Polygon", "coordinates": [ [ [ 362235.0, 3544125.0 ], [ 362235.0, 3543975.0 ], [ 362265.0, 3543975.0 ], [ 362265.0, 3543915.0 ], [ 362295.0, 3543915.0 ], [ 362295.0, 3543855.0 ], [ 362325.0, 3543855.0 ], [ 362325.0, 3543825.0 ], [ 362355.0, 3543825.0 ], [ 362355.0, 3543765.0 ], [ 362385.0, 3543765.0 ], [ 362385.0, 3543705.0 ], [ 362415.0, 3543705.0 ], [ 362415.0, 3543675.0 ], [ 362445.0, 3543675.0 ], [ 362445.0, 3543615.0 ], [ 362475.0, 3543615.0 ], [ 362475.0, 3543555.0 ], [ 362505.0, 3543555.0 ], [ 362505.0, 3543525.0 ], [ 362535.0, 3543525.0 ], [ 362535.0, 3543465.0 ], [ 362565.0, 3543465.0 ], [ 362565.0, 3543405.0 ], [ 362595.0, 3543405.0 ], [ 362595.0, 3543375.0 ], [ 362625.0, 3543375.0 ], [ 362625.0, 3543315.0 ], [ 362655.0, 3543315.0 ], [ 362655.0, 3543255.0 ], [ 362685.0, 3543255.0 ], [ 362685.0, 3543225.0 ], [ 362715.0, 3543225.0 ], [ 362715.0, 3543165.0 ], [ 362745.0, 3543165.0 ], [ 362745.0, 3543135.0 ], [ 362775.0, 3543135.0 ], [ 362775.0, 3543075.0 ], [ 362805.0, 3543075.0 ], [ 362805.0, 3543015.0 ], [ 362835.0, 3543015.0 ], [ 362835.0, 3542985.0 ], [ 362865.0, 3542985.0 ], [ 362865.0, 3542925.0 ], [ 362895.0, 3542925.0 ], [ 362895.0, 3542895.0 ], [ 362925.0, 3542895.0 ], [ 362925.0, 3542835.0 ], [ 362955.0, 3542835.0 ], [ 362955.0, 3542805.0 ], [ 362985.0, 3542805.0 ], [ 362985.0, 3542745.0 ], [ 363015.0, 3542745.0 ], [ 363015.0, 3542655.0 ], [ 363045.0, 3542655.0 ], [ 363045.0, 3542505.0 ], [ 363075.0, 3542505.0 ], [ 363075.0, 3542325.0 ], [ 363165.0, 3542325.0 ], [ 363165.0, 3542385.0 ], [ 363195.0, 3542385.0 ], [ 363195.0, 3542415.0 ], [ 363345.0, 3542415.0 ], [ 363345.0, 3542385.0 ], [ 363375.0, 3542385.0 ], [ 363375.0, 3542325.0 ], [ 363405.0, 3542325.0 ], [ 363405.0, 3542235.0 ], [ 363435.0, 3542235.0 ], [ 363435.0, 3542145.0 ], [ 363465.0, 3542145.0 ], [ 363465.0, 3542085.0 ], [ 363495.0, 3542085.0 ], [ 363495.0, 3542025.0 ], [ 363525.0, 3542025.0 ], [ 363525.0, 3541965.0 ], [ 363585.0, 3541965.0 ], [ 363585.0, 3541845.0 ], [ 363555.0, 3541845.0 ], [ 363555.0, 3541755.0 ], [ 363525.0, 3541755.0 ], [ 363525.0, 3541695.0 ], [ 363495.0, 3541695.0 ], [ 363495.0, 3541575.0 ], [ 363465.0, 3541575.0 ], [ 363465.0, 3541335.0 ], [ 363495.0, 3541335.0 ], [ 363495.0, 3541365.0 ], [ 363525.0, 3541365.0 ], [ 363525.0, 3541305.0 ], [ 363495.0, 3541305.0 ], [ 363495.0, 3541275.0 ], [ 363435.0, 3541275.0 ], [ 363435.0, 3541125.0 ], [ 363465.0, 3541125.0 ], [ 363465.0, 3541005.0 ], [ 365355.0, 3541005.0 ], [ 365355.0, 3541365.0 ], [ 365325.0, 3541365.0 ], [ 365325.0, 3541395.0 ], [ 365295.0, 3541395.0 ], [ 365295.0, 3541815.0 ], [ 365325.0, 3541815.0 ], [ 365325.0, 3541905.0 ], [ 365355.0, 3541905.0 ], [ 365355.0, 3542265.0 ], [ 365325.0, 3542265.0 ], [ 365325.0, 3542385.0 ], [ 365355.0, 3542385.0 ], [ 365355.0, 3542475.0 ], [ 365325.0, 3542475.0 ], [ 365325.0, 3542505.0 ], [ 365295.0, 3542505.0 ], [ 365295.0, 3542535.0 ], [ 365265.0, 3542535.0 ], [ 365265.0, 3542565.0 ], [ 365235.0, 3542565.0 ], [ 365235.0, 3542595.0 ], [ 365325.0, 3542595.0 ], [ 365325.0, 3542625.0 ], [ 365355.0, 3542625.0 ], [ 365355.0, 3542685.0 ], [ 365325.0, 3542685.0 ], [ 365325.0, 3542715.0 ], [ 365235.0, 3542715.0 ], [ 365235.0, 3542805.0 ], [ 365175.0, 3542805.0 ], [ 365175.0, 3542895.0 ], [ 365355.0, 3542895.0 ], [ 365355.0, 3542985.0 ], [ 365325.0, 3542985.0 ], [ 365325.0, 3543015.0 ], [ 365145.0, 3543015.0 ], [ 365145.0, 3543045.0 ], [ 365205.0, 3543045.0 ], [ 365205.0, 3543255.0 ], [ 365145.0, 3543255.0 ], [ 365145.0, 3543315.0 ], [ 365205.0, 3543315.0 ], [ 365205.0, 3543435.0 ], [ 365295.0, 3543435.0 ], [ 365295.0, 3543465.0 ], [ 365355.0, 3543465.0 ], [ 365355.0, 3543645.0 ], [ 365235.0, 3543645.0 ], [ 365235.0, 3543675.0 ], [ 365145.0, 3543675.0 ], [ 365145.0, 3543735.0 ], [ 365175.0, 3543735.0 ], [ 365175.0, 3543795.0 ], [ 365235.0, 3543795.0 ], [ 365235.0, 3543825.0 ], [ 365265.0, 3543825.0 ], [ 365265.0, 3543855.0 ], [ 365235.0, 3543855.0 ], [ 365235.0, 3543915.0 ], [ 365205.0, 3543915.0 ], [ 365205.0, 3543945.0 ], [ 365175.0, 3543945.0 ], [ 365175.0, 3543885.0 ], [ 365145.0, 3543885.0 ], [ 365145.0, 3543855.0 ], [ 365115.0, 3543855.0 ], [ 365115.0, 3543795.0 ], [ 365085.0, 3543795.0 ], [ 365085.0, 3543765.0 ], [ 365025.0, 3543765.0 ], [ 365025.0, 3543795.0 ], [ 364965.0, 3543795.0 ], [ 364965.0, 3543825.0 ], [ 364935.0, 3543825.0 ], [ 364935.0, 3543855.0 ], [ 364875.0, 3543855.0 ], [ 364875.0, 3543915.0 ], [ 364935.0, 3543915.0 ], [ 364935.0, 3543945.0 ], [ 364965.0, 3543945.0 ], [ 364965.0, 3543975.0 ], [ 364995.0, 3543975.0 ], [ 364995.0, 3544005.0 ], [ 364965.0, 3544005.0 ], [ 364965.0, 3544035.0 ], [ 364935.0, 3544035.0 ], [ 364935.0, 3544065.0 ], [ 364905.0, 3544065.0 ], [ 364905.0, 3544095.0 ], [ 364875.0, 3544095.0 ], [ 364875.0, 3544125.0 ], [ 364125.0, 3544125.0 ], [ 364125.0, 3544095.0 ], [ 364065.0, 3544095.0 ], [ 364065.0, 3544065.0 ], [ 364005.0, 3544065.0 ], [ 364005.0, 3544035.0 ], [ 363945.0, 3544035.0 ], [ 363945.0, 3544005.0 ], [ 363915.0, 3544005.0 ], [ 363915.0, 3543975.0 ], [ 363855.0, 3543975.0 ], [ 363855.0, 3544005.0 ], [ 363885.0, 3544005.0 ], [ 363885.0, 3544095.0 ], [ 363915.0, 3544095.0 ], [ 363915.0, 3544125.0 ], [ 362235.0, 3544125.0 ] ] ] } }
]
}
