{
"type": "FeatureCollection",
"name": "mask1_1987_rot270",
"crs": { "type": "name", "properties": { "name": "urn:ogc:def:crs:EPSG::32630" } },
"features": [
{ "type": "Feature", "properties": { "type": 1 }, "geometry": { "type": "Polygon", "coordinates": [ [ [ 314445.0, 3510015.0 ], [ 314445.0, 3509895.0 ], [ 314505.0, 3509895.0 ], [ 314505.0, 3510015.0 ], [ 314445.0, 3510015.0 ] ] ] } },
{ "type": "Feature", "properties": { "type": 4 }, "geometry": { "type": "Polygon", "coordinates": [ [ [ 314745.0, 3510075.0 ], [ 314745.0, 3510045.0 ], [ 314715.0, 3510045.0 ], [ 314715.0, 3510015.0 ], [ 314655.0, 3510015.0 ], [ 314655.0, 3509985.0 ], [ 314595.0, 3509985.0 ], [ 314595.0, 3509925.0 ], [ 314625.0, 3509925.0 ], [ 314625.0, 3509955.0 ], [ 314685.0, 3509955.0 ], [ 314685.0, 3509985.0 ], [ 314745.0, 3509985.0 ], [ 314745.0, 3509865.0 ], [ 314805.0, 3509865.0 ], [ 314805.0, 3509925.0 ], [ 314835.0, 3509925.0 ], [ 314835.0, 3510015.0 ], [ 314805.0, 3510015.0 ], [ 314805.0, 3510045.0 ], [ 314835.0, 3510045.0 ], [ 314835.0, 3510075.0 ], [ 314745.0, 3510075.0 ] ] ] } },
{ "type": "Feature", "properties": { "type": 4 }, "geometry": { "type": "Polygon", "coordinates": [ [ [ 314715.0, 3509865.0 ], [ 314715.0, 3509835.0 ], [ 314745.0, 3509835.0 ], [ 314745.0, 3509865.0 ], [ 314715.0, 3509865.0 ] ] ] } },
{ "type": "Feature", "properties": { "type": 1 }, "geometry": { "type": "Polygon", "coordinates": [ [ [ 316635.0, 3510075.0 ], [ 316635.0, 3509985.0 ], [ 316605.0, 3509985.0 ], [ 316605.0, 3509775.0 ], [ 316665.0, 3509775.0 ], [ 316665.0, 3509835.0 ], [ 316695.0, 3509835.0 ], [ 316695.0, 3509895.0 ], [ 316725.0, 3509895.0 ], [ 316725.0, 3510015.0 ], [ 316755.0, 3510015.0 ], [ 316755.0, 3510075.0 ], [ 316635.0, 3510075.0 ] ] ] } },
{ "type": "Feature", "properties": { "type": 4 }, "geometry": { "type": "Polygon", "coordinates": [ [ [ 314535.0, 3509865.0 ], [ 314535.0, 3509745.0 ], [ 314655.0, 3509745.0 ], [ 314655.0, 3509865.0 ], [ 314535.0, 3509865.0 ] ] ] } },
{ "type": "Feature", "properties": { "type": 1 }, "geometry": { "type": "Polygon", "coordinates": [ [ [ 315795.0, 3510075.0 ], [ 315795.0, 3510045.0 ], [ 315825.0, 3510045.0 ], [ 315825.0, 3509925.0 ], [ 315795.0, 3509925.0 ], [ 315795.0, 3509805.0 ], [ 315915.0, 3509805.0 ], [ 315915.0, 3509865.0 ], [ 316035.0, 3509865.0 ], [ 316035.0, 3509895.0 ], [ 316125.0, 3509895.0 ], [ 316125.0, 3509925.0 ], [ 316215.0, 3509925.0 ], [ 316215.0, 3509985.0 ], [ 316275.0, 3509985.0 ], [ 316275.0, 3510015.0 ], [ 316305.0, 3510015.0 ], [ 316305.0, 3509985.0 ], [ 316335.0, 3509985.0 ], [ 316335.0, 3510045.0 ], [ 316455.0, 3510045.0 ], [ 316455.0, 3509985.0 ], [ 316515.0, 3509985.0 ], [ 316515.0, 3509925.0 ], [ 316485.0, 3509925.0 ], [ 316485.0, 3509865.0 ], [ 316425.0, 3509865.0 ], [ 316425.0, 3509835.0 ], [ 316275.0, 3509835.0 ], [ 316275.0, 3509865.0 ], [ 316095.0, 3509865.0 ], [ 316095.0, 3509835.0 ], [ 316065.0, 3509835.0 ], [ 316065.0, 3509805.0 ], [ 316035.0, 3509805.0 ], [ 316035.0, 3509775.0 ], [ 316005.0, 3509775.0 ], [ 316005.0, 3509745.0 ], [ 316035.0, 3509745.0 ], [ 316035.0, 3509715.0 ], [ 316155.0, 3509715.0 ], [ 316155.0, 3509685.0 ], [ 316305.0, 3509685.0 ], [ 316305.0, 3509715.0 ], [ 316425.0, 3509715.0 ], [ 316425.0, 3509745.0 ], [ 316455.0, 3509745.0 ], [ 316455.0, 3509775.0 ], [ 316485.0, 3509775.0 ], [ 316485.0, 3509805.0 ], [ 316515.0, 3509805.0 ], [ 316515.0, 3509835.0 ], [ 316545.0, 3509835.0 ], [ 316545.0, 3509925.0 ], [ 316575.0, 3509925.0 ], [ 316575.0, 3510045.0 ], [ 316605.0, 3510045.0 ], [ 316605.0, 3510075.0 ], [ 315795.0, 3510075.0 ] ] ] } },
{ "type": "Feature", "properties": { "type": 1 }, "geometry": { "type": "Polygon", "coordinates": [ [ [ 314895.0, 3510075.0 ], [ 314895.0, 3509985.0 ], [ 314865.0, 3509985.0 ], [ 314865.0, 3509925.0 ], [ 314985.0, 3509925.0 ], [ 314985.0, 3509865.0 ], [ 315075.0, 3509865.0 ], [ 315075.0, 3509775.0 ], [ 315135.0, 3509775.0 ], [ 315135.0, 3509715.0 ], [ 315225.0, 3509715.0 ], [ 315225.0, 3509625.0 ], [ 315255.0, 3509625.0 ], [ 315255.0, 3509775.0 ], [ 315375.0, 3509775.0 ], [ 315375.0, 3509715.0 ], [ 315435.0, 3509715.0 ], [ 315435.0, 3509685.0 ], [ 315405.0, 3509685.0 ], [ 315405.0, 3509625.0 ], [ 315495.0, 3509625.0 ], [ 315495.0, 3509715.0 ], [ 315465.0, 3509715.0 ], [ 315465.0, 3509745.0 ], [ 315495.0, 3509745.0 ], [ 315495.0, 3509775.0 ], [ 315525.0, 3509775.0 ], [ 315525.0, 3509685.0 ], [ 315555.0, 3509685.0 ], [ 315555.0, 3509745.0 ], [ 315615.0, 3509745.0 ], [ 315615.0, 3509655.0 ], [ 315645.0, 3509655.0 ], [ 315645.0, 3509625.0 ], [ 315675.0, 3509625.0 ], [ 315675.0, 3509865.0 ], [ 315705.0, 3509865.0 ], [ 315705.0, 3509955.0 ], [ 315735.0, 3509955.0 ], [ 315735.0, 3510075.0 ], [ 314895.0, 3510075.0 ] ] ] } },
{ "type": "Feature", "properties": { "type": 1 }, "geometry": { "type": "Polygon", "coordinates": [ [ [ 315345.0, 3509595.0 ], [ 315345.0, 3509535.0 ], [ 315375.0, 3509535.0 ], [ 315375.0, 3509565.0 ], [ 315435.0, 3509565.0 ], [ 315435.0, 3509595.0 ], [ 315345.0, 3509595.0 ] ] ] } },
{ "type": "Feature", "properties": { "type": 4 }, "geometry": { "type": "Polygon", "coordinates": [ [ [ 315765.0, 3509745.0 ], [ 315765.0, 3509715.0 ], [ 315735.0, 3509715.0 ], [ 315735.0, 3509685.0 ], [ 315705.0, 3509685.0 ], [ 315705.0, 3509595.0 ], [ 315735.0, 3509595.0 ], [ 315735.0, 3509535.0 ], [ 315765.0, 3509535.0 ], [ 315765.0, 3509505.0 ], [ 315795.0, 3509505.0 ], [ 315795.0, 3509625.0 ], [ 315825.0, 3509625.0 ], [ 315825.0, 3509685.0 ], [ 315855.0, 3509685.0 ], [ 315855.0, 3509745.0 ], [ 315765.0, 3509745.0 ] ] ] } },
{ "type": "Feature", "properties": { "type": 1 }, "geometry": { "type": "Polygon", "coordinates": [ [ [ 315225.0, 3509565.0 ], [ 315225.0, 3509505.0 ], [ 315255.0, 3509505.0 ], [ 315255.0, 3509565.0 ], [ 315225.0, 3509565.0 ] ] ] } },
{ "type": "Feature", "properties": { "type": 1 }, "geometry": { "type": "Polygon", "coordinates": [ [ [ 315975.0, 3509625.0 ], [ 315975.0, 3509595.0 ], [ 315945.0, 3509595.0 ], [ 315945.0, 3509565.0 ], [ 315915.0, 3509565.0 ], [ 315915.0, 3509415.0 ], [ 315885.0, 3509415.0 ], [ 315885.0, 3509205.0 ], [ 315915.0, 3509205.0 ], [ 315915.0, 3509265.0 ], [ 315945.0, 3509265.0 ], [ 315945.0, 3509325.0 ], [ 315975.0, 3509325.0 ], [ 315975.0, 3509355.0 ], [ 316005.0, 3509355.0 ], [ 316005.0, 3509385.0 ], [ 316035.0, 3509385.0 ], [ 316035.0, 3509445.0 ], [ 316095.0, 3509445.0 ], [ 316095.0, 3509475.0 ], [ 316125.0, 3509475.0 ], [ 316125.0, 3509565.0 ], [ 316185.0, 3509565.0 ], [ 316185.0, 3509595.0 ], [ 316245.0, 3509595.0 ], [ 316245.0, 3509625.0 ], [ 315975.0, 3509625.0 ] ] ] } },
{ "type": "Feature", "properties": { "type": 5 }, "geometry": { "type": "Polygon", "coordinates": [ [ [ 314985.0, 3509235.0 ], [ 314985.0, 3509205.0 ], [ 314955.0, 3509205.0 ], [ 314955.0, 3509175.0 ], [ 314925.0, 3509175.0 ], [ 314925.0, 3509085.0 ], [ 314955.0, 3509085.0 ], [ 314955.0, 3508995.0 ], [ 315045.0, 3508995.0 ], [ 315045.0, 3509085.0 ], [ 315075.0, 3509085.0 ], [ 315075.0, 3509115.0 ], [ 315105.0, 3509115.0 ], [ 315105.0, 3509145.0 ], [ 315075.0, 3509145.0 ], [ 315075.0, 3509175.0 ], [ 315045.0, 3509175.0 ], [ 315045.0, 3509235.0 ], [ 314985.0, 3509235.0 ] ] ] } },
{ "type": "Feature", "properties": { "type": 1 }, "geometry": { "type": "Polygon", "coordinates": [ [ [ 315555.0, 3508905.0 ], [ 315555.0, 3508845.0 ], [ 315585.0, 3508845.0 ], [ 315585.0, 3508905.0 ], [ 315555.0, 3508905.0 ] ] ] } },
{ "type": "Feature", "properties": { "type": 5 }, "geometry": { "type": "Polygon", "coordinates": [ [ [ 315555.0, 3508965.0 ], [ 315555.0, 3508935.0 ], [ 315525.0, 3508935.0 ], [ 315525.0, 3508905.0 ], [ 315495.0, 3508905.0 ], [ 315495.0, 3508845.0 ], [ 315465.0, 3508845.0 ], [ 315465.0, 3508695.0 ], [ 315435.0, 3508695.0 ], [ 315435.0, 3508605.0 ], [ 315465.0, 3508605.0 ], [ 315465.0, 3508575.0 ], [ 315525.0, 3508575.0 ], [ 315525.0, 3508635.0 ], [ 315555.0, 3508635.0 ], [ 315555.0, 3508665.0 ], [ 315585.0, 3508665.0 ], [ 315585.0, 3508755.0 ], [ 315615.0, 3508755.0 ], [ 315615.0, 3508785.0 ], [ 315585.0, 3508785.0 ], [ 315585.0, 3508815.0 ], [ 315645.0, 3508815.0 ], [ 315645.0, 3508905.0 ], [ 315615.0, 3508905.0 ], [ 315615.0, 3508935.0 ], [ 315585.0, 3508935.0 ], [ 315585.0, 3508965.0 ], [ 315555.0, 3508965.0 ] ], [ [ 315555.0, 3508905.0 ], [ 315585.0, 3508905.0 ], [ 315585.0, 3508845.0 ], [ 315555.0, 3508845.0 ], [ 315555.0, 3508905.0 ] ] ] } },
{ "type": "Feature", "properties": { "type": 2 }, "geometry": { "type": "Polygon", "coordinates": [ [ [ 315255.0, 3508965.0 ], [ 315255.0, 3508875.0 ], [ 315225.0, 3508875.0 ], [ 315225.0, 3508695.0 ], [ 315255.0, 3508695.0 ], [ 315255.0, 3508485.0 ], [ 315285.0, 3508485.0 ], [ 315285.0, 3508965.0 ], [ 315255.0, 3508965.0 ] ] ] } },
{ "type": "Feature", "properties": { "type": 5 }, "geometry": { "type": "Polygon", "coordinates": [ [ [ 315285.0, 3508695.0 ], [ 315285.0, 3508485.0 ], [ 315315.0, 3508485.0 ], [ 315315.0, 3508425.0 ], [ 315345.0, 3508425.0 ], [ 315345.0, 3508545.0 ], [ 315315.0, 3508545.0 ], [ 315315.0, 3508695.0 ], [ 315285.0, 3508695.0 ] ] ] } },
{ "type": "Feature", "properties": { "type": 2 }, "geometry": { "type": "Polygon", "coordinates": [ [ [ 315285.0, 3508485.0 ], [ 315285.0, 3508395.0 ], [ 315315.0, 3508395.0 ], [ 315315.0, 3508365.0 ], [ 315345.0, 3508365.0 ], [ 315345.0, 3508425.0 ], [ 315315.0, 3508425.0 ], [ 315315.0, 3508485.0 ], [ 315285.0, 3508485.0 ] ] ] } },
{ "type": "Feature", "properties": { "type": 5 }, "geometry": { "type": "Polygon", "coordinates": [ [ [ 314085.0, 3510075.0 ], [ 314085.0, 3509595.0 ], [ 314115.0, 3509595.0 ], [ 314115.0, 3509535.0 ], [ 314145.0, 3509535.0 ], [ 314145.0, 3509565.0 ], [ 314175.0, 3509565.0 ], [ 314175.0, 3509595.0 ], [ 314205.0, 3509595.0 ], [ 314205.0, 3509625.0 ], [ 314265.0, 3509625.0 ], [ 314265.0, 3509655.0 ], [ 314295.0, 3509655.0 ], [ 314295.0, 3509685.0 ], [ 314355.0, 3509685.0 ], [ 314355.0, 3509655.0 ], [ 314385.0, 3509655.0 ], [ 314385.0, 3509685.0 ], [ 314445.0, 3509685.0 ], [ 314445.0, 3509655.0 ], [ 314475.0, 3509655.0 ], [ 314475.0, 3509625.0 ], [ 314565.0, 3509625.0 ], [ 314565.0, 3509595.0 ], [ 314595.0, 3509595.0 ], [ 314595.0, 3509475.0 ], [ 314685.0, 3509475.0 ], [ 314685.0, 3509415.0 ], [ 314745.0, 3509415.0 ], [ 314745.0, 3509445.0 ], [ 314775.0, 3509445.0 ], [ 314775.0, 3509475.0 ], [ 314805.0, 3509475.0 ], [ 314805.0, 3509385.0 ], [ 314925.0, 3509385.0 ], [ 314925.0, 3509355.0 ], [ 315015.0, 3509355.0 ], [ 315015.0, 3509325.0 ], [ 315075.0, 3509325.0 ], [ 315075.0, 3509295.0 ], [ 315105.0, 3509295.0 ], [ 315105.0, 3509325.0 ], [ 315135.0, 3509325.0 ], [ 315135.0, 3509385.0 ], [ 315195.0, 3509385.0 ], [ 315195.0, 3509295.0 ], [ 315165.0, 3509295.0 ], [ 315165.0, 3509235.0 ], [ 315225.0, 3509235.0 ], [ 315225.0, 3509265.0 ], [ 315285.0, 3509265.0 ], [ 315285.0, 3509295.0 ], [ 315345.0, 3509295.0 ], [ 315345.0, 3509325.0 ], [ 315405.0, 3509325.0 ], [ 315405.0, 3509355.0 ], [ 315465.0, 3509355.0 ], [ 315465.0, 3509385.0 ], [ 315555.0, 3509385.0 ], [ 315555.0, 3509415.0 ], [ 315585.0, 3509415.0 ], [ 315585.0, 3509445.0 ], [ 315615.0, 3509445.0 ], [ 315615.0, 3509475.0 ], [ 315795.0, 3509475.0 ], [ 315795.0, 3509265.0 ], [ 315765.0, 3509265.0 ], [ 315765.0, 3509235.0 ], [ 315675.0, 3509235.0 ], [ 315675.0, 3509205.0 ], [ 315585.0, 3509205.0 ], [ 315585.0, 3509175.0 ], [ 315525.0, 3509175.0 ], [ 315525.0, 3509145.0 ], [ 315465.0, 3509145.0 ], [ 315465.0, 3509115.0 ], [ 315435.0, 3509115.0 ], [ 315435.0, 3509085.0 ], [ 315375.0, 3509085.0 ], [ 315375.0, 3509055.0 ], [ 315345.0, 3509055.0 ], [ 315345.0, 3509025.0 ], [ 315315.0, 3509025.0 ], [ 315315.0, 3508995.0 ], [ 315285.0, 3508995.0 ], [ 315285.0, 3508725.0 ], [ 315375.0, 3508725.0 ], [ 315375.0, 3508755.0 ], [ 315405.0, 3508755.0 ], [ 315405.0, 3508905.0 ], [ 315435.0, 3508905.0 ], [ 315435.0, 3508965.0 ], [ 315495.0, 3508965.0 ], [ 315495.0, 3508995.0 ], [ 315525.0, 3508995.0 ], [ 315525.0, 3509055.0 ], [ 315555.0, 3509055.0 ], [ 315555.0, 3509115.0 ], [ 315585.0, 3509115.0 ], [ 315585.0, 3509145.0 ], [ 315645.0, 3509145.0 ], [ 315645.0, 3509175.0 ], [ 315735.0, 3509175.0 ], [ 315735.0, 3509115.0 ], [ 315705.0, 3509115.0 ], [ 315705.0, 3509055.0 ], [ 315675.0, 3509055.0 ], [ 315675.0, 3509025.0 ], [ 315615.0, 3509025.0 ], [ 315615.0, 3508965.0 ], [ 315735.0, 3508965.0 ], [ 315735.0, 3508845.0 ], [ 315765.0, 3508845.0 ], [ 315765.0, 3508785.0 ], [ 315795.0, 3508785.0 ], [ 315795.0, 3508695.0 ], [ 315765.0, 3508695.0 ], [ 315765.0, 3508575.0 ], [ 315735.0, 3508575.0 ], [ 315735.0, 3508515.0 ], [ 315645.0, 3508515.0 ], [ 315645.0, 3508425.0 ], [ 315615.0, 3508425.0 ], [ 315615.0, 3508395.0 ], [ 315585.0, 3508395.0 ], [ 315585.0, 3508365.0 ], [ 315735.0, 3508365.0 ], [ 315735.0, 3508485.0 ], [ 315795.0, 3508485.0 ], [ 315795.0, 3508425.0 ], [ 315825.0, 3508425.0 ], [ 315825.0, 3508725.0 ], [ 315855.0, 3508725.0 ], [ 315855.0, 3509025.0 ], [ 315885.0, 3509025.0 ], [ 315885.0, 3509415.0 ], [ 315915.0, 3509415.0 ], [ 315915.0, 3509565.0 ], [ 315945.0, 3509565.0 ], [ 315945.0, 3509595.0 ], [ 315975.0, 3509595.0 ], [ 315975.0, 3509625.0 ], [ 316245.0, 3509625.0 ], [ 316245.0, 3509595.0 ], [ 316185.0, 3509595.0 ], [ 316185.0, 3509565.0 ], [ 316125.0, 3509565.0 ], [ 316125.0, 3509475.0 ], [ 316095.0, 3509475.0 ], [ 316095.0, 3509445.0 ], [ 316035.0, 3509445.0 ], [ 316035.0, 3509385.0 ], [ 316005.0, 3509385.0 ], [ 316005.0, 3509355.0 ], [ 315975.0, 3509355.0 ], [ 315975.0, 3509325.0 ], [ 315945.0, 3509325.0 ], [ 315945.0, 3509265.0 ], [ 315915.0, 3509265.0 ], [ 315915.0, 3509205.0 ], [ 315945.0, 3509205.0 ], [ 315945.0, 3509235.0 ], [ 315975.0, 3509235.0 ], [ 315975.0, 3509265.0 ], [ 316005.0, 3509265.0 ], [ 316005.0, 3509295.0 ], [ 316035.0, 3509295.0 ], [ 316035.0, 3509325.0 ], [ 316065.0, 3509325.0 ], [ 316065.0, 3509355.0 ], [ 316095.0, 3509355.0 ], [ 316095.0, 3509385.0 ], [ 316125.0, 3509385.0 ], [ 316125.0, 3509415.0 ], [ 316155.0, 3509415.0 ], [ 316155.0, 3509445.0 ], [ 316185.0, 3509445.0 ], [ 316185.0, 3509475.0 ], [ 316245.0, 3509475.0 ], [ 316245.0, 3509535.0 ], [ 316275.0, 3509535.0 ], [ 316275.0, 3509595.0 ], [ 316395.0, 3509595.0 ], [ 316395.0, 3509625.0 ], [ 316455.0, 3509625.0 ], [ 316455.0, 3509655.0 ], [ 316515.0, 3509655.0 ], [ 316515.0, 3509685.0 ], [ 316545.0, 3509685.0 ], [ 316545.0, 3509715.0 ], [ 316575.0, 3509715.0 ], [ 316575.0, 3509745.0 ], [ 316845.0, 3509745.0 ], [ 316845.0, 3509775.0 ], [ 316905.0, 3509775.0 ], [ 316905.0, 3509805.0 ], [ 316965.0, 3509805.0 ], [ 316965.0, 3509835.0 ], [ 317025.0, 3509835.0 ], [ 317025.0, 3509865.0 ], [ 317085.0, 3509865.0 ], [ 317085.0, 3509895.0 ], [ 317115.0, 3509895.0 ], [ 317115.0, 3509925.0 ], [ 317175.0, 3509925.0 ], [ 317175.0, 3509955.0 ], [ 317205.0, 3509955.0 ], [ 317205.0, 3510075.0 ], [ 316755.0, 3510075.0 ], [ 316755.0, 3510015.0 ], [ 316725.0, 3510015.0 ], [ 316725.0, 3509895.0 ], [ 316695.0, 3509895.0 ], [ 316695.0, 3509835.0 ], [ 316665.0, 3509835.0 ], [ 316665.0, 3509775.0 ], [ 316605.0, 3509775.0 ], [ 316605.0, 3509985.0 ], [ 316635.0, 3509985.0 ], [ 316635.0, 3510075.0 ], [ 316605.0, 3510075.0 ], [ 316605.0, 3510045.0 ], [ 316575.0, 3510045.0 ], [ 316575.0, 3509925.0 ], [ 316545.0, 3509925.0 ], [ 316545.0, 3509835.0 ], [ 316515.0, 3509835.0 ], [ 316515.0, 3509805.0 ], [ 316485.0, 3509805.0 ], [ 316485.0, 3509775.0 ], [ 316455.0, 3509775.0 ], [ 316455.0, 3509745.0 ], [ 316425.0, 3509745.0 ], [ 316425.0, 3509715.0 ], [ 316305.0, 3509715.0 ], [ 316305.0, 3509685.0 ], [ 316155.0, 3509685.0 ], [ 316155.0, 3509715.0 ], [ 316035.0, 3509715.0 ], [ 316035.0, 3509745.0 ], [ 316005.0, 3509745.0 ], [ 316005.0, 3509775.0 ], [ 316035.0, 3509775.0 ], [ 316035.0, 3509805.0 ], [ 316065.0, 3509805.0 ], [ 316065.0, 3509835.0 ], [ 316095.0, 3509835.0 ], [ 316095.0, 3509865.0 ], [ 316275.0, 3509865.0 ], [ 316275.0, 3509835.0 ], [ 316425.0, 3509835.0 ], [ 316425.0, 3509865.0 ], [ 316485.0, 3509865.0 ], [ 316485.0, 3509925.0 ], [ 316515.0, 3509925.0 ], [ 316515.0, 3509985.0 ], [ 316455.0, 3509985.0 ], [ 316455.0, 3510045.0 ], [ 316335.0, 3510045.0 ], [ 316335.0, 3509985.0 ], [ 316305.0, 3509985.0 ], [ 316305.0, 3510015.0 ], [ 316275.0, 3510015.0 ], [ 316275.0, 3509985.0 ], [ 316215.0, 3509985.0 ], [ 316215.0, 3509925.0 ], [ 316125.0, 3509925.0 ], [ 316125.0, 3509895.0 ], [ 316035.0, 3509895.0 ], [ 316035.0, 3509865.0 ], [ 315915.0, 3509865.0 ], [ 315915.0, 3509805.0 ], [ 315795.0, 3509805.0 ], [ 315795.0, 3509925.0 ], [ 315825.0, 3509925.0 ], [ 315825.0, 3510045.0 ], [ 315795.0, 3510045.0 ], [ 315795.0, 3510075.0 ], [ 315735.0, 3510075.0 ], [ 315735.0, 3509955.0 ], [ 315705.0, 3509955.0 ], [ 315705.0, 3509865.0 ], [ 315675.0, 3509865.0 ], [ 315675.0, 3509625.0 ], [ 315645.0, 3509625.0 ], [ 315645.0, 3509655.0 ], [ 315615.0, 3509655.0 ], [ 315615.0, 3509745.0 ], [ 315555.0, 3509745.0 ], [ 315555.0, 3509685.0 ], [ 315525.0, 3509685.0 ], [ 315525.0, 3509775.0 ], [ 315495.0, 3509775.0 ], [ 315495.0, 3509745.0 ], [ 315465.0, 3509745.0 ], [ 315465.0, 3509715.0 ], [ 315495.0, 3509715.0 ], [ 315495.0, 3509625.0 ], [ 315405.0, 3509625.0 ], [ 315405.0, 3509685.0 ], [ 315435.0, 3509685.0 ], [ 315435.0, 3509715.0 ], [ 315375.0, 3509715.0 ], [ 315375.0, 3509775.0 ], [ 315255.0, 3509775.0 ], [ 315255.0, 3509625.0 ], [ 315225.0, 3509625.0 ], [ 315225.0, 3509715.0 ], [ 315135.0, 3509715.0 ], [ 315135.0, 3509775.0 ], [ 315075.0, 3509775.0 ], [ 315075.0, 3509865.0 ], [ 314985.0, 3509865.0 ], [ 314985.0, 3509925.0 ], [ 314865.0, 3509925.0 ], [ 314865.0, 3509985.0 ], [ 314895.0, 3509985.0 ], [ 314895.0, 3510075.0 ], [ 314835.0, 3510075.0 ], [ 314835.0, 3510045.0 ], [ 314805.0, 3510045.0 ], [ 314805.0, 3510015.0 ], [ 314835.0, 3510015.0 ], [ 314835.0, 3509925.0 ], [ 314805.0, 3509925.0 ], [ 314805.0, 3509865.0 ], [ 314745.0, 3509865.0 ], [ 314745.0, 3509985.0 ], [ 314685.0, 3509985.0 ], [ 314685.0, 3509955.0 ], [ 314625.0, 3509955.0 ], [ 314625.0, 3509925.0 ], [ 314595.0, 3509925.0 ], [ 314595.0, 3509985.0 ], [ 314655.0, 3509985.0 ], [ 314655.0, 3510015.0 ], [ 314715.0, 3510015.0 ], [ 314715.0, 3510045.0 ], [ 314745.0, 3510045.0 ], [ 314745.0, 3510075.0 ], [ 314085.0, 3510075.0 ] ], [ [ 314445.0, 3510015.0 ], [ 314505.0, 3510015.0 ], [ 314505.0, 3509895.0 ], [ 314445.0, 3509895.0 ], [ 314445.0, 3510015.0 ] ], [ [ 314535.0, 3509865.0 ], [ 314655.0, 3509865.0 ], [ 314655.0, 3509745.0 ], [ 314535.0, 3509745.0 ], [ 314535.0, 3509865.0 ] ], [ [ 314715.0, 3509865.0 ], [ 314745.0, 3509865.0 ], [ 314745.0, 3509835.0 ], [ 314715.0, 3509835.0 ], [ 314715.0, 3509865.0 ] ], [ [ 315765.0, 3509745.0 ], [ 315855.0, 3509745.0 ], [ 315855.0, 3509685.0 ], [ 315825.0, 3509685.0 ], [ 315825.0, 3509625.0 ], [ 315795.0, 3509625.0 ], [ 315795.0, 3509505.0 ], [ 315765.0, 3509505.0 ], [ 315765.0, 3509535.0 ], [ 315735.0, 3509535.0 ], [ 315735.0, 3509595.0 ], [ 315705.0, 3509595.0 ], [ 315705.0, 3509685.0 ], [ 315735.0, 3509685.0 ], [ 315735.0, 3509715.0 ], [ 315765.0, 3509715.0 ], [ 315765.0, 3509745.0 ] ], [ [ 315345.0, 3509595.0 ], [ 315435.0, 3509595.0 ], [ 315435.0, 3509565.0 ], [ 315375.0, 3509565.0 ], [ 315375.0, 3509535.0 ], [ 315345.0, 3509535.0 ], [ 315345.0, 3509595.0 ] ], [ [ 315225.0, 3509565.0 ], [ 315255.0, 3509565.0 ], [ 315255.0, 3509505.0 ], [ 315225.0, 3509505.0 ], [ 315225.0, 3509565.0 ] ] ] } },
{ "type": "Feature", "properties": { "type": 2 }, "geometry": { "type": "Polygon", "coordinates": [ [ [ 315345.0, 3508365.0 ], [ 315345.0, 3508215.0 ], [ 315405.0, 3508215.0 ], [ 315405.0, 3508245.0 ], [ 315375.0, 3508245.0 ], [ 315375.0, 3508365.0 ], [ 315345.0, 3508365.0 ] ] ] } },
{ "type": "Feature", "properties": { "type": 1 }, "geometry": { "type": "Polygon", "coordinates": [ [ [ 315645.0, 3509175.0 ], [ 315645.0, 3509145.0 ], [ 315585.0, 3509145.0 ], [ 315585.0, 3509115.0 ], [ 315555.0, 3509115.0 ], [ 315555.0, 3509055.0 ], [ 315525.0, 3509055.0 ], [ 315525.0, 3508995.0 ], [ 315495.0, 3508995.0 ], [ 315495.0, 3508965.0 ], [ 315435.0, 3508965.0 ], [ 315435.0, 3508905.0 ], [ 315405.0, 3508905.0 ], [ 315405.0, 3508755.0 ], [ 315375.0, 3508755.0 ], [ 315375.0, 3508725.0 ], [ 315285.0, 3508725.0 ], [ 315285.0, 3508695.0 ], [ 315315.0, 3508695.0 ], [ 315315.0, 3508545.0 ], [ 315345.0, 3508545.0 ], [ 315345.0, 3508425.0 ], [ 315375.0, 3508425.0 ], [ 315375.0, 3508395.0 ], [ 315405.0, 3508395.0 ], [ 315405.0, 3508365.0 ], [ 315435.0, 3508365.0 ], [ 315435.0, 3508305.0 ], [ 315465.0, 3508305.0 ], [ 315465.0, 3508275.0 ], [ 315495.0, 3508275.0 ], [ 315495.0, 3508185.0 ], [ 315525.0, 3508185.0 ], [ 315525.0, 3508125.0 ], [ 315585.0, 3508125.0 ], [ 315585.0, 3508185.0 ], [ 315675.0, 3508185.0 ], [ 315675.0, 3508125.0 ], [ 315765.0, 3508125.0 ], [ 315765.0, 3508155.0 ], [ 315795.0, 3508155.0 ], [ 315795.0, 3508485.0 ], [ 315735.0, 3508485.0 ], [ 315735.0, 3508365.0 ], [ 315585.0, 3508365.0 ], [ 315585.0, 3508395.0 ], [ 315615.0, 3508395.0 ], [ 315615.0, 3508425.0 ], [ 315645.0, 3508425.0 ], [ 315645.0, 3508515.0 ], [ 315735.0, 3508515.0 ], [ 315735.0, 3508575.0 ], [ 315765.0, 3508575.0 ], [ 315765.0, 3508695.0 ], [ 315795.0, 3508695.0 ], [ 315795.0, 3508785.0 ], [ 315765.0, 3508785.0 ], [ 315765.0, 3508845.0 ], [ 315735.0, 3508845.0 ], [ 315735.0, 3508965.0 ], [ 315615.0, 3508965.0 ], [ 315615.0, 3509025.0 ], [ 315675.0, 3509025.0 ], [ 315675.0, 3509055.0 ], [ 315705.0, 3509055.0 ], [ 315705.0, 3509115.0 ], [ 315735.0, 3509115.0 ], [ 315735.0, 3509175.0 ], [ 315645.0, 3509175.0 ] ], [ [ 315555.0, 3508965.0 ], [ 315585.0, 3508965.0 ], [ 315585.0, 3508935.0 ], [ 315615.0, 3508935.0 ], [ 315615.0, 3508905.0 ], [ 315645.0, 3508905.0 ], [ 315645.0, 3508815.0 ], [ 315585.0, 3508815.0 ], [ 315585.0, 3508785.0 ], [ 315615.0, 3508785.0 ], [ 315615.0, 3508755.0 ], [ 315585.0, 3508755.0 ], [ 315585.0, 3508665.0 ], [ 315555.0, 3508665.0 ], [ 315555.0, 3508635.0 ], [ 315525.0, 3508635.0 ], [ 315525.0, 3508575.0 ], [ 315465.0, 3508575.0 ], [ 315465.0, 3508605.0 ], [ 315435.0, 3508605.0 ], [ 315435.0, 3508695.0 ], [ 315465.0, 3508695.0 ], [ 315465.0, 3508845.0 ], [ 315495.0, 3508845.0 ], [ 315495.0, 3508905.0 ], [ 315525.0, 3508905.0 ], [ 315525.0, 3508935.0 ], [ 315555.0, 3508935.0 ], [ 315555.0, 3508965.0 ] ] ] } },
{ "type": "Feature", "properties": { "type": 5 }, "geometry": { "type": "Polygon", "coordinates": [ [ [ 314805.0, 3508545.0 ], [ 314805.0, 3508485.0 ], [ 314835.0, 3508485.0 ], [ 314835.0, 3508425.0 ], [ 314745.0, 3508425.0 ], [ 314745.0, 3508395.0 ], [ 314715.0, 3508395.0 ], [ 314715.0, 3508335.0 ], [ 314745.0, 3508335.0 ], [ 314745.0, 3508275.0 ], [ 314655.0, 3508275.0 ], [ 314655.0, 3508305.0 ], [ 314625.0, 3508305.0 ], [ 314625.0, 3508335.0 ], [ 314565.0, 3508335.0 ], [ 314565.0, 3508185.0 ], [ 314535.0, 3508185.0 ], [ 314535.0, 3508125.0 ], [ 314655.0, 3508125.0 ], [ 314655.0, 3508095.0 ], [ 314715.0, 3508095.0 ], [ 314715.0, 3508125.0 ], [ 314745.0, 3508125.0 ], [ 314745.0, 3508155.0 ], [ 314775.0, 3508155.0 ], [ 314775.0, 3508095.0 ], [ 314835.0, 3508095.0 ], [ 314835.0, 3508155.0 ], [ 314865.0, 3508155.0 ], [ 314865.0, 3508185.0 ], [ 314895.0, 3508185.0 ], [ 314895.0, 3508155.0 ], [ 314985.0, 3508155.0 ], [ 314985.0, 3508125.0 ], [ 315015.0, 3508125.0 ], [ 315015.0, 3508155.0 ], [ 315075.0, 3508155.0 ], [ 315075.0, 3508215.0 ], [ 315105.0, 3508215.0 ], [ 315105.0, 3508275.0 ], [ 315075.0, 3508275.0 ], [ 315075.0, 3508335.0 ], [ 314985.0, 3508335.0 ], [ 314985.0, 3508365.0 ], [ 315015.0, 3508365.0 ], [ 315015.0, 3508395.0 ], [ 315045.0, 3508395.0 ], [ 315045.0, 3508455.0 ], [ 314955.0, 3508455.0 ], [ 314955.0, 3508545.0 ], [ 314805.0, 3508545.0 ] ] ] } },
{ "type": "Feature", "properties": { "type": 1 }, "geometry": { "type": "Polygon", "coordinates": [ [ [ 315495.0, 3507885.0 ], [ 315495.0, 3507825.0 ], [ 315525.0, 3507825.0 ], [ 315525.0, 3507795.0 ], [ 315555.0, 3507795.0 ], [ 315555.0, 3507855.0 ], [ 315525.0, 3507855.0 ], [ 315525.0, 3507885.0 ], [ 315495.0, 3507885.0 ] ] ] } },
{ "type": "Feature", "properties": { "type": 5 }, "geometry": { "type": "Polygon", "coordinates": [ [ [ 314775.0, 3507945.0 ], [ 314775.0, 3507885.0 ], [ 314745.0, 3507885.0 ], [ 314745.0, 3507855.0 ], [ 314715.0, 3507855.0 ], [ 314715.0, 3507825.0 ], [ 314685.0, 3507825.0 ], [ 314685.0, 3507795.0 ], [ 314655.0, 3507795.0 ], [ 314655.0, 3507675.0 ], [ 314685.0, 3507675.0 ], [ 314685.0, 3507705.0 ], [ 314745.0, 3507705.0 ], [ 314745.0, 3507795.0 ], [ 314775.0, 3507795.0 ], [ 314775.0, 3507825.0 ], [ 314805.0, 3507825.0 ], [ 314805.0, 3507885.0 ], [ 314835.0, 3507885.0 ], [ 314835.0, 3507945.0 ], [ 314775.0, 3507945.0 ] ] ] } },
{ "type": "Feature", "properties": { "type": 2 }, "geometry": { "type": "Polygon", "coordinates": [ [ [ 314565.0, 3507555.0 ], [ 314565.0, 3507495.0 ], [ 314595.0, 3507495.0 ], [ 314595.0, 3507555.0 ], [ 314565.0, 3507555.0 ] ] ] } },
{ "type": "Feature", "properties": { "type": 2 }, "geometry": { "type": "Polygon", "coordinates": [ [ [ 314535.0, 3507495.0 ], [ 314535.0, 3507435.0 ], [ 314505.0, 3507435.0 ], [ 314505.0, 3507285.0 ], [ 314475.0, 3507285.0 ], [ 314475.0, 3507225.0 ], [ 314565.0, 3507225.0 ], [ 314565.0, 3507285.0 ], [ 314535.0, 3507285.0 ], [ 314535.0, 3507375.0 ], [ 314565.0, 3507375.0 ], [ 314565.0, 3507495.0 ], [ 314535.0, 3507495.0 ] ] ] } },
{ "type": "Feature", "properties": { "type": 1 }, "geometry": { "type": "Polygon", "coordinates": [ [ [ 315465.0, 3507795.0 ], [ 315465.0, 3507765.0 ], [ 315345.0, 3507765.0 ], [ 315345.0, 3507735.0 ], [ 315315.0, 3507735.0 ], [ 315315.0, 3507705.0 ], [ 315285.0, 3507705.0 ], [ 315285.0, 3507675.0 ], [ 315195.0, 3507675.0 ], [ 315195.0, 3507615.0 ], [ 315105.0, 3507615.0 ], [ 315105.0, 3507585.0 ], [ 315015.0, 3507585.0 ], [ 315015.0, 3507555.0 ], [ 314985.0, 3507555.0 ], [ 314985.0, 3507465.0 ], [ 314925.0, 3507465.0 ], [ 314925.0, 3507435.0 ], [ 314895.0, 3507435.0 ], [ 314895.0, 3507375.0 ], [ 314835.0, 3507375.0 ], [ 314835.0, 3507405.0 ], [ 314775.0, 3507405.0 ], [ 314775.0, 3507315.0 ], [ 314655.0, 3507315.0 ], [ 314655.0, 3507285.0 ], [ 314685.0, 3507285.0 ], [ 314685.0, 3507165.0 ], [ 314655.0, 3507165.0 ], [ 314655.0, 3507135.0 ], [ 314685.0, 3507135.0 ], [ 314685.0, 3507105.0 ], [ 314775.0, 3507105.0 ], [ 314775.0, 3507135.0 ], [ 314835.0, 3507135.0 ], [ 314835.0, 3507195.0 ], [ 314865.0, 3507195.0 ], [ 314865.0, 3507255.0 ], [ 314925.0, 3507255.0 ], [ 314925.0, 3507345.0 ], [ 314985.0, 3507345.0 ], [ 314985.0, 3507435.0 ], [ 315045.0, 3507435.0 ], [ 315045.0, 3507495.0 ], [ 315075.0, 3507495.0 ], [ 315075.0, 3507525.0 ], [ 315105.0, 3507525.0 ], [ 315105.0, 3507555.0 ], [ 315195.0, 3507555.0 ], [ 315195.0, 3507585.0 ], [ 315255.0, 3507585.0 ], [ 315255.0, 3507645.0 ], [ 315315.0, 3507645.0 ], [ 315315.0, 3507675.0 ], [ 315375.0, 3507675.0 ], [ 315375.0, 3507705.0 ], [ 315435.0, 3507705.0 ], [ 315435.0, 3507735.0 ], [ 315495.0, 3507735.0 ], [ 315495.0, 3507795.0 ], [ 315465.0, 3507795.0 ] ] ] } },
{ "type": "Feature", "properties": { "type": 5 }, "geometry": { "type": "Polygon", "coordinates": [ [ [ 314085.0, 3507225.0 ], [ 314085.0, 3506955.0 ], [ 314355.0, 3506955.0 ], [ 314355.0, 3506985.0 ], [ 314265.0, 3506985.0 ], [ 314265.0, 3507075.0 ], [ 314295.0, 3507075.0 ], [ 314295.0, 3507135.0 ], [ 314235.0, 3507135.0 ], [ 314235.0, 3507165.0 ], [ 314205.0, 3507165.0 ], [ 314205.0, 3507195.0 ], [ 314175.0, 3507195.0 ], [ 314175.0, 3507225.0 ], [ 314085.0, 3507225.0 ] ] ] } },
{ "type": "Feature", "properties": { "type": 5 }, "geometry": { "type": "Polygon", "coordinates": [ [ [ 315345.0, 3508425.0 ], [ 315345.0, 3508365.0 ], [ 315375.0, 3508365.0 ], [ 315375.0, 3508245.0 ], [ 315405.0, 3508245.0 ], [ 315405.0, 3508155.0 ], [ 315435.0, 3508155.0 ], [ 315435.0, 3508065.0 ], [ 315465.0, 3508065.0 ], [ 315465.0, 3507945.0 ], [ 315435.0, 3507945.0 ], [ 315435.0, 3507885.0 ], [ 315405.0, 3507885.0 ], [ 315405.0, 3507855.0 ], [ 315345.0, 3507855.0 ], [ 315345.0, 3507825.0 ], [ 315315.0, 3507825.0 ], [ 315315.0, 3507795.0 ], [ 315015.0, 3507795.0 ], [ 315015.0, 3507765.0 ], [ 314925.0, 3507765.0 ], [ 314925.0, 3507705.0 ], [ 314895.0, 3507705.0 ], [ 314895.0, 3507675.0 ], [ 314745.0, 3507675.0 ], [ 314745.0, 3507645.0 ], [ 314715.0, 3507645.0 ], [ 314715.0, 3507615.0 ], [ 314685.0, 3507615.0 ], [ 314685.0, 3507645.0 ], [ 314655.0, 3507645.0 ], [ 314655.0, 3507585.0 ], [ 314595.0, 3507585.0 ], [ 314595.0, 3507495.0 ], [ 314565.0, 3507495.0 ], [ 314565.0, 3507375.0 ], [ 314535.0, 3507375.0 ], [ 314535.0, 3507285.0 ], [ 314565.0, 3507285.0 ], [ 314565.0, 3507225.0 ], [ 314475.0, 3507225.0 ], [ 314475.0, 3507165.0 ], [ 314445.0, 3507165.0 ], [ 314445.0, 3506955.0 ], [ 314805.0, 3506955.0 ], [ 314805.0, 3506985.0 ], [ 314835.0, 3506985.0 ], [ 314835.0, 3507015.0 ], [ 314865.0, 3507015.0 ], [ 314865.0, 3507045.0 ], [ 314895.0, 3507045.0 ], [ 314895.0, 3507105.0 ], [ 314925.0, 3507105.0 ], [ 314925.0, 3507135.0 ], [ 314955.0, 3507135.0 ], [ 314955.0, 3507165.0 ], [ 314985.0, 3507165.0 ], [ 314985.0, 3507195.0 ], [ 315015.0, 3507195.0 ], [ 315015.0, 3507255.0 ], [ 315045.0, 3507255.0 ], [ 315045.0, 3507285.0 ], [ 315075.0, 3507285.0 ], [ 315075.0, 3507315.0 ], [ 315105.0, 3507315.0 ], [ 315105.0, 3507375.0 ], [ 315135.0, 3507375.0 ], [ 315135.0, 3507405.0 ], [ 315165.0, 3507405.0 ], [ 315165.0, 3507435.0 ], [ 315195.0, 3507435.0 ], [ 315195.0, 3507465.0 ], [ 315225.0, 3507465.0 ], [ 315225.0, 3507495.0 ], [ 315255.0, 3507495.0 ], [ 315255.0, 3507525.0 ], [ 315285.0, 3507525.0 ], [ 315285.0, 3507555.0 ], [ 315315.0, 3507555.0 ], [ 315315.0, 3507585.0 ], [ 315375.0, 3507585.0 ], [ 315375.0, 3507615.0 ], [ 315405.0, 3507615.0 ], [ 315405.0, 3507645.0 ], [ 315435.0, 3507645.0 ], [ 315435.0, 3507675.0 ], [ 315495.0, 3507675.0 ], [ 315495.0, 3507705.0 ], [ 315525.0, 3507705.0 ], [ 315525.0, 3507765.0 ], [ 315555.0, 3507765.0 ], [ 315555.0, 3507795.0 ], [ 315585.0, 3507795.0 ], [ 315585.0, 3507915.0 ], [ 315615.0, 3507915.0 ], [ 315615.0, 3508065.0 ], [ 315645.0, 3508065.0 ], [ 315645.0, 3508095.0 ], [ 315705.0, 3508095.0 ], [ 315705.0, 3508125.0 ], [ 315675.0, 3508125.0 ], [ 315675.0, 3508185.0 ], [ 315585.0, 3508185.0 ], [ 315585.0, 3508125.0 ], [ 315525.0, 3508125.0 ], [ 315525.0, 3508185.0 ], [ 315495.0, 3508185.0 ], [ 315495.0, 3508275.0 ], [ 315465.0, 3508275.0 ], [ 315465.0, 3508305.0 ], [ 315435.0, 3508305.0 ], [ 315435.0, 3508365.0 ], [ 315405.0, 3508365.0 ], [ 315405.0, 3508395.0 ], [ 315375.0, 3508395.0 ], [ 315375.0, 3508425.0 ], [ 315345.0, 3508425.0 ] ], [ [ 315495.0, 3507885.0 ], [ 315525.0, 3507885.0 ], [ 315525.0, 3507855.0 ], [ 315555.0, 3507855.0 ], [ 315555.0, 3507795.0 ], [ 315525.0, 3507795.0 ], [ 315525.0, 3507825.0 ], [ 315495.0, 3507825.0 ], [ 315495.0, 3507885.0 ] ], [ [ 315465.0, 3507795.0 ], [ 315495.0, 3507795.0 ], [ 315495.0, 3507735.0 ], [ 315435.0, 3507735.0 ], [ 315435.0, 3507705.0 ], [ 315375.0, 3507705.0 ], [ 315375.0, 3507675.0 ], [ 315315.0, 3507675.0 ], [ 315315.0, 3507645.0 ], [ 315255.0, 3507645.0 ], [ 315255.0, 3507585.0 ], [ 315195.0, 3507585.0 ], [ 315195.0, 3507555.0 ], [ 315105.0, 3507555.0 ], [ 315105.0, 3507525.0 ], [ 315075.0, 3507525.0 ], [ 315075.0, 3507495.0 ], [ 315045.0, 3507495.0 ], [ 315045.0, 3507435.0 ], [ 314985.0, 3507435.0 ], [ 314985.0, 3507345.0 ], [ 314925.0, 3507345.0 ], [ 314925.0, 3507255.0 ], [ 314865.0, 3507255.0 ], [ 314865.0, 3507195.0 ], [ 314835.0, 3507195.0 ], [ 314835.0, 3507135.0 ], [ 314775.0, 3507135.0 ], [ 314775.0, 3507105.0 ], [ 314685.0, 3507105.0 ], [ 314685.0, 3507135.0 ], [ 314655.0, 3507135.0 ], [ 314655.0, 3507165.0 ], [ 314685.0, 3507165.0 ], [ 314685.0, 3507285.0 ], [ 314655.0, 3507285.0 ], [ 314655.0, 3507315.0 ], [ 314775.0, 3507315.0 ], [ 314775.0, 3507405.0 ], [ 314835.0, 3507405.0 ], [ 314835.0, 3507375.0 ], [ 314895.0, 3507375.0 ], [ 314895.0, 3507435.0 ], [ 314925.0, 3507435.0 ], [ 314925.0, 3507465.0 ], [ 314985.0, 3507465.0 ], [ 314985.0, 3507555.0 ], [ 315015.0, 3507555.0 ], [ 315015.0, 3507585.0 ], [ 315105.0, 3507585.0 ], [ 315105.0, 3507615.0 ], [ 315195.0, 3507615.0 ], [ 315195.0, 3507675.0 ], [ 315285.0, 3507675.0 ], [ 315285.0, 3507705.0 ], [ 315315.0, 3507705.0 ], [ 315315.0, 3507735.0 ], [ 315345.0, 3507735.0 ], [ 315345.0, 3507765.0 ], [ 315465.0, 3507765.0 ], [ 315465.0, 3507795.0 ] ] ] } },
{ "type": "Feature", "properties": { "type": 1 }, "geometry": { "type": "Polygon", "coordinates": [ [ [ 314295.0, 3509685.0 ], [ 314295.0, 3509655.0 ], [ 314265.0, 3509655.0 ], [ 314265.0, 3509625.0 ], [ 314205.0, 3509625.0 ], [ 314205.0, 3509595.0 ], [ 314175.0, 3509595.0 ], [ 314175.0, 3509565.0 ], [ 314145.0, 3509565.0 ], [ 314145.0, 3509535.0 ], [ 314115.0, 3509535.0 ], [ 314115.0, 3509175.0 ], [ 314085.0, 3509175.0 ], [ 314085.0, 3507225.0 ], [ 314175.0, 3507225.0 ], [ 314175.0, 3507195.0 ], [ 314205.0, 3507195.0 ], [ 314205.0, 3507165.0 ], [ 314235.0, 3507165.0 ], [ 314235.0, 3507135.0 ], [ 314295.0, 3507135.0 ], [ 314295.0, 3507075.0 ], [ 314265.0, 3507075.0 ], [ 314265.0, 3507015.0 ], [ 314295.0, 3507015.0 ], [ 314295.0, 3506985.0 ], [ 314355.0, 3506985.0 ], [ 314355.0, 3506955.0 ], [ 314445.0, 3506955.0 ], [ 314445.0, 3507165.0 ], [ 314475.0, 3507165.0 ], [ 314475.0, 3507285.0 ], [ 314505.0, 3507285.0 ], [ 314505.0, 3507435.0 ], [ 314535.0, 3507435.0 ], [ 314535.0, 3507495.0 ], [ 314565.0, 3507495.0 ], [ 314565.0, 3507555.0 ], [ 314595.0, 3507555.0 ], [ 314595.0, 3507585.0 ], [ 314655.0, 3507585.0 ], [ 314655.0, 3507645.0 ], [ 314685.0, 3507645.0 ], [ 314685.0, 3507615.0 ], [ 314715.0, 3507615.0 ], [ 314715.0, 3507645.0 ], [ 314745.0, 3507645.0 ], [ 314745.0, 3507675.0 ], [ 314895.0, 3507675.0 ], [ 314895.0, 3507705.0 ], [ 314925.0, 3507705.0 ], [ 314925.0, 3507765.0 ], [ 315015.0, 3507765.0 ], [ 315015.0, 3507795.0 ], [ 315315.0, 3507795.0 ], [ 315315.0, 3507825.0 ], [ 315345.0, 3507825.0 ], [ 315345.0, 3507855.0 ], [ 315405.0, 3507855.0 ], [ 315405.0, 3507885.0 ], [ 315435.0, 3507885.0 ], [ 315435.0, 3507945.0 ], [ 315465.0, 3507945.0 ], [ 315465.0, 3508065.0 ], [ 315435.0, 3508065.0 ], [ 315435.0, 3508155.0 ], [ 315405.0, 3508155.0 ], [ 315405.0, 3508215.0 ], [ 315345.0, 3508215.0 ], [ 315345.0, 3508365.0 ], [ 315315.0, 3508365.0 ], [ 315315.0, 3508395.0 ], [ 315285.0, 3508395.0 ], [ 315285.0, 3508485.0 ], [ 315255.0, 3508485.0 ], [ 315255.0, 3508695.0 ], [ 315225.0, 3508695.0 ], [ 315225.0, 3508875.0 ], [ 315255.0, 3508875.0 ], [ 315255.0, 3508965.0 ], [ 315285.0, 3508965.0 ], [ 315285.0, 3508995.0 ], [ 315315.0, 3508995.0 ], [ 315315.0, 3509025.0 ], [ 315345.0, 3509025.0 ], [ 315345.0, 3509055.0 ], [ 315375.0, 3509055.0 ], [ 315375.0, 3509085.0 ], [ 315435.0, 3509085.0 ], [ 315435.0, 3509115.0 ], [ 315465.0, 3509115.0 ], [ 315465.0, 3509145.0 ], [ 315525.0, 3509145.0 ], [ 315525.0, 3509175.0 ], [ 315585.0, 3509175.0 ], [ 315585.0, 3509205.0 ], [ 315675.0, 3509205.0 ], [ 315675.0, 3509235.0 ], [ 315765.0, 3509235.0 ], [ 315765.0, 3509265.0 ], [ 315795.0, 3509265.0 ], [ 315795.0, 3509475.0 ], [ 315615.0, 3509475.0 ], [ 315615.0, 3509445.0 ], [ 315585.0, 3509445.0 ], [ 315585.0, 3509415.0 ], [ 315555.0, 3509415.0 ], [ 315555.0, 3509385.0 ], [ 315465.0, 3509385.0 ], [ 315465.0, 3509355.0 ], [ 315405.0, 3509355.0 ], [ 315405.0, 3509325.0 ], [ 315345.0, 3509325.0 ], [ 315345.0, 3509295.0 ], [ 315285.0, 3509295.0 ], [ 315285.0, 3509265.0 ], [ 315225.0, 3509265.0 ], [ 315225.0, 3509235.0 ], [ 315165.0, 3509235.0 ], [ 315165.0, 3509295.0 ], [ 315195.0, 3509295.0 ], [ 315195.0, 3509385.0 ], [ 315135.0, 3509385.0 ], [ 315135.0, 3509325.0 ], [ 315105.0, 3509325.0 ], [ 315105.0, 3509295.0 ], [ 315075.0, 3509295.0 ], [ 315075.0, 3509325.0 ], [ 315015.0, 3509325.0 ], [ 315015.0, 3509355.0 ], [ 314925.0, 3509355.0 ], [ 314925.0, 3509385.0 ], [ 314805.0, 3509385.0 ], [ 314805.0, 3509475.0 ], [ 314775.0, 3509475.0 ], [ 314775.0, 3509445.0 ], [ 314745.0, 3509445.0 ], [ 314745.0, 3509415.0 ], [ 314685.0, 3509415.0 ], [ 314685.0, 3509475.0 ], [ 314595.0, 3509475.0 ], [ 314595.0, 3509595.0 ], [ 314565.0, 3509595.0 ], [ 314565.0, 3509625.0 ], [ 314475.0, 3509625.0 ], [ 314475.0, 3509655.0 ], [ 314445.0, 3509655.0 ], [ 314445.0, 3509685.0 ], [ 314385.0, 3509685.0 ], [ 314385.0, 3509655.0 ], [ 314355.0, 3509655.0 ], [ 314355.0, 3509685.0 ], [ 314295.0, 3509685.0 ] ], [ [ 314985.0, 3509235.0 ], [ 315045.0, 3509235.0 ], [ 315045.0, 3509175.0 ], [ 315075.0, 3509175.0 ], [ 315075.0, 3509145.0 ], [ 315105.0, 3509145.0 ], [ 315105.0, 3509115.0 ], [ 315075.0, 3509115.0 ], [ 315075.0, 3509085.0 ], [ 315045.0, 3509085.0 ], [ 315045.0, 3508995.0 ], [ 314955.0, 3508995.0 ], [ 314955.0, 3509085.0 ], [ 314925.0, 3509085.0 ], [ 314925.0, 3509175.0 ], [ 314955.0, 3509175.0 ], [ 314955.0, 3509205.0 ], [ 314985.0, 3509205.0 ], [ 314985.0, 3509235.0 ] ], [ [ 314805.0, 3508545.0 ], [ 314955.0, 3508545.0 ], [ 314955.0, 3508455.0 ], [ 315045.0, 3508455.0 ], [ 315045.0, 3508395.0 ], [ 315015.0, 3508395.0 ], [ 315015.0, 3508365.0 ], [ 314985.0, 3508365.0 ], [ 314985.0, 3508335.0 ], [ 315075.0, 3508335.0 ], [ 315075.0, 3508275.0 ], [ 315105.0, 3508275.0 ], [ 315105.0, 3508215.0 ], [ 315075.0, 3508215.0 ], [ 315075.0, 3508155.0 ], [ 315015.0, 3508155.0 ], [ 315015.0, 3508125.0 ], [ 314985.0, 3508125.0 ], [ 314985.0, 3508155.0 ], [ 314895.0, 3508155.0 ], [ 314895.0, 3508185.0 ], [ 314865.0, 3508185.0 ], [ 314865.0, 3508155.0 ], [ 314835.0, 3508155.0 ], [ 314835.0, 3508095.0 ], [ 314775.0, 3508095.0 ], [ 314775.0, 3508155.0 ], [ 314745.0, 3508155.0 ], [ 314745.0, 3508125.0 ], [ 314715.0, 3508125.0 ], [ 314715.0, 3508095.0 ], [ 314655.0, 3508095.0 ], [ 314655.0, 3508125.0 ], [ 314535.0, 3508125.0 ], [ 314535.0, 3508185.0 ], [ 314565.0, 3508185.0 ], [ 314565.0, 3508335.0 ], [ 314625.0, 3508335.0 ], [ 314625.0, 3508305.0 ], [ 314655.0, 3508305.0 ], [ 314655.0, 3508275.0 ], [ 314745.0, 3508275.0 ], [ 314745.0, 3508335.0 ], [ 314715.0, 3508335.0 ], [ 314715.0, 3508395.0 ], [ 314745.0, 3508395.0 ], [ 314745.0, 3508425.0 ], [ 314835.0, 3508425.0 ], [ 314835.0, 3508485.0 ], [ 314805.0, 3508485.0 ], [ 314805.0, 3508545.0 ] ], [ [ 314775.0, 3507945.0 ], [ 314835.0, 3507945.0 ], [ 314835.0, 3507885.0 ], [ 314805.0, 3507885.0 ], [ 314805.0, 3507825.0 ], [ 314775.0, 3507825.0 ], [ 314775.0, 3507795.0 ], [ 314745.0, 3507795.0 ], [ 314745.0, 3507705.0 ], [ 314685.0, 3507705.0 ], [ 314685.0, 3507675.0 ], [ 314655.0, 3507675.0 ], [ 314655.0, 3507795.0 ], [ 314685.0, 3507795.0 ], [ 314685.0, 3507825.0 ], [ 314715.0, 3507825.0 ], [ 314715.0, 3507855.0 ], [ 314745.0, 3507855.0 ], [ 314745.0, 3507885.0 ], [ 314775.0, 3507885.0 ], [ 314775.0, 3507945.0 ] ] ] } },
{ "type": "Feature", "properties": { "type": 4 }, "geometry": { "type": "Polygon", "coordinates": [ [ [ 317175.0, 3509955.0 ], [ 317175.0, 3509925.0 ], [ 317115.0, 3509925.0 ], [ 317115.0, 3509895.0 ], [ 317085.0, 3509895.0 ], [ 317085.0, 3509865.0 ], [ 317025.0, 3509865.0 ], [ 317025.0, 3509835.0 ], [ 316965.0, 3509835.0 ], [ 316965.0, 3509805.0 ], [ 316905.0, 3509805.0 ], [ 316905.0, 3509775.0 ], [ 316845.0, 3509775.0 ], [ 316845.0, 3509745.0 ], [ 316575.0, 3509745.0 ], [ 316575.0, 3509715.0 ], [ 316545.0, 3509715.0 ], [ 316545.0, 3509685.0 ], [ 316515.0, 3509685.0 ], [ 316515.0, 3509655.0 ], [ 316455.0, 3509655.0 ], [ 316455.0, 3509625.0 ], [ 316395.0, 3509625.0 ], [ 316395.0, 3509595.0 ], [ 316275.0, 3509595.0 ], [ 316275.0, 3509535.0 ], [ 316245.0, 3509535.0 ], [ 316245.0, 3509475.0 ], [ 316185.0, 3509475.0 ], [ 316185.0, 3509445.0 ], [ 316155.0, 3509445.0 ], [ 316155.0, 3509415.0 ], [ 316125.0, 3509415.0 ], [ 316125.0, 3509385.0 ], [ 316095.0, 3509385.0 ], [ 316095.0, 3509355.0 ], [ 316065.0, 3509355.0 ], [ 316065.0, 3509325.0 ], [ 316035.0, 3509325.0 ], [ 316035.0, 3509295.0 ], [ 316005.0, 3509295.0 ], [ 316005.0, 3509265.0 ], [ 315975.0, 3509265.0 ], [ 315975.0, 3509235.0 ], [ 315945.0, 3509235.0 ], [ 315945.0, 3509205.0 ], [ 315885.0, 3509205.0 ], [ 315885.0, 3509025.0 ], [ 315855.0, 3509025.0 ], [ 315855.0, 3508725.0 ], [ 315825.0, 3508725.0 ], [ 315825.0, 3508425.0 ], [ 315795.0, 3508425.0 ], [ 315795.0, 3508155.0 ], [ 315765.0, 3508155.0 ], [ 315765.0, 3508125.0 ], [ 315705.0, 3508125.0 ], [ 315705.0, 3508095.0 ], [ 315645.0, 3508095.0 ], [ 315645.0, 3508065.0 ], [ 315615.0, 3508065.0 ], [ 315615.0, 3507915.0 ], [ 315585.0, 3507915.0 ], [ 315585.0, 3507795.0 ], [ 315555.0, 3507795.0 ], [ 315555.0, 3507765.0 ], [ 315525.0, 3507765.0 ], [ 315525.0, 3507705.0 ], [ 315495.0, 3507705.0 ], [ 315495.0, 3507675.0 ], [ 315435.0, 3507675.0 ], [ 315435.0, 3507645.0 ], [ 315405.0, 3507645.0 ], [ 315405.0, 3507615.0 ], [ 315375.0, 3507615.0 ], [ 315375.0, 3507585.0 ], [ 315315.0, 3507585.0 ], [ 315315.0, 3507555.0 ], [ 315285.0, 3507555.0 ], [ 315285.0, 3507525.0 ], [ 315255.0, 3507525.0 ], [ 315255.0, 3507495.0 ], [ 315225.0, 3507495.0 ], [ 315225.0, 3507465.0 ], [ 315195.0, 3507465.0 ], [ 315195.0, 3507435.0 ], [ 315165.0, 3507435.0 ], [ 315165.0, 3507405.0 ], [ 315135.0, 3507405.0 ], [ 315135.0, 3507375.0 ], [ 315105.0, 3507375.0 ], [ 315105.0, 3507315.0 ], [ 315075.0, 3507315.0 ], [ 315075.0, 3507285.0 ], [ 315045.0, 3507285.0 ], [ 315045.0, 3507255.0 ], [ 315015.0, 3507255.0 ], [ 315015.0, 3507195.0 ], [ 314985.0, 3507195.0 ], [ 314985.0, 3507165.0 ], [ 314955.0, 3507165.0 ], [ 314955.0, 3507135.0 ], [ 314925.0, 3507135.0 ], [ 314925.0, 3507105.0 ], [ 314895.0, 3507105.0 ], [ 314895.0, 3507045.0 ], [ 314865.0, 3507045.0 ], [ 314865.0, 3507015.0 ], [ 314835.0, 3507015.0 ], [ 314835.0, 3506985.0 ], [ 314805.0, 3506985.0 ], [ 314805.0, 3506955.0 ], [ 317205.0, 3506955.0 ], [ 317205.0, 3509955.0 ], [ 317175.0, 3509955.0 ] ] ] } }
]
}
