{
"type": "FeatureCollection",
"name": "mask4_1991_rot180",
"crs": { "type": "name", "properties": { "name": "urn:ogc:def:crs:EPSG::32630" } },
"features": [
{ "type": "Feature", "properties": { "type": 4 }, "geometry": { "type": "Polygon", "coordinates": [ [ [ 362235.0, 3544125.0 ], [ 362235.0, 3542835.0 ], [ 362505.0, 3542835.0 ], [ 362505.0, 3542805.0 ], [ 362535.0, 3542805.0 ], [ 362535.0, 3542775.0 ], [ 362565.0, 3542775.0 ], [ 362565.0, 3542715.0 ], [ 362595.0, 3542715.0 ], [ 362595.0, 3542685.0 ], [ 362625.0, 3542685.0 ], [ 362625.0, 3542625.0 ], [ 362655.0, 3542625.0 ], [ 362655.0, 3542655.0 ], [ 362685.0, 3542655.0 ], [ 362685.0, 3542685.0 ], [ 362835.0, 3542685.0 ], [ 362835.0, 3542655.0 ], [ 363105.0, 3542655.0 ], [ 363105.0, 3542595.0 ], [ 363135.0, 3542595.0 ], [ 363135.0, 3542565.0 ], [ 363165.0, 3542565.0 ], [ 363165.0, 3542535.0 ], [ 363195.0, 3542535.0 ], [ 363195.0, 3542505.0 ], [ 363285.0, 3542505.0 ], [ 363285.0, 3542535.0 ], [ 363315.0, 3542535.0 ], [ 363315.0, 3542625.0 ], [ 363285.0, 3542625.0 ], [ 363285.0, 3542685.0 ], [ 363255.0, 3542685.0 ], [ 363255.0, 3542715.0 ], [ 363225.0, 3542715.0 ], [ 363225.0, 3542745.0 ], [ 363255.0, 3542745.0 ], [ 363255.0, 3542775.0 ], [ 363285.0, 3542775.0 ], [ 363285.0, 3542805.0 ], [ 363375.0, 3542805.0 ], [ 363375.0, 3542835.0 ], [ 363405.0, 3542835.0 ], [ 363405.0, 3542865.0 ], [ 363525.0, 3542865.0 ], [ 363525.0, 3542835.0 ], [ 363585.0, 3542835.0 ], [ 363585.0, 3542805.0 ], [ 363645.0, 3542805.0 ], [ 363645.0, 3542835.0 ], [ 363705.0, 3542835.0 ], [ 363705.0, 3542895.0 ], [ 363735.0, 3542895.0 ], [ 363735.0, 3542985.0 ], [ 363705.0, 3542985.0 ], [ 363705.0, 3543075.0 ], [ 363735.0, 3543075.0 ], [ 363735.0, 3543105.0 ], [ 363765.0, 3543105.0 ], [ 363765.0, 3543135.0 ], [ 363795.0, 3543135.0 ], [ 363795.0, 3543195.0 ], [ 363705.0, 3543195.0 ], [ 363705.0, 3543225.0 ], [ 363675.0, 3543225.0 ], [ 363675.0, 3543255.0 ], [ 363855.0, 3543255.0 ], [ 363855.0, 3543225.0 ], [ 363945.0, 3543225.0 ], [ 363945.0, 3543315.0 ], [ 363975.0, 3543315.0 ], [ 363975.0, 3543345.0 ], [ 364065.0, 3543345.0 ], [ 364065.0, 3543375.0 ], [ 364125.0, 3543375.0 ], [ 364125.0, 3543405.0 ], [ 364185.0, 3543405.0 ], [ 364185.0, 3543435.0 ], [ 364245.0, 3543435.0 ], [ 364245.0, 3543465.0 ], [ 364305.0, 3543465.0 ], [ 364305.0, 3543495.0 ], [ 364365.0, 3543495.0 ], [ 364365.0, 3543525.0 ], [ 364425.0, 3543525.0 ], [ 364425.0, 3543555.0 ], [ 364455.0, 3543555.0 ], [ 364455.0, 3543585.0 ], [ 364485.0, 3543585.0 ], [ 364485.0, 3543615.0 ], [ 364545.0, 3543615.0 ], [ 364545.0, 3543645.0 ], [ 364575.0, 3543645.0 ], [ 364575.0, 3543675.0 ], [ 364605.0, 3543675.0 ], [ 364605.0, 3543705.0 ], [ 364635.0, 3543705.0 ], [ 364635.0, 3543735.0 ], [ 364695.0, 3543735.0 ], [ 364695.0, 3543765.0 ], [ 364725.0, 3543765.0 ], [ 364725.0, 3543795.0 ], [ 364785.0, 3543795.0 ], [ 364785.0, 3543825.0 ], [ 364845.0, 3543825.0 ], [ 364845.0, 3543855.0 ], [ 364905.0, 3543855.0 ], [ 364905.0, 3543885.0 ], [ 364935.0, 3543885.0 ], [ 364935.0, 3543915.0 ], [ 364995.0, 3543915.0 ], [ 364995.0, 3543945.0 ], [ 365025.0, 3543945.0 ], [ 365025.0, 3543975.0 ], [ 365085.0, 3543975.0 ], [ 365085.0, 3544005.0 ], [ 365145.0, 3544005.0 ], [ 365145.0, 3544035.0 ], [ 365205.0, 3544035.0 ], [ 365205.0, 3544065.0 ], [ 365235.0, 3544065.0 ], [ 365235.0, 3544095.0 ], [ 365265.0, 3544095.0 ], [ 365265.0, 3544125.0 ], [ 362235.0, 3544125.0 ] ] ] } },
{ "type": "Feature", "properties": { "type": 4 }, "geometry": { "type": "Polygon", "coordinates": [ [ [ 362235.0, 3542445.0 ], [ 362235.0, 3542265.0 ], [ 362265.0, 3542265.0 ], [ 362265.0, 3542385.0 ], [ 362295.0, 3542385.0 ], [ 362295.0, 3542445.0 ], [ 362235.0, 3542445.0 ] ] ] } },
{ "type": "Feature", "properties": { "type": 4 }, "geometry": { "type": "Polygon", "coordinates": [ [ [ 364755.0, 3542895.0 ], [ 364755.0, 3542835.0 ], [ 364725.0, 3542835.0 ], [ 364725.0, 3542805.0 ], [ 364875.0, 3542805.0 ], [ 364875.0, 3542775.0 ], [ 364935.0, 3542775.0 ], [ 364935.0, 3542745.0 ], [ 364965.0, 3542745.0 ], [ 364965.0, 3542685.0 ], [ 364755.0, 3542685.0 ], [ 364755.0, 3542625.0 ], [ 364725.0, 3542625.0 ], [ 364725.0, 3542565.0 ], [ 364755.0, 3542565.0 ], [ 364755.0, 3542535.0 ], [ 364785.0, 3542535.0 ], [ 364785.0, 3542505.0 ], [ 364815.0, 3542505.0 ], [ 364815.0, 3542445.0 ], [ 364785.0, 3542445.0 ], [ 364785.0, 3542355.0 ], [ 364815.0, 3542355.0 ], [ 364815.0, 3542325.0 ], [ 364845.0, 3542325.0 ], [ 364845.0, 3542295.0 ], [ 364935.0, 3542295.0 ], [ 364935.0, 3542325.0 ], [ 364965.0, 3542325.0 ], [ 364965.0, 3542385.0 ], [ 364995.0, 3542385.0 ], [ 364995.0, 3542445.0 ], [ 365145.0, 3542445.0 ], [ 365145.0, 3542415.0 ], [ 365175.0, 3542415.0 ], [ 365175.0, 3542355.0 ], [ 365205.0, 3542355.0 ], [ 365205.0, 3542325.0 ], [ 365235.0, 3542325.0 ], [ 365235.0, 3542265.0 ], [ 365265.0, 3542265.0 ], [ 365265.0, 3542235.0 ], [ 365295.0, 3542235.0 ], [ 365295.0, 3542205.0 ], [ 365325.0, 3542205.0 ], [ 365325.0, 3542175.0 ], [ 365355.0, 3542175.0 ], [ 365355.0, 3542505.0 ], [ 365325.0, 3542505.0 ], [ 365325.0, 3542535.0 ], [ 365265.0, 3542535.0 ], [ 365265.0, 3542565.0 ], [ 365235.0, 3542565.0 ], [ 365235.0, 3542595.0 ], [ 365205.0, 3542595.0 ], [ 365205.0, 3542625.0 ], [ 365175.0, 3542625.0 ], [ 365175.0, 3542655.0 ], [ 365115.0, 3542655.0 ], [ 365115.0, 3542685.0 ], [ 365085.0, 3542685.0 ], [ 365085.0, 3542745.0 ], [ 365055.0, 3542745.0 ], [ 365055.0, 3542775.0 ], [ 365025.0, 3542775.0 ], [ 365025.0, 3542805.0 ], [ 364965.0, 3542805.0 ], [ 364965.0, 3542835.0 ], [ 364935.0, 3542835.0 ], [ 364935.0, 3542865.0 ], [ 364875.0, 3542865.0 ], [ 364875.0, 3542895.0 ], [ 364755.0, 3542895.0 ] ] ] } },
{ "type": "Feature", "properties": { "type": 4 }, "geometry": { "type": "Polygon", "coordinates": [ [ [ 362235.0, 3542145.0 ], [ 362235.0, 3541965.0 ], [ 362265.0, 3541965.0 ], [ 362265.0, 3542145.0 ], [ 362235.0, 3542145.0 ] ] ] } },
{ "type": "Feature", "properties": { "type": 4 }, "geometry": { "type": "Polygon", "coordinates": [ [ [ 362235.0, 3541485.0 ], [ 362235.0, 3541455.0 ], [ 362265.0, 3541455.0 ], [ 362265.0, 3541485.0 ], [ 362235.0, 3541485.0 ] ] ] } },
{ "type": "Feature", "properties": { "type": 4 }, "geometry": { "type": "Polygon", "coordinates": [ [ [ 364785.0, 3541365.0 ], [ 364785.0, 3541335.0 ], [ 364815.0, 3541335.0 ], [ 364815.0, 3541365.0 ], [ 364785.0, 3541365.0 ] ] ] } },
{ "type": "Feature", "properties": { "type": 4 }, "geometry": { "type": "Polygon", "coordinates": [ [ [ 362235.0, 3541305.0 ], [ 362235.0, 3541005.0 ], [ 363405.0, 3541005.0 ], [ 363405.0, 3541125.0 ], [ 363375.0, 3541125.0 ], [ 363375.0, 3541155.0 ], [ 363135.0, 3541155.0 ], [ 363135.0, 3541185.0 ], [ 363105.0, 3541185.0 ], [ 363105.0, 3541215.0 ], [ 363075.0, 3541215.0 ], [ 363075.0, 3541245.0 ], [ 363015.0, 3541245.0 ], [ 363015.0, 3541275.0 ], [ 362955.0, 3541275.0 ], [ 362955.0, 3541245.0 ], [ 362835.0, 3541245.0 ], [ 362835.0, 3541275.0 ], [ 362745.0, 3541275.0 ], [ 362745.0, 3541245.0 ], [ 362715.0, 3541245.0 ], [ 362715.0, 3541215.0 ], [ 362475.0, 3541215.0 ], [ 362475.0, 3541245.0 ], [ 362265.0, 3541245.0 ], [ 362265.0, 3541305.0 ], [ 362235.0, 3541305.0 ] ] ] } },
{ "type": "Feature", "properties": { "type": 4 }, "geometry": { "type": "Polygon", "coordinates": [ [ [ 365325.0, 3541815.0 ], [ 365325.0, 3541785.0 ], [ 365265.0, 3541785.0 ], [ 365265.0, 3541755.0 ], [ 365145.0, 3541755.0 ], [ 365145.0, 3541725.0 ], [ 365055.0, 3541725.0 ], [ 365055.0, 3541575.0 ], [ 364995.0, 3541575.0 ], [ 364995.0, 3541605.0 ], [ 364905.0, 3541605.0 ], [ 364905.0, 3541575.0 ], [ 364845.0, 3541575.0 ], [ 364845.0, 3541545.0 ], [ 364815.0, 3541545.0 ], [ 364815.0, 3541455.0 ], [ 364785.0, 3541455.0 ], [ 364785.0, 3541425.0 ], [ 364815.0, 3541425.0 ], [ 364815.0, 3541395.0 ], [ 364845.0, 3541395.0 ], [ 364845.0, 3541365.0 ], [ 364875.0, 3541365.0 ], [ 364875.0, 3541305.0 ], [ 364845.0, 3541305.0 ], [ 364845.0, 3541335.0 ], [ 364815.0, 3541335.0 ], [ 364815.0, 3541035.0 ], [ 364725.0, 3541035.0 ], [ 364725.0, 3541245.0 ], [ 364695.0, 3541245.0 ], [ 364695.0, 3541335.0 ], [ 364665.0, 3541335.0 ], [ 364665.0, 3541365.0 ], [ 364515.0, 3541365.0 ], [ 364515.0, 3541335.0 ], [ 364455.0, 3541335.0 ], [ 364455.0, 3541305.0 ], [ 364395.0, 3541305.0 ], [ 364395.0, 3541335.0 ], [ 364275.0, 3541335.0 ], [ 364275.0, 3541305.0 ], [ 364245.0, 3541305.0 ], [ 364245.0, 3541215.0 ], [ 364215.0, 3541215.0 ], [ 364215.0, 3541125.0 ], [ 364185.0, 3541125.0 ], [ 364185.0, 3541185.0 ], [ 364155.0, 3541185.0 ], [ 364155.0, 3541245.0 ], [ 364095.0, 3541245.0 ], [ 364095.0, 3541275.0 ], [ 364005.0, 3541275.0 ], [ 364005.0, 3541245.0 ], [ 363975.0, 3541245.0 ], [ 363975.0, 3541215.0 ], [ 363945.0, 3541215.0 ], [ 363945.0, 3541185.0 ], [ 363885.0, 3541185.0 ], [ 363885.0, 3541215.0 ], [ 363705.0, 3541215.0 ], [ 363705.0, 3541185.0 ], [ 363675.0, 3541185.0 ], [ 363675.0, 3541125.0 ], [ 363645.0, 3541125.0 ], [ 363645.0, 3541095.0 ], [ 363615.0, 3541095.0 ], [ 363615.0, 3541065.0 ], [ 363585.0, 3541065.0 ], [ 363585.0, 3541155.0 ], [ 363615.0, 3541155.0 ], [ 363615.0, 3541185.0 ], [ 363465.0, 3541185.0 ], [ 363465.0, 3541005.0 ], [ 365355.0, 3541005.0 ], [ 365355.0, 3541815.0 ], [ 365325.0, 3541815.0 ] ] ] } },
{ "type": "Feature", "properties": { "type": 2 }, "geometry": { "type": "Polygon", "coordinates": [ [ [ 365265.0, 3544125.0 ], [ 365265.0, 3544095.0 ], [ 365235.0, 3544095.0 ], [ 365235.0, 3544065.0 ], [ 365205.0, 3544065.0 ], [ 365205.0, 3544035.0 ], [ 365145.0, 3544035.0 ], [ 365145.0, 3544005.0 ], [ 365085.0, 3544005.0 ], [ 365085.0, 3543975.0 ], [ 365025.0, 3543975.0 ], [ 365025.0, 3543945.0 ], [ 364995.0, 3543945.0 ], [ 364995.0, 3543915.0 ], [ 364935.0, 3543915.0 ], [ 364935.0, 3543885.0 ], [ 364905.0, 3543885.0 ], [ 364905.0, 3543855.0 ], [ 364845.0, 3543855.0 ], [ 364845.0, 3543825.0 ], [ 364785.0, 3543825.0 ], [ 364785.0, 3543795.0 ], [ 364725.0, 3543795.0 ], [ 364725.0, 3543765.0 ], [ 364695.0, 3543765.0 ], [ 364695.0, 3543735.0 ], [ 364635.0, 3543735.0 ], [ 364635.0, 3543705.0 ], [ 364605.0, 3543705.0 ], [ 364605.0, 3543675.0 ], [ 364575.0, 3543675.0 ], [ 364575.0, 3543645.0 ], [ 364545.0, 3543645.0 ], [ 364545.0, 3543615.0 ], [ 364485.0, 3543615.0 ], [ 364485.0, 3543585.0 ], [ 364455.0, 3543585.0 ], [ 364455.0, 3543555.0 ], [ 364425.0, 3543555.0 ], [ 364425.0, 3543525.0 ], [ 364365.0, 3543525.0 ], [ 364365.0, 3543495.0 ], [ 364305.0, 3543495.0 ], [ 364305.0, 3543465.0 ], [ 364245.0, 3543465.0 ], [ 364245.0, 3543435.0 ], [ 364185.0, 3543435.0 ], [ 364185.0, 3543405.0 ], [ 364125.0, 3543405.0 ], [ 364125.0, 3543375.0 ], [ 364065.0, 3543375.0 ], [ 364065.0, 3543345.0 ], [ 363975.0, 3543345.0 ], [ 363975.0, 3543315.0 ], [ 363945.0, 3543315.0 ], [ 363945.0, 3543225.0 ], [ 363855.0, 3543225.0 ], [ 363855.0, 3543255.0 ], [ 363675.0, 3543255.0 ], [ 363675.0, 3543225.0 ], [ 363705.0, 3543225.0 ], [ 363705.0, 3543195.0 ], [ 363795.0, 3543195.0 ], [ 363795.0, 3543135.0 ], [ 363765.0, 3543135.0 ], [ 363765.0, 3543105.0 ], [ 363735.0, 3543105.0 ], [ 363735.0, 3543075.0 ], [ 363705.0, 3543075.0 ], [ 363705.0, 3542985.0 ], [ 363735.0, 3542985.0 ], [ 363735.0, 3542895.0 ], [ 363705.0, 3542895.0 ], [ 363705.0, 3542835.0 ], [ 363645.0, 3542835.0 ], [ 363645.0, 3542805.0 ], [ 363585.0, 3542805.0 ], [ 363585.0, 3542835.0 ], [ 363525.0, 3542835.0 ], [ 363525.0, 3542865.0 ], [ 363405.0, 3542865.0 ], [ 363405.0, 3542835.0 ], [ 363375.0, 3542835.0 ], [ 363375.0, 3542805.0 ], [ 363285.0, 3542805.0 ], [ 363285.0, 3542775.0 ], [ 363255.0, 3542775.0 ], [ 363255.0, 3542745.0 ], [ 363225.0, 3542745.0 ], [ 363225.0, 3542715.0 ], [ 363255.0, 3542715.0 ], [ 363255.0, 3542685.0 ], [ 363285.0, 3542685.0 ], [ 363285.0, 3542625.0 ], [ 363315.0, 3542625.0 ], [ 363315.0, 3542535.0 ], [ 363285.0, 3542535.0 ], [ 363285.0, 3542505.0 ], [ 363195.0, 3542505.0 ], [ 363195.0, 3542535.0 ], [ 363165.0, 3542535.0 ], [ 363165.0, 3542565.0 ], [ 363135.0, 3542565.0 ], [ 363135.0, 3542595.0 ], [ 363105.0, 3542595.0 ], [ 363105.0, 3542655.0 ], [ 362835.0, 3542655.0 ], [ 362835.0, 3542685.0 ], [ 362685.0, 3542685.0 ], [ 362685.0, 3542655.0 ], [ 362655.0, 3542655.0 ], [ 362655.0, 3542625.0 ], [ 362625.0, 3542625.0 ], [ 362625.0, 3542685.0 ], [ 362595.0, 3542685.0 ], [ 362595.0, 3542715.0 ], [ 362565.0, 3542715.0 ], [ 362565.0, 3542775.0 ], [ 362535.0, 3542775.0 ], [ 362535.0, 3542805.0 ], [ 362505.0, 3542805.0 ], [ 362505.0, 3542835.0 ], [ 362235.0, 3542835.0 ], [ 362235.0, 3542445.0 ], [ 362295.0, 3542445.0 ], [ 362295.0, 3542385.0 ], [ 362265.0, 3542385.0 ], [ 362265.0, 3542265.0 ], [ 362235.0, 3542265.0 ], [ 362235.0, 3542145.0 ], [ 362265.0, 3542145.0 ], [ 362265.0, 3541965.0 ], [ 362235.0, 3541965.0 ], [ 362235.0, 3541485.0 ], [ 362265.0, 3541485.0 ], [ 362265.0, 3541455.0 ], [ 362235.0, 3541455.0 ], [ 362235.0, 3541305.0 ], [ 362265.0, 3541305.0 ], [ 362265.0, 3541245.0 ], [ 362475.0, 3541245.0 ], [ 362475.0, 3541215.0 ], [ 362715.0, 3541215.0 ], [ 362715.0, 3541245.0 ], [ 362745.0, 3541245.0 ], [ 362745.0, 3541275.0 ], [ 362835.0, 3541275.0 ], [ 362835.0, 3541245.0 ], [ 362955.0, 3541245.0 ], [ 362955.0, 3541275.0 ], [ 363015.0, 3541275.0 ], [ 363015.0, 3541245.0 ], [ 363075.0, 3541245.0 ], [ 363075.0, 3541215.0 ], [ 363105.0, 3541215.0 ], [ 363105.0, 3541185.0 ], [ 363135.0, 3541185.0 ], [ 363135.0, 3541155.0 ], [ 363375.0, 3541155.0 ], [ 363375.0, 3541125.0 ], [ 363405.0, 3541125.0 ], [ 363405.0, 3541005.0 ], [ 363465.0, 3541005.0 ], [ 363465.0, 3541185.0 ], [ 363615.0, 3541185.0 ], [ 363615.0, 3541155.0 ], [ 363585.0, 3541155.0 ], [ 363585.0, 3541065.0 ], [ 363615.0, 3541065.0 ], [ 363615.0, 3541095.0 ], [ 363645.0, 3541095.0 ], [ 363645.0, 3541125.0 ], [ 363675.0, 3541125.0 ], [ 363675.0, 3541185.0 ], [ 363705.0, 3541185.0 ], [ 363705.0, 3541215.0 ], [ 363885.0, 3541215.0 ], [ 363885.0, 3541185.0 ], [ 363945.0, 3541185.0 ], [ 363945.0, 3541215.0 ], [ 363975.0, 3541215.0 ], [ 363975.0, 3541245.0 ], [ 364005.0, 3541245.0 ], [ 364005.0, 3541275.0 ], [ 364095.0, 3541275.0 ], [ 364095.0, 3541245.0 ], [ 364155.0, 3541245.0 ], [ 364155.0, 3541185.0 ], [ 364185.0, 3541185.0 ], [ 364185.0, 3541125.0 ], [ 364215.0, 3541125.0 ], [ 364215.0, 3541215.0 ], [ 364245.0, 3541215.0 ], [ 364245.0, 3541305.0 ], [ 364275.0, 3541305.0 ], [ 364275.0, 3541335.0 ], [ 364395.0, 3541335.0 ], [ 364395.0, 3541305.0 ], [ 364455.0, 3541305.0 ], [ 364455.0, 3541335.0 ], [ 364515.0, 3541335.0 ], [ 364515.0, 3541365.0 ], [ 364665.0, 3541365.0 ], [ 364665.0, 3541335.0 ], [ 364695.0, 3541335.0 ], [ 364695.0, 3541245.0 ], [ 364725.0, 3541245.0 ], [ 364725.0, 3541035.0 ], [ 364815.0, 3541035.0 ], [ 364815.0, 3541335.0 ], [ 364845.0, 3541335.0 ], [ 364845.0, 3541305.0 ], [ 364875.0, 3541305.0 ], [ 364875.0, 3541365.0 ], [ 364845.0, 3541365.0 ], [ 364845.0, 3541395.0 ], [ 364815.0, 3541395.0 ], [ 364815.0, 3541425.0 ], [ 364785.0, 3541425.0 ], [ 364785.0, 3541455.0 ], [ 364815.0, 3541455.0 ], [ 364815.0, 3541545.0 ], [ 364845.0, 3541545.0 ], [ 364845.0, 3541575.0 ], [ 364905.0, 3541575.0 ], [ 364905.0, 3541605.0 ], [ 364995.0, 3541605.0 ], [ 364995.0, 3541575.0 ], [ 365055.0, 3541575.0 ], [ 365055.0, 3541725.0 ], [ 365145.0, 3541725.0 ], [ 365145.0, 3541755.0 ], [ 365265.0, 3541755.0 ], [ 365265.0, 3541785.0 ], [ 365325.0, 3541785.0 ], [ 365325.0, 3541815.0 ], [ 365355.0, 3541815.0 ], [ 365355.0, 3542175.0 ], [ 365325.0, 3542175.0 ], [ 365325.0, 3542205.0 ], [ 365295.0, 3542205.0 ], [ 365295.0, 3542235.0 ], [ 365265.0, 3542235.0 ], [ 365265.0, 3542265.0 ], [ 365235.0, 3542265.0 ], [ 365235.0, 3542325.0 ], [ 365205.0, 3542325.0 ], [ 365205.0, 3542355.0 ], [ 365175.0, 3542355.0 ], [ 365175.0, 3542415.0 ], [ 365145.0, 3542415.0 ], [ 365145.0, 3542445.0 ], [ 364995.0, 3542445.0 ], [ 364995.0, 3542385.0 ], [ 364965.0, 3542385.0 ], [ 364965.0, 3542325.0 ], [ 364935.0, 3542325.0 ], [ 364935.0, 3542295.0 ], [ 364845.0, 3542295.0 ], [ 364845.0, 3542325.0 ], [ 364815.0, 3542325.0 ], [ 364815.0, 3542355.0 ], [ 364785.0, 3542355.0 ], [ 364785.0, 3542445.0 ], [ 364815.0, 3542445.0 ], [ 364815.0, 3542505.0 ], [ 364785.0, 3542505.0 ], [ 364785.0, 3542535.0 ], [ 364755.0, 3542535.0 ], [ 364755.0, 3542565.0 ], [ 364725.0, 3542565.0 ], [ 364725.0, 3542625.0 ], [ 364755.0, 3542625.0 ], [ 364755.0, 3542685.0 ], [ 364965.0, 3542685.0 ], [ 364965.0, 3542745.0 ], [ 364935.0, 3542745.0 ], [ 364935.0, 3542775.0 ], [ 364875.0, 3542775.0 ], [ 364875.0, 3542805.0 ], [ 364725.0, 3542805.0 ], [ 364725.0, 3542835.0 ], [ 364755.0, 3542835.0 ], [ 364755.0, 3542895.0 ], [ 364875.0, 3542895.0 ], [ 364875.0, 3542865.0 ], [ 364935.0, 3542865.0 ], [ 364935.0, 3542835.0 ], [ 364965.0, 3542835.0 ], [ 364965.0, 3542805.0 ], [ 365025.0, 3542805.0 ], [ 365025.0, 3542775.0 ], [ 365055.0, 3542775.0 ], [ 365055.0, 3542745.0 ], [ 365085.0, 3542745.0 ], [ 365085.0, 3542685.0 ], [ 365115.0, 3542685.0 ], [ 365115.0, 3542655.0 ], [ 365175.0, 3542655.0 ], [ 365175.0, 3542625.0 ], [ 365205.0, 3542625.0 ], [ 365205.0, 3542595.0 ], [ 365235.0, 3542595.0 ], [ 365235.0, 3542565.0 ], [ 365265.0, 3542565.0 ], [ 365265.0, 3542535.0 ], [ 365325.0, 3542535.0 ], [ 365325.0, 3542505.0 ], [ 365355.0, 3542505.0 ], [ 365355.0, 3544125.0 ], [ 365265.0, 3544125.0 ] ], [ [ 364785.0, 3541365.0 ], [ 364815.0, 3541365.0 ], [ 364815.0, 3541335.0 ], [ 364785.0, 3541335.0 ], [ 364785.0, 3541365.0 ] ] ] } }
]
}
