{
"type": "FeatureCollection",
"name": "mask4_2018_rot180",
"crs": { "type": "name", "properties": { "name": "urn:ogc:def:crs:EPSG::32630" } },
"features": [
{ "type": "Feature", "properties": { "type": 1 }, "geometry": { "type": "Polygon", "coordinates": [ [ [ 312945.0, 3509325.0 ], [ 312945.0, 3509265.0 ], [ 313185.0, 3509265.0 ], [ 313185.0, 3509325.0 ], [ 312945.0, 3509325.0 ] ] ] } },
{ "type": "Feature", "properties": { "type": 5 }, "geometry": { "type": "Polygon", "coordinates": [ [ [ 310785.0, 3509325.0 ], [ 310785.0, 3508095.0 ], [ 310815.0, 3508095.0 ], [ 310815.0, 3508065.0 ], [ 310845.0, 3508065.0 ], [ 310845.0, 3508035.0 ], [ 310875.0, 3508035.0 ], [ 310875.0, 3508005.0 ], [ 310905.0, 3508005.0 ], [ 310905.0, 3507975.0 ], [ 310935.0, 3507975.0 ], [ 310935.0, 3507945.0 ], [ 310965.0, 3507945.0 ], [ 310965.0, 3507675.0 ], [ 311025.0, 3507675.0 ], [ 311025.0, 3507645.0 ], [ 311085.0, 3507645.0 ], [ 311085.0, 3507615.0 ], [ 311175.0, 3507615.0 ], [ 311175.0, 3507705.0 ], [ 311205.0, 3507705.0 ], [ 311205.0, 3507735.0 ], [ 311235.0, 3507735.0 ], [ 311235.0, 3507825.0 ], [ 311205.0, 3507825.0 ], [ 311205.0, 3507855.0 ], [ 311085.0, 3507855.0 ], [ 311085.0, 3507885.0 ], [ 311055.0, 3507885.0 ], [ 311055.0, 3507915.0 ], [ 311025.0, 3507915.0 ], [ 311025.0, 3507945.0 ], [ 310995.0, 3507945.0 ], [ 310995.0, 3507975.0 ], [ 310965.0, 3507975.0 ], [ 310965.0, 3508065.0 ], [ 310905.0, 3508065.0 ], [ 310905.0, 3508095.0 ], [ 310875.0, 3508095.0 ], [ 310875.0, 3508155.0 ], [ 310845.0, 3508155.0 ], [ 310845.0, 3508215.0 ], [ 310995.0, 3508215.0 ], [ 310995.0, 3508185.0 ], [ 311085.0, 3508185.0 ], [ 311085.0, 3508155.0 ], [ 311115.0, 3508155.0 ], [ 311115.0, 3508065.0 ], [ 311145.0, 3508065.0 ], [ 311145.0, 3508005.0 ], [ 311205.0, 3508005.0 ], [ 311205.0, 3507975.0 ], [ 311235.0, 3507975.0 ], [ 311235.0, 3507945.0 ], [ 311295.0, 3507945.0 ], [ 311295.0, 3507915.0 ], [ 311355.0, 3507915.0 ], [ 311355.0, 3507885.0 ], [ 311385.0, 3507885.0 ], [ 311385.0, 3507915.0 ], [ 311415.0, 3507915.0 ], [ 311415.0, 3507975.0 ], [ 311445.0, 3507975.0 ], [ 311445.0, 3508065.0 ], [ 311475.0, 3508065.0 ], [ 311475.0, 3508095.0 ], [ 311505.0, 3508095.0 ], [ 311505.0, 3508125.0 ], [ 311535.0, 3508125.0 ], [ 311535.0, 3508155.0 ], [ 311565.0, 3508155.0 ], [ 311565.0, 3508215.0 ], [ 311595.0, 3508215.0 ], [ 311595.0, 3508545.0 ], [ 311565.0, 3508545.0 ], [ 311565.0, 3508605.0 ], [ 311535.0, 3508605.0 ], [ 311535.0, 3508665.0 ], [ 311475.0, 3508665.0 ], [ 311475.0, 3508695.0 ], [ 311415.0, 3508695.0 ], [ 311415.0, 3508725.0 ], [ 311355.0, 3508725.0 ], [ 311355.0, 3508755.0 ], [ 311295.0, 3508755.0 ], [ 311295.0, 3508785.0 ], [ 311265.0, 3508785.0 ], [ 311265.0, 3508815.0 ], [ 311205.0, 3508815.0 ], [ 311205.0, 3508965.0 ], [ 311235.0, 3508965.0 ], [ 311235.0, 3508995.0 ], [ 311325.0, 3508995.0 ], [ 311325.0, 3508965.0 ], [ 311355.0, 3508965.0 ], [ 311355.0, 3509145.0 ], [ 311385.0, 3509145.0 ], [ 311385.0, 3509235.0 ], [ 311445.0, 3509235.0 ], [ 311445.0, 3509265.0 ], [ 311475.0, 3509265.0 ], [ 311475.0, 3509295.0 ], [ 311505.0, 3509295.0 ], [ 311505.0, 3509325.0 ], [ 310785.0, 3509325.0 ] ] ] } },
{ "type": "Feature", "properties": { "type": 1 }, "geometry": { "type": "Polygon", "coordinates": [ [ [ 311505.0, 3509325.0 ], [ 311505.0, 3509295.0 ], [ 311475.0, 3509295.0 ], [ 311475.0, 3509265.0 ], [ 311445.0, 3509265.0 ], [ 311445.0, 3509235.0 ], [ 311385.0, 3509235.0 ], [ 311385.0, 3509145.0 ], [ 311355.0, 3509145.0 ], [ 311355.0, 3508965.0 ], [ 311325.0, 3508965.0 ], [ 311325.0, 3508995.0 ], [ 311235.0, 3508995.0 ], [ 311235.0, 3508965.0 ], [ 311205.0, 3508965.0 ], [ 311205.0, 3508815.0 ], [ 311265.0, 3508815.0 ], [ 311265.0, 3508785.0 ], [ 311295.0, 3508785.0 ], [ 311295.0, 3508755.0 ], [ 311355.0, 3508755.0 ], [ 311355.0, 3508725.0 ], [ 311415.0, 3508725.0 ], [ 311415.0, 3508695.0 ], [ 311475.0, 3508695.0 ], [ 311475.0, 3508665.0 ], [ 311535.0, 3508665.0 ], [ 311535.0, 3508605.0 ], [ 311565.0, 3508605.0 ], [ 311565.0, 3508545.0 ], [ 311595.0, 3508545.0 ], [ 311595.0, 3508215.0 ], [ 311565.0, 3508215.0 ], [ 311565.0, 3508155.0 ], [ 311535.0, 3508155.0 ], [ 311535.0, 3508125.0 ], [ 311505.0, 3508125.0 ], [ 311505.0, 3508095.0 ], [ 311475.0, 3508095.0 ], [ 311475.0, 3508065.0 ], [ 311445.0, 3508065.0 ], [ 311445.0, 3507975.0 ], [ 311415.0, 3507975.0 ], [ 311415.0, 3507915.0 ], [ 311385.0, 3507915.0 ], [ 311385.0, 3507885.0 ], [ 311355.0, 3507885.0 ], [ 311355.0, 3507915.0 ], [ 311295.0, 3507915.0 ], [ 311295.0, 3507945.0 ], [ 311235.0, 3507945.0 ], [ 311235.0, 3507975.0 ], [ 311205.0, 3507975.0 ], [ 311205.0, 3508005.0 ], [ 311145.0, 3508005.0 ], [ 311145.0, 3508065.0 ], [ 311115.0, 3508065.0 ], [ 311115.0, 3508155.0 ], [ 311085.0, 3508155.0 ], [ 311085.0, 3508185.0 ], [ 310995.0, 3508185.0 ], [ 310995.0, 3508215.0 ], [ 310845.0, 3508215.0 ], [ 310845.0, 3508155.0 ], [ 310875.0, 3508155.0 ], [ 310875.0, 3508095.0 ], [ 310905.0, 3508095.0 ], [ 310905.0, 3508065.0 ], [ 310965.0, 3508065.0 ], [ 310965.0, 3507975.0 ], [ 310995.0, 3507975.0 ], [ 310995.0, 3507945.0 ], [ 311025.0, 3507945.0 ], [ 311025.0, 3507915.0 ], [ 311055.0, 3507915.0 ], [ 311055.0, 3507885.0 ], [ 311085.0, 3507885.0 ], [ 311085.0, 3507855.0 ], [ 311205.0, 3507855.0 ], [ 311205.0, 3507825.0 ], [ 311235.0, 3507825.0 ], [ 311235.0, 3507735.0 ], [ 311205.0, 3507735.0 ], [ 311205.0, 3507705.0 ], [ 311175.0, 3507705.0 ], [ 311175.0, 3507615.0 ], [ 311085.0, 3507615.0 ], [ 311085.0, 3507645.0 ], [ 311025.0, 3507645.0 ], [ 311025.0, 3507675.0 ], [ 310965.0, 3507675.0 ], [ 310965.0, 3507945.0 ], [ 310935.0, 3507945.0 ], [ 310935.0, 3507975.0 ], [ 310905.0, 3507975.0 ], [ 310905.0, 3508005.0 ], [ 310875.0, 3508005.0 ], [ 310875.0, 3508035.0 ], [ 310845.0, 3508035.0 ], [ 310845.0, 3508065.0 ], [ 310815.0, 3508065.0 ], [ 310815.0, 3508095.0 ], [ 310785.0, 3508095.0 ], [ 310785.0, 3506205.0 ], [ 311355.0, 3506205.0 ], [ 311355.0, 3506355.0 ], [ 311325.0, 3506355.0 ], [ 311325.0, 3506385.0 ], [ 311265.0, 3506385.0 ], [ 311265.0, 3506415.0 ], [ 311235.0, 3506415.0 ], [ 311235.0, 3506475.0 ], [ 311205.0, 3506475.0 ], [ 311205.0, 3506505.0 ], [ 311175.0, 3506505.0 ], [ 311175.0, 3506535.0 ], [ 311145.0, 3506535.0 ], [ 311145.0, 3506565.0 ], [ 311085.0, 3506565.0 ], [ 311085.0, 3506595.0 ], [ 311055.0, 3506595.0 ], [ 311055.0, 3506625.0 ], [ 310995.0, 3506625.0 ], [ 310995.0, 3506655.0 ], [ 310965.0, 3506655.0 ], [ 310965.0, 3506685.0 ], [ 310905.0, 3506685.0 ], [ 310905.0, 3506715.0 ], [ 310875.0, 3506715.0 ], [ 310875.0, 3506745.0 ], [ 310845.0, 3506745.0 ], [ 310845.0, 3506775.0 ], [ 310875.0, 3506775.0 ], [ 310875.0, 3506835.0 ], [ 310845.0, 3506835.0 ], [ 310845.0, 3506865.0 ], [ 310935.0, 3506865.0 ], [ 310935.0, 3506835.0 ], [ 311145.0, 3506835.0 ], [ 311145.0, 3506805.0 ], [ 311385.0, 3506805.0 ], [ 311385.0, 3506775.0 ], [ 311595.0, 3506775.0 ], [ 311595.0, 3506745.0 ], [ 311835.0, 3506745.0 ], [ 311835.0, 3506715.0 ], [ 311865.0, 3506715.0 ], [ 311865.0, 3506775.0 ], [ 311895.0, 3506775.0 ], [ 311895.0, 3506895.0 ], [ 311925.0, 3506895.0 ], [ 311925.0, 3506925.0 ], [ 311955.0, 3506925.0 ], [ 311955.0, 3506985.0 ], [ 311985.0, 3506985.0 ], [ 311985.0, 3507105.0 ], [ 312015.0, 3507105.0 ], [ 312015.0, 3507375.0 ], [ 312105.0, 3507375.0 ], [ 312105.0, 3507345.0 ], [ 312195.0, 3507345.0 ], [ 312195.0, 3507375.0 ], [ 312225.0, 3507375.0 ], [ 312225.0, 3507435.0 ], [ 312255.0, 3507435.0 ], [ 312255.0, 3507525.0 ], [ 312285.0, 3507525.0 ], [ 312285.0, 3507645.0 ], [ 312315.0, 3507645.0 ], [ 312315.0, 3507735.0 ], [ 312345.0, 3507735.0 ], [ 312345.0, 3507765.0 ], [ 312405.0, 3507765.0 ], [ 312405.0, 3507795.0 ], [ 312495.0, 3507795.0 ], [ 312495.0, 3507825.0 ], [ 312525.0, 3507825.0 ], [ 312525.0, 3507915.0 ], [ 312555.0, 3507915.0 ], [ 312555.0, 3507945.0 ], [ 312585.0, 3507945.0 ], [ 312585.0, 3507975.0 ], [ 312645.0, 3507975.0 ], [ 312645.0, 3508005.0 ], [ 312675.0, 3508005.0 ], [ 312675.0, 3508035.0 ], [ 312705.0, 3508035.0 ], [ 312705.0, 3508065.0 ], [ 312735.0, 3508065.0 ], [ 312735.0, 3508125.0 ], [ 312765.0, 3508125.0 ], [ 312765.0, 3508215.0 ], [ 312795.0, 3508215.0 ], [ 312795.0, 3508305.0 ], [ 312825.0, 3508305.0 ], [ 312825.0, 3508455.0 ], [ 312855.0, 3508455.0 ], [ 312855.0, 3508485.0 ], [ 312885.0, 3508485.0 ], [ 312885.0, 3508545.0 ], [ 312915.0, 3508545.0 ], [ 312915.0, 3508575.0 ], [ 312945.0, 3508575.0 ], [ 312945.0, 3508635.0 ], [ 312975.0, 3508635.0 ], [ 312975.0, 3508695.0 ], [ 313005.0, 3508695.0 ], [ 313005.0, 3508725.0 ], [ 313035.0, 3508725.0 ], [ 313035.0, 3508785.0 ], [ 313065.0, 3508785.0 ], [ 313065.0, 3508815.0 ], [ 313095.0, 3508815.0 ], [ 313095.0, 3508935.0 ], [ 313125.0, 3508935.0 ], [ 313125.0, 3509115.0 ], [ 313035.0, 3509115.0 ], [ 313035.0, 3509055.0 ], [ 313005.0, 3509055.0 ], [ 313005.0, 3509085.0 ], [ 312945.0, 3509085.0 ], [ 312945.0, 3509115.0 ], [ 312915.0, 3509115.0 ], [ 312915.0, 3509145.0 ], [ 312885.0, 3509145.0 ], [ 312885.0, 3509235.0 ], [ 312855.0, 3509235.0 ], [ 312855.0, 3509325.0 ], [ 311505.0, 3509325.0 ] ] ] } },
{ "type": "Feature", "properties": { "type": 5 }, "geometry": { "type": "Polygon", "coordinates": [ [ [ 312855.0, 3509325.0 ], [ 312855.0, 3509235.0 ], [ 312885.0, 3509235.0 ], [ 312885.0, 3509145.0 ], [ 312915.0, 3509145.0 ], [ 312915.0, 3509115.0 ], [ 312945.0, 3509115.0 ], [ 312945.0, 3509085.0 ], [ 313005.0, 3509085.0 ], [ 313005.0, 3509055.0 ], [ 313035.0, 3509055.0 ], [ 313035.0, 3509115.0 ], [ 313125.0, 3509115.0 ], [ 313125.0, 3509085.0 ], [ 313155.0, 3509085.0 ], [ 313155.0, 3508965.0 ], [ 313125.0, 3508965.0 ], [ 313125.0, 3508905.0 ], [ 313095.0, 3508905.0 ], [ 313095.0, 3508815.0 ], [ 313065.0, 3508815.0 ], [ 313065.0, 3508785.0 ], [ 313035.0, 3508785.0 ], [ 313035.0, 3508725.0 ], [ 313005.0, 3508725.0 ], [ 313005.0, 3508695.0 ], [ 312975.0, 3508695.0 ], [ 312975.0, 3508605.0 ], [ 312945.0, 3508605.0 ], [ 312945.0, 3508575.0 ], [ 312915.0, 3508575.0 ], [ 312915.0, 3508545.0 ], [ 312885.0, 3508545.0 ], [ 312885.0, 3508485.0 ], [ 312855.0, 3508485.0 ], [ 312855.0, 3508455.0 ], [ 312825.0, 3508455.0 ], [ 312825.0, 3508305.0 ], [ 312795.0, 3508305.0 ], [ 312795.0, 3508185.0 ], [ 312765.0, 3508185.0 ], [ 312765.0, 3508125.0 ], [ 312735.0, 3508125.0 ], [ 312735.0, 3508065.0 ], [ 312705.0, 3508065.0 ], [ 312705.0, 3508035.0 ], [ 312675.0, 3508035.0 ], [ 312675.0, 3508005.0 ], [ 312645.0, 3508005.0 ], [ 312645.0, 3507975.0 ], [ 312585.0, 3507975.0 ], [ 312585.0, 3507945.0 ], [ 312555.0, 3507945.0 ], [ 312555.0, 3507915.0 ], [ 312525.0, 3507915.0 ], [ 312525.0, 3507825.0 ], [ 312495.0, 3507825.0 ], [ 312495.0, 3507795.0 ], [ 312405.0, 3507795.0 ], [ 312405.0, 3507765.0 ], [ 312345.0, 3507765.0 ], [ 312345.0, 3507735.0 ], [ 312315.0, 3507735.0 ], [ 312315.0, 3507645.0 ], [ 312285.0, 3507645.0 ], [ 312285.0, 3507525.0 ], [ 312255.0, 3507525.0 ], [ 312255.0, 3507435.0 ], [ 312225.0, 3507435.0 ], [ 312225.0, 3507375.0 ], [ 312195.0, 3507375.0 ], [ 312195.0, 3507345.0 ], [ 312105.0, 3507345.0 ], [ 312105.0, 3507375.0 ], [ 312015.0, 3507375.0 ], [ 312015.0, 3507105.0 ], [ 311985.0, 3507105.0 ], [ 311985.0, 3506955.0 ], [ 311955.0, 3506955.0 ], [ 311955.0, 3506925.0 ], [ 311925.0, 3506925.0 ], [ 311925.0, 3506895.0 ], [ 311895.0, 3506895.0 ], [ 311895.0, 3506775.0 ], [ 311865.0, 3506775.0 ], [ 311865.0, 3506715.0 ], [ 311835.0, 3506715.0 ], [ 311835.0, 3506745.0 ], [ 311595.0, 3506745.0 ], [ 311595.0, 3506775.0 ], [ 311385.0, 3506775.0 ], [ 311385.0, 3506805.0 ], [ 311145.0, 3506805.0 ], [ 311145.0, 3506835.0 ], [ 310935.0, 3506835.0 ], [ 310935.0, 3506865.0 ], [ 310845.0, 3506865.0 ], [ 310845.0, 3506835.0 ], [ 310875.0, 3506835.0 ], [ 310875.0, 3506745.0 ], [ 310905.0, 3506745.0 ], [ 310905.0, 3506715.0 ], [ 310935.0, 3506715.0 ], [ 310935.0, 3506685.0 ], [ 310965.0, 3506685.0 ], [ 310965.0, 3506655.0 ], [ 310995.0, 3506655.0 ], [ 310995.0, 3506625.0 ], [ 311055.0, 3506625.0 ], [ 311055.0, 3506595.0 ], [ 311085.0, 3506595.0 ], [ 311085.0, 3506565.0 ], [ 311145.0, 3506565.0 ], [ 311145.0, 3506535.0 ], [ 311175.0, 3506535.0 ], [ 311175.0, 3506505.0 ], [ 311205.0, 3506505.0 ], [ 311205.0, 3506475.0 ], [ 311235.0, 3506475.0 ], [ 311235.0, 3506415.0 ], [ 311265.0, 3506415.0 ], [ 311265.0, 3506385.0 ], [ 311325.0, 3506385.0 ], [ 311325.0, 3506355.0 ], [ 311355.0, 3506355.0 ], [ 311355.0, 3506205.0 ], [ 311475.0, 3506205.0 ], [ 311475.0, 3506265.0 ], [ 311505.0, 3506265.0 ], [ 311505.0, 3506295.0 ], [ 311535.0, 3506295.0 ], [ 311535.0, 3506325.0 ], [ 311565.0, 3506325.0 ], [ 311565.0, 3506355.0 ], [ 311595.0, 3506355.0 ], [ 311595.0, 3506385.0 ], [ 311625.0, 3506385.0 ], [ 311625.0, 3506625.0 ], [ 311595.0, 3506625.0 ], [ 311595.0, 3506655.0 ], [ 311565.0, 3506655.0 ], [ 311565.0, 3506685.0 ], [ 311925.0, 3506685.0 ], [ 311925.0, 3506565.0 ], [ 311955.0, 3506565.0 ], [ 311955.0, 3506385.0 ], [ 311985.0, 3506385.0 ], [ 311985.0, 3506205.0 ], [ 312585.0, 3506205.0 ], [ 312585.0, 3506265.0 ], [ 312645.0, 3506265.0 ], [ 312645.0, 3506295.0 ], [ 312675.0, 3506295.0 ], [ 312675.0, 3506325.0 ], [ 312645.0, 3506325.0 ], [ 312645.0, 3506355.0 ], [ 312615.0, 3506355.0 ], [ 312615.0, 3506385.0 ], [ 312585.0, 3506385.0 ], [ 312585.0, 3506415.0 ], [ 312645.0, 3506415.0 ], [ 312645.0, 3506535.0 ], [ 312615.0, 3506535.0 ], [ 312615.0, 3506625.0 ], [ 312645.0, 3506625.0 ], [ 312645.0, 3506685.0 ], [ 312615.0, 3506685.0 ], [ 312615.0, 3506715.0 ], [ 312585.0, 3506715.0 ], [ 312585.0, 3506745.0 ], [ 312555.0, 3506745.0 ], [ 312555.0, 3506775.0 ], [ 312495.0, 3506775.0 ], [ 312495.0, 3506805.0 ], [ 312405.0, 3506805.0 ], [ 312405.0, 3506835.0 ], [ 312345.0, 3506835.0 ], [ 312345.0, 3506865.0 ], [ 312285.0, 3506865.0 ], [ 312285.0, 3506895.0 ], [ 312255.0, 3506895.0 ], [ 312255.0, 3506985.0 ], [ 312285.0, 3506985.0 ], [ 312285.0, 3507015.0 ], [ 312315.0, 3507015.0 ], [ 312315.0, 3507045.0 ], [ 312345.0, 3507045.0 ], [ 312345.0, 3507135.0 ], [ 312375.0, 3507135.0 ], [ 312375.0, 3507165.0 ], [ 312405.0, 3507165.0 ], [ 312405.0, 3507195.0 ], [ 312435.0, 3507195.0 ], [ 312435.0, 3507225.0 ], [ 312705.0, 3507225.0 ], [ 312705.0, 3507195.0 ], [ 312765.0, 3507195.0 ], [ 312765.0, 3507225.0 ], [ 312795.0, 3507225.0 ], [ 312795.0, 3507255.0 ], [ 312825.0, 3507255.0 ], [ 312825.0, 3507315.0 ], [ 312855.0, 3507315.0 ], [ 312855.0, 3507375.0 ], [ 312885.0, 3507375.0 ], [ 312885.0, 3507495.0 ], [ 312855.0, 3507495.0 ], [ 312855.0, 3507615.0 ], [ 312885.0, 3507615.0 ], [ 312885.0, 3507645.0 ], [ 312915.0, 3507645.0 ], [ 312915.0, 3507675.0 ], [ 312945.0, 3507675.0 ], [ 312945.0, 3507705.0 ], [ 313005.0, 3507705.0 ], [ 313005.0, 3507735.0 ], [ 313035.0, 3507735.0 ], [ 313035.0, 3507765.0 ], [ 313065.0, 3507765.0 ], [ 313065.0, 3507825.0 ], [ 313095.0, 3507825.0 ], [ 313095.0, 3507855.0 ], [ 313125.0, 3507855.0 ], [ 313125.0, 3507915.0 ], [ 313155.0, 3507915.0 ], [ 313155.0, 3507945.0 ], [ 313185.0, 3507945.0 ], [ 313185.0, 3508035.0 ], [ 313125.0, 3508035.0 ], [ 313125.0, 3508095.0 ], [ 313245.0, 3508095.0 ], [ 313245.0, 3508275.0 ], [ 313275.0, 3508275.0 ], [ 313275.0, 3508305.0 ], [ 313335.0, 3508305.0 ], [ 313335.0, 3508335.0 ], [ 313365.0, 3508335.0 ], [ 313365.0, 3508395.0 ], [ 313395.0, 3508395.0 ], [ 313395.0, 3508755.0 ], [ 313425.0, 3508755.0 ], [ 313425.0, 3508905.0 ], [ 313455.0, 3508905.0 ], [ 313455.0, 3508995.0 ], [ 313485.0, 3508995.0 ], [ 313485.0, 3509175.0 ], [ 313515.0, 3509175.0 ], [ 313515.0, 3509325.0 ], [ 313185.0, 3509325.0 ], [ 313185.0, 3509265.0 ], [ 312945.0, 3509265.0 ], [ 312945.0, 3509325.0 ], [ 312855.0, 3509325.0 ] ] ] } },
{ "type": "Feature", "properties": { "type": 1 }, "geometry": { "type": "Polygon", "coordinates": [ [ [ 311565.0, 3506685.0 ], [ 311565.0, 3506655.0 ], [ 311595.0, 3506655.0 ], [ 311595.0, 3506625.0 ], [ 311625.0, 3506625.0 ], [ 311625.0, 3506385.0 ], [ 311595.0, 3506385.0 ], [ 311595.0, 3506355.0 ], [ 311565.0, 3506355.0 ], [ 311565.0, 3506325.0 ], [ 311535.0, 3506325.0 ], [ 311535.0, 3506295.0 ], [ 311505.0, 3506295.0 ], [ 311505.0, 3506265.0 ], [ 311475.0, 3506265.0 ], [ 311475.0, 3506205.0 ], [ 311985.0, 3506205.0 ], [ 311985.0, 3506385.0 ], [ 311955.0, 3506385.0 ], [ 311955.0, 3506565.0 ], [ 311925.0, 3506565.0 ], [ 311925.0, 3506685.0 ], [ 311565.0, 3506685.0 ] ] ] } },
{ "type": "Feature", "properties": { "type": 4 }, "geometry": { "type": "Polygon", "coordinates": [ [ [ 313515.0, 3509325.0 ], [ 313515.0, 3509175.0 ], [ 313485.0, 3509175.0 ], [ 313485.0, 3508995.0 ], [ 313455.0, 3508995.0 ], [ 313455.0, 3508905.0 ], [ 313425.0, 3508905.0 ], [ 313425.0, 3508755.0 ], [ 313395.0, 3508755.0 ], [ 313395.0, 3508635.0 ], [ 313425.0, 3508635.0 ], [ 313425.0, 3508575.0 ], [ 313395.0, 3508575.0 ], [ 313395.0, 3508395.0 ], [ 313365.0, 3508395.0 ], [ 313365.0, 3508335.0 ], [ 313335.0, 3508335.0 ], [ 313335.0, 3508305.0 ], [ 313275.0, 3508305.0 ], [ 313275.0, 3508275.0 ], [ 313245.0, 3508275.0 ], [ 313245.0, 3508095.0 ], [ 313125.0, 3508095.0 ], [ 313125.0, 3508035.0 ], [ 313185.0, 3508035.0 ], [ 313185.0, 3507945.0 ], [ 313155.0, 3507945.0 ], [ 313155.0, 3507915.0 ], [ 313125.0, 3507915.0 ], [ 313125.0, 3507855.0 ], [ 313095.0, 3507855.0 ], [ 313095.0, 3507825.0 ], [ 313065.0, 3507825.0 ], [ 313065.0, 3507765.0 ], [ 313035.0, 3507765.0 ], [ 313035.0, 3507735.0 ], [ 313005.0, 3507735.0 ], [ 313005.0, 3507705.0 ], [ 312945.0, 3507705.0 ], [ 312945.0, 3507675.0 ], [ 312915.0, 3507675.0 ], [ 312915.0, 3507645.0 ], [ 312885.0, 3507645.0 ], [ 312885.0, 3507615.0 ], [ 312855.0, 3507615.0 ], [ 312855.0, 3507495.0 ], [ 312885.0, 3507495.0 ], [ 312885.0, 3507375.0 ], [ 312855.0, 3507375.0 ], [ 312855.0, 3507315.0 ], [ 312825.0, 3507315.0 ], [ 312825.0, 3507255.0 ], [ 312795.0, 3507255.0 ], [ 312795.0, 3507225.0 ], [ 312765.0, 3507225.0 ], [ 312765.0, 3507195.0 ], [ 312705.0, 3507195.0 ], [ 312705.0, 3507225.0 ], [ 312435.0, 3507225.0 ], [ 312435.0, 3507195.0 ], [ 312405.0, 3507195.0 ], [ 312405.0, 3507165.0 ], [ 312375.0, 3507165.0 ], [ 312375.0, 3507135.0 ], [ 312345.0, 3507135.0 ], [ 312345.0, 3507045.0 ], [ 312315.0, 3507045.0 ], [ 312315.0, 3507015.0 ], [ 312285.0, 3507015.0 ], [ 312285.0, 3506985.0 ], [ 312255.0, 3506985.0 ], [ 312255.0, 3506895.0 ], [ 312285.0, 3506895.0 ], [ 312285.0, 3506865.0 ], [ 312345.0, 3506865.0 ], [ 312345.0, 3506835.0 ], [ 312405.0, 3506835.0 ], [ 312405.0, 3506805.0 ], [ 312495.0, 3506805.0 ], [ 312495.0, 3506775.0 ], [ 312555.0, 3506775.0 ], [ 312555.0, 3506745.0 ], [ 312585.0, 3506745.0 ], [ 312585.0, 3506715.0 ], [ 312615.0, 3506715.0 ], [ 312615.0, 3506685.0 ], [ 312645.0, 3506685.0 ], [ 312645.0, 3506625.0 ], [ 312615.0, 3506625.0 ], [ 312615.0, 3506535.0 ], [ 312645.0, 3506535.0 ], [ 312645.0, 3506415.0 ], [ 312585.0, 3506415.0 ], [ 312585.0, 3506385.0 ], [ 312615.0, 3506385.0 ], [ 312615.0, 3506355.0 ], [ 312645.0, 3506355.0 ], [ 312645.0, 3506325.0 ], [ 312675.0, 3506325.0 ], [ 312675.0, 3506295.0 ], [ 312645.0, 3506295.0 ], [ 312645.0, 3506265.0 ], [ 312585.0, 3506265.0 ], [ 312585.0, 3506205.0 ], [ 313905.0, 3506205.0 ], [ 313905.0, 3509325.0 ], [ 313515.0, 3509325.0 ] ] ] } }
]
}
